{"type":"Feature","properties":{},"geometry":{"type":"Polygon","coordinates":[[[7.604889,47.577879],[7.607859,47.578101],[7.609418,47.578186],[7.611162,47.578183],[7.611325,47.578183],[7.613212,47.578161],[7.614981,47.577998],[7.616715,47.577685],[7.619142,47.576875],[7.620603,47.577564],[7.622396,47.578361],[7.623958,47.579165],[7.624553,47.579421],[7.627023,47.577351],[7.623389,47.575366],[7.620802,47.573414],[7.62197,47.570712],[7.622692,47.56963],[7.623362,47.568984],[7.623396,47.568958],[7.623435,47.568934],[7.623479,47.568915],[7.623531,47.568898],[7.623587,47.568886],[7.623651,47.56888],[7.623709,47.56888],[7.623767,47.568886],[7.623822,47.568898],[7.623875,47.568915],[7.623923,47.568937],[7.623966,47.568964],[7.624003,47.568994],[7.624975,47.569931],[7.625734,47.569198],[7.625503,47.569088],[7.627961,47.566715],[7.628134,47.566548],[7.628252,47.566434],[7.629348,47.566945],[7.629938,47.567229],[7.630432,47.567476],[7.630958,47.567746],[7.631349,47.567952],[7.634148,47.56555],[7.633047,47.562675],[7.632924,47.562354],[7.63291,47.562314],[7.632602,47.561512],[7.631525,47.561654],[7.630213,47.561712],[7.628783,47.561687],[7.627369,47.561522],[7.6259,47.561151],[7.62439,47.560759],[7.622617,47.56021],[7.619274,47.559118],[7.617624,47.558654],[7.617682,47.558401],[7.617732,47.558148],[7.617772,47.557894],[7.617803,47.557639],[7.617826,47.557384],[7.617839,47.557129],[7.617844,47.556942],[7.617841,47.556756],[7.617833,47.55657],[7.617818,47.556385],[7.617797,47.556199],[7.617769,47.556014],[7.617721,47.555715],[7.617667,47.555417],[7.617607,47.555119],[7.617589,47.554984],[7.617589,47.554849],[7.617609,47.554714],[7.617647,47.554581],[7.617704,47.554451],[7.617778,47.554325],[7.617902,47.554138],[7.618051,47.55396],[7.618225,47.553793],[7.618421,47.553638],[7.618639,47.553495],[7.618876,47.553368],[7.620411,47.552596],[7.620596,47.552501],[7.620776,47.552402],[7.620952,47.552299],[7.621123,47.552193],[7.621289,47.552082],[7.621449,47.551969],[7.621752,47.55172],[7.622024,47.551456],[7.622264,47.551178],[7.622471,47.550888],[7.622643,47.550588],[7.622779,47.55028],[7.622839,47.550119],[7.622887,47.549956],[7.622925,47.549792],[7.622951,47.549627],[7.622966,47.549462],[7.62297,47.549296],[7.622778,47.546408],[7.622497,47.542431],[7.622311,47.539778],[7.619773,47.540286],[7.619502,47.540346],[7.619237,47.540416],[7.618978,47.540496],[7.618727,47.540585],[7.618483,47.540685],[7.618248,47.540793],[7.61821,47.540805],[7.618169,47.540806],[7.61813,47.540796],[7.6181,47.540777],[7.617944,47.540644],[7.617774,47.540518],[7.61759,47.540401],[7.617395,47.540294],[7.617189,47.540197],[7.616972,47.54011],[7.616747,47.540034],[7.616514,47.53997],[7.614693,47.539518],[7.61467,47.539556],[7.614289,47.53945],[7.614096,47.539389],[7.613912,47.539315],[7.613741,47.539228],[7.613583,47.539131],[7.61344,47.539023],[7.613313,47.538907],[7.613205,47.538782],[7.613116,47.538651],[7.613046,47.538514],[7.612997,47.538373],[7.612968,47.538229],[7.612861,47.53735],[7.612839,47.537247],[7.612799,47.537147],[7.612741,47.537051],[7.612666,47.536961],[7.612575,47.536877],[7.612469,47.536802],[7.612351,47.536736],[7.612235,47.536684],[7.612111,47.536641],[7.611982,47.536606],[7.611848,47.53658],[7.611822,47.53643],[7.611035,47.535964],[7.611093,47.535897],[7.611228,47.535709],[7.611352,47.535511],[7.611386,47.53545],[7.610492,47.535218],[7.610358,47.535456],[7.610229,47.535635],[7.60919,47.53502],[7.607351,47.532675],[7.606016,47.530976],[7.606026,47.530911],[7.606034,47.530846],[7.60604,47.530782],[7.60565,47.530745],[7.605688,47.530558],[7.605581,47.530422],[7.605489,47.530305],[7.605508,47.530173],[7.605526,47.530033],[7.60554,47.529888],[7.605547,47.529786],[7.604622,47.529801],[7.60471,47.529294],[7.604214,47.528651],[7.602995,47.527],[7.601775,47.525351],[7.600644,47.524376],[7.598802,47.522789],[7.597807,47.52193],[7.596297,47.520616],[7.594788,47.519297],[7.592788,47.519469],[7.590746,47.519655],[7.590255,47.519795],[7.590219,47.519929],[7.590042,47.520416],[7.589905,47.520793],[7.589788,47.521318],[7.589674,47.521831],[7.589443,47.522298],[7.589325,47.52296],[7.589402,47.523718],[7.589616,47.524432],[7.589647,47.525162],[7.58997,47.525742],[7.589948,47.526168],[7.58993,47.526679],[7.58984,47.527079],[7.589567,47.527751],[7.589489,47.527928],[7.589328,47.52794],[7.58917,47.527965],[7.589018,47.528002],[7.588873,47.52805],[7.588737,47.52811],[7.588612,47.52818],[7.58854,47.528233],[7.588482,47.528292],[7.588437,47.528357],[7.588408,47.528425],[7.588394,47.528496],[7.588397,47.528568],[7.588472,47.52906],[7.587102,47.529176],[7.585873,47.52928],[7.585911,47.529963],[7.585831,47.530636],[7.58569,47.531328],[7.58517,47.531299],[7.584992,47.531284],[7.584816,47.531258],[7.584644,47.531223],[7.584478,47.531178],[7.584318,47.531123],[7.584165,47.531059],[7.583858,47.530919],[7.583179,47.531487],[7.582787,47.531984],[7.582695,47.532473],[7.583006,47.532948],[7.583471,47.533465],[7.583682,47.533794],[7.584182,47.534647],[7.584525,47.535182],[7.585072,47.535998],[7.585635,47.536911],[7.585926,47.537409],[7.585952,47.537501],[7.585979,47.537562],[7.585991,47.53761],[7.585992,47.537679],[7.585976,47.537748],[7.585946,47.537809],[7.585899,47.53787],[7.585852,47.537914],[7.585715,47.538014],[7.585652,47.538068],[7.585588,47.538138],[7.585537,47.538212],[7.585495,47.538304],[7.585473,47.538398],[7.585471,47.538494],[7.585489,47.538589],[7.585511,47.538649],[7.585728,47.539134],[7.586523,47.540513],[7.586844,47.541245],[7.58727,47.541906],[7.58148,47.543829],[7.581447,47.543825],[7.580972,47.543693],[7.580539,47.543793],[7.580074,47.543839],[7.579155,47.543837],[7.578635,47.543793],[7.578475,47.543733],[7.578282,47.543766],[7.5781,47.543797],[7.577879,47.543811],[7.57773,47.543821],[7.575702,47.543957],[7.575292,47.544027],[7.571122,47.544741],[7.567592,47.54526],[7.564792,47.545691],[7.564685,47.545694],[7.564523,47.545663],[7.564237,47.545589],[7.563518,47.545418],[7.563021,47.545311],[7.562272,47.545207],[7.561933,47.545169],[7.561713,47.545138],[7.561497,47.545098],[7.561285,47.545049],[7.561074,47.54499],[7.560858,47.544942],[7.5601,47.544804],[7.559422,47.544693],[7.557545,47.544405],[7.557049,47.544367],[7.556546,47.544337],[7.555888,47.544341],[7.558759,47.552358],[7.56125,47.551728],[7.561326,47.551862],[7.563059,47.554934],[7.564585,47.557041],[7.564578,47.557108],[7.564568,47.557223],[7.561591,47.559185],[7.559877,47.560537],[7.558727,47.561964],[7.557934,47.562625],[7.556297,47.56349],[7.554659,47.564367],[7.5573,47.565031],[7.558265,47.567247],[7.559335,47.569389],[7.556464,47.571387],[7.556896,47.572466],[7.557026,47.572523],[7.562408,47.574875],[7.565437,47.57622],[7.56649,47.577669],[7.569079,47.577415],[7.571615,47.577112],[7.575254,47.57614],[7.576403,47.576454],[7.578858,47.576669],[7.580764,47.576296],[7.583156,47.57582],[7.58466,47.575521],[7.584397,47.578582],[7.584739,47.580857],[7.585725,47.58409],[7.58697,47.586551],[7.588254,47.588521],[7.589045,47.589902],[7.590412,47.589596],[7.593171,47.58898],[7.598469,47.587644],[7.601975,47.586146],[7.602131,47.58608],[7.604822,47.584935],[7.604586,47.582815],[7.604061,47.581339],[7.604469,47.581299],[7.6047,47.581176],[7.604769,47.580409],[7.605339,47.579888],[7.604889,47.577879]]]}}