{"type":"FeatureCollection","features":[{"type":"Feature","properties":{"modus":"oev","art":"best","beschriftung":"Rang 1 · 14,7 min","rang":1,"minuten":14.7,"orte":324,"lon":7.58965,"lat":47.54831,"adresse":"Centralbahnstrasse 10","name":null},"geometry":{"type":"Point","coordinates":[7.58965,47.54831]}},{"type":"Feature","properties":{"modus":"oev","art":"worst","beschriftung":"Rang 23’308 · 46,4 min","rang":23308,"minuten":46.4,"orte":0,"lon":7.59775,"lat":47.58425,"adresse":null,"name":null},"geometry":{"type":"Point","coordinates":[7.59775,47.58425]}},{"type":"Feature","properties":{"modus":"kultur","art":"best","beschriftung":"Rang 1 · 387 Orte","rang":1,"minuten":15.3,"orte":387,"lon":7.58899,"lat":47.55473,"adresse":"Barfüsserplatz 24","name":null},"geometry":{"type":"Point","coordinates":[7.58899,47.55473]}},{"type":"Feature","properties":{"modus":"kultur","art":"worst","beschriftung":"Rang 23’308 · 1 Orte","rang":23308,"minuten":41.3,"orte":1,"lon":7.55687,"lat":47.57104,"adresse":null,"name":null},"geometry":{"type":"Point","coordinates":[7.55687,47.57104]}}]}