{"type":"FeatureCollection","features":[{"type":"Feature","properties":{"name":"Basel","art":"stadtteil","z":11},"geometry":{"type":"Point","coordinates":[7.587826,47.558108]}},{"type":"Feature","properties":{"name":"Basel Badischer Bahnhof","art":"bahnhof","z":12.5},"geometry":{"type":"Point","coordinates":[7.60731,47.567462]}},{"type":"Feature","properties":{"name":"Basel SBB","art":"bahnhof","z":12.5},"geometry":{"type":"Point","coordinates":[7.589642,47.547623]}},{"type":"Feature","properties":{"name":"Basel St. Johann","art":"bahnhof","z":12.5},"geometry":{"type":"Point","coordinates":[7.572075,47.570053]}},{"type":"Feature","properties":{"name":"Sevogelplatz","art":"platz","z":14},"geometry":{"type":"Point","coordinates":[7.604128,47.55069]}},{"type":"Feature","properties":{"name":"Vorstädte","art":"stadtteil","z":11},"geometry":{"type":"Point","coordinates":[7.588804,47.552646]}},{"type":"Feature","properties":{"name":"Wettstein","art":"stadtteil","z":11},"geometry":{"type":"Point","coordinates":[7.604795,47.560508]}},{"type":"Feature","properties":{"name":"Am Ring","art":"stadtteil","z":11},"geometry":{"type":"Point","coordinates":[7.577477,47.558774]}},{"type":"Feature","properties":{"name":"St. Johann","art":"stadtteil","z":11},"geometry":{"type":"Point","coordinates":[7.575934,47.569086]}},{"type":"Feature","properties":{"name":"Iselin","art":"stadtteil","z":11},"geometry":{"type":"Point","coordinates":[7.565999,47.562196]}},{"type":"Feature","properties":{"name":"Gotthelf","art":"stadtteil","z":11},"geometry":{"type":"Point","coordinates":[7.570952,47.555819]}},{"type":"Feature","properties":{"name":"Bachletten","art":"stadtteil","z":11},"geometry":{"type":"Point","coordinates":[7.571726,47.548566]}},{"type":"Feature","properties":{"name":"Bruderholz","art":"stadtteil","z":11},"geometry":{"type":"Point","coordinates":[7.591624,47.530799]}},{"type":"Feature","properties":{"name":"Gundeldingen","art":"stadtteil","z":11},"geometry":{"type":"Point","coordinates":[7.591485,47.543219]}},{"type":"Feature","properties":{"name":"St. Alban","art":"stadtteil","z":11},"geometry":{"type":"Point","coordinates":[7.605052,47.549565]}},{"type":"Feature","properties":{"name":"Breite","art":"stadtteil","z":11},"geometry":{"type":"Point","coordinates":[7.617853,47.551809]}},{"type":"Feature","properties":{"name":"Hirzbrunnen","art":"stadtteil","z":11},"geometry":{"type":"Point","coordinates":[7.61547,47.568873]}},{"type":"Feature","properties":{"name":"Kleinhüningen","art":"stadtteil","z":11},"geometry":{"type":"Point","coordinates":[7.597574,47.583376]}},{"type":"Feature","properties":{"name":"Klybeck","art":"stadtteil","z":11},"geometry":{"type":"Point","coordinates":[7.590149,47.576798]}},{"type":"Feature","properties":{"name":"Matthäus","art":"stadtteil","z":11},"geometry":{"type":"Point","coordinates":[7.59154,47.567439]}},{"type":"Feature","properties":{"name":"Rosental","art":"stadtteil","z":11},"geometry":{"type":"Point","coordinates":[7.601491,47.567708]}},{"type":"Feature","properties":{"name":"Clara","art":"stadtteil","z":11},"geometry":{"type":"Point","coordinates":[7.596629,47.564085]}},{"type":"Feature","properties":{"name":"Altstadt Kleinbasel","art":"stadtteil","z":11},"geometry":{"type":"Point","coordinates":[7.593382,47.5607]}},{"type":"Feature","properties":{"name":"Altstadt Grossbasel","art":"stadtteil","z":11},"geometry":{"type":"Point","coordinates":[7.588259,47.556427]}},{"type":"Feature","properties":{"name":"Erlenmatt","art":"stadtteil","z":13.5},"geometry":{"type":"Point","coordinates":[7.601681,47.570192]}},{"type":"Feature","properties":{"name":"Messe","art":"stadtteil","z":13.5},"geometry":{"type":"Point","coordinates":[7.601881,47.565302]}},{"type":"Feature","properties":{"name":"Schützenmattpark","art":"stadtteil","z":13.5},"geometry":{"type":"Point","coordinates":[7.574568,47.552611]}},{"type":"Feature","properties":{"name":"Matthäusplatz","art":"platz","z":14},"geometry":{"type":"Point","coordinates":[7.592974,47.567459]}},{"type":"Feature","properties":{"name":"Rütimeyerplatz","art":"platz","z":14},"geometry":{"type":"Point","coordinates":[7.575825,47.549178]}},{"type":"Feature","properties":{"name":"Petersplatz","art":"platz","z":14},"geometry":{"type":"Point","coordinates":[7.583501,47.559117]}},{"type":"Feature","properties":{"name":"Anne Frank-Platz","art":"platz","z":14},"geometry":{"type":"Point","coordinates":[7.601385,47.570732]}},{"type":"Feature","properties":{"name":"Barfüsserplatz","art":"platz","z":14},"geometry":{"type":"Point","coordinates":[7.589591,47.55471]}},{"type":"Feature","properties":{"name":"Voltaplatz","art":"platz","z":14},"geometry":{"type":"Point","coordinates":[7.57845,47.571025]}},{"type":"Feature","properties":{"name":"Theodorskirchplatz","art":"platz","z":14},"geometry":{"type":"Point","coordinates":[7.597126,47.558738]}},{"type":"Feature","properties":{"name":"Tellplatz","art":"platz","z":14},"geometry":{"type":"Point","coordinates":[7.594272,47.542901]}},{"type":"Feature","properties":{"name":"Im Schmiedenhof","art":"platz","z":14},"geometry":{"type":"Point","coordinates":[7.58782,47.556887]}},{"type":"Feature","properties":{"name":"Neuweilerplatz","art":"platz","z":14},"geometry":{"type":"Point","coordinates":[7.564877,47.546902]}},{"type":"Feature","properties":{"name":"Erlenmattplatz","art":"platz","z":14},"geometry":{"type":"Point","coordinates":[7.598243,47.570399]}},{"type":"Feature","properties":{"name":"Centralbahnplatz","art":"platz","z":14},"geometry":{"type":"Point","coordinates":[7.590259,47.548113]}},{"type":"Feature","properties":{"name":"Messeplatz","art":"platz","z":14},"geometry":{"type":"Point","coordinates":[7.601179,47.564072]}},{"type":"Feature","properties":{"name":"Pausenplatz Primarschule Hirzbrunnen","art":"platz","z":14},"geometry":{"type":"Point","coordinates":[7.62536,47.567068]}},{"type":"Feature","properties":{"name":"Hermann-Hesse Platz","art":"platz","z":14},"geometry":{"type":"Point","coordinates":[7.593651,47.559108]}},{"type":"Feature","properties":{"name":"Spalenhof","art":"platz","z":14},"geometry":{"type":"Point","coordinates":[7.586249,47.557416]}},{"type":"Feature","properties":{"name":"Horburgplatz","art":"platz","z":14},"geometry":{"type":"Point","coordinates":[7.59467,47.570939]}},{"type":"Feature","properties":{"name":"Kunigunde-Platz","art":"platz","z":14},"geometry":{"type":"Point","coordinates":[7.609904,47.537796]}},{"type":"Feature","properties":{"name":"Vogesenplatz","art":"platz","z":14},"geometry":{"type":"Point","coordinates":[7.573209,47.57048]}}]}