{"type":"FeatureCollection","features":[{"type":"Feature","properties":{"kind":"area"},"geometry":{"type":"Polygon","coordinates":[[[7.555282,47.544254],[7.554228,47.543696],[7.553874,47.543838],[7.554743,47.544509],[7.555005,47.544512],[7.555277,47.544373],[7.555282,47.544254]]]}},{"type":"Feature","properties":{"kind":"area"},"geometry":{"type":"Polygon","coordinates":[[[7.590631,47.589547],[7.590548,47.58903],[7.590835,47.588966],[7.591023,47.589342],[7.592508,47.588987],[7.592246,47.588377],[7.593595,47.587806],[7.593493,47.587702],[7.592218,47.588192],[7.592044,47.588127],[7.589877,47.588527],[7.589772,47.588599],[7.590631,47.589547]]]}},{"type":"Feature","properties":{"kind":"area"},"geometry":{"type":"Polygon","coordinates":[[[7.593595,47.587806],[7.593943,47.587666],[7.594524,47.587667],[7.601706,47.584769],[7.601671,47.584321],[7.598877,47.585445],[7.598694,47.585439],[7.598609,47.585337],[7.593398,47.587462],[7.593595,47.587806]]]}},{"type":"Feature","properties":{"kind":"area"},"geometry":{"type":"Polygon","coordinates":[[[7.589877,47.588527],[7.589749,47.588254],[7.589929,47.586607],[7.588358,47.582968],[7.589097,47.582801],[7.592044,47.588127],[7.589877,47.588527]]]}},{"type":"Feature","properties":{"kind":"area"},"geometry":{"type":"Polygon","coordinates":[[[7.614918,47.531266],[7.614655,47.531325],[7.6154,47.531222],[7.615921,47.531572],[7.616042,47.53088],[7.616794,47.530514],[7.616854,47.530287],[7.61674,47.530217],[7.616717,47.529905],[7.616516,47.529762],[7.616412,47.530074],[7.616186,47.530214],[7.615801,47.530174],[7.615305,47.530569],[7.615497,47.530683],[7.615161,47.531033],[7.615179,47.531207],[7.614918,47.531266]]]}},{"type":"Feature","properties":{"kind":"area"},"geometry":{"type":"Polygon","coordinates":[[[7.650394,47.59876],[7.650194,47.597617],[7.64956,47.59615],[7.648048,47.594155],[7.645564,47.591856],[7.642097,47.589079],[7.637096,47.586363],[7.623249,47.577886],[7.621701,47.577131],[7.61985,47.576558],[7.618831,47.57637],[7.610419,47.575515],[7.61032,47.575446],[7.608324,47.575347],[7.605493,47.574983],[7.605194,47.575057],[7.604254,47.574855],[7.599247,47.574523],[7.597633,47.574573],[7.596897,47.574866],[7.59651,47.575209],[7.595529,47.577307],[7.593955,47.579881],[7.593349,47.580547],[7.592543,47.581189],[7.591119,47.581724],[7.587129,47.582564],[7.586768,47.582575],[7.586961,47.582955],[7.591845,47.581747],[7.59279,47.581321],[7.5933,47.580948],[7.5942,47.579995],[7.595659,47.577597],[7.59679,47.575263],[7.597142,47.574975],[7.598054,47.5747],[7.601123,47.574829],[7.602965,47.575053],[7.603786,47.575006],[7.605066,47.575252],[7.60633,47.575381],[7.618176,47.576471],[7.620135,47.576834],[7.621175,47.577159],[7.623026,47.577997],[7.636745,47.586412],[7.641622,47.589058],[7.64267,47.589764],[7.645137,47.591772],[7.647724,47.594186],[7.649117,47.59603],[7.649509,47.596763],[7.649948,47.598256],[7.649867,47.598748],[7.650394,47.59876]]]}},{"type":"Feature","properties":{"kind":"area"},"geometry":{"type":"Polygon","coordinates":[[[7.631492,47.580037],[7.632068,47.579627],[7.631845,47.579167],[7.631412,47.578732],[7.630481,47.578196],[7.6297,47.578876],[7.631492,47.580037]]]}},{"type":"Feature","properties":{"kind":"area"},"geometry":{"type":"Polygon","coordinates":[[[7.647328,47.552107],[7.647661,47.551763],[7.648164,47.551984],[7.647831,47.552328],[7.647328,47.552107]]]}},{"type":"Feature","properties":{"kind":"area"},"geometry":{"type":"Polygon","coordinates":[[[7.622277,47.524655],[7.622246,47.523486],[7.62184,47.523379],[7.62181,47.524622],[7.621632,47.525456],[7.621879,47.52623],[7.622098,47.526501],[7.622164,47.527138],[7.621593,47.528328],[7.621418,47.529806],[7.621587,47.530489],[7.621622,47.532246],[7.621733,47.532299],[7.621627,47.532326],[7.621687,47.534091],[7.62253,47.543991],[7.622446,47.544161],[7.62255,47.545873],[7.622662,47.545974],[7.622574,47.546056],[7.622723,47.54832],[7.622915,47.549545],[7.622223,47.551209],[7.621174,47.55204],[7.621234,47.552129],[7.621056,47.552107],[7.62025,47.552573],[7.620233,47.552718],[7.619978,47.552711],[7.618691,47.553327],[7.617964,47.553866],[7.617596,47.554299],[7.617637,47.554387],[7.617516,47.554395],[7.617402,47.555053],[7.617835,47.557356],[7.617534,47.557814],[7.617093,47.557865],[7.618079,47.558056],[7.617942,47.557907],[7.618155,47.557404],[7.618063,47.557372],[7.617691,47.554993],[7.617997,47.554199],[7.61867,47.553592],[7.620912,47.552494],[7.621848,47.551831],[7.622015,47.551568],[7.622196,47.551555],[7.622899,47.550515],[7.622838,47.550404],[7.622954,47.550384],[7.623035,47.550193],[7.623171,47.549523],[7.622993,47.548354],[7.623087,47.547972],[7.622875,47.546888],[7.622985,47.546737],[7.622952,47.546015],[7.62275,47.544467],[7.622863,47.543973],[7.622607,47.541736],[7.622441,47.541395],[7.62244,47.539656],[7.622047,47.535107],[7.622004,47.533298],[7.622126,47.532698],[7.621952,47.531878],[7.622027,47.53121],[7.62163,47.529303],[7.621939,47.528158],[7.622521,47.527224],[7.622525,47.525761],[7.622291,47.525377],[7.622277,47.524655]]]}},{"type":"Feature","properties":{"kind":"area"},"geometry":{"type":"Polygon","coordinates":[[[7.608041,47.573954],[7.608271,47.574021],[7.608825,47.573815],[7.608983,47.573584],[7.60866,47.573527],[7.607961,47.573728],[7.607834,47.573834],[7.608041,47.573954]]]}},{"type":"Feature","properties":{"kind":"area"},"geometry":{"type":"Polygon","coordinates":[[[7.578871,47.59186],[7.570249,47.59803],[7.569529,47.598446],[7.562279,47.60364],[7.561518,47.604335],[7.561139,47.604527],[7.546741,47.619163],[7.54619,47.619393],[7.545766,47.619806],[7.545677,47.619899],[7.545755,47.619936],[7.545382,47.620257],[7.545283,47.620712],[7.529853,47.636355],[7.529892,47.636477],[7.530021,47.636512],[7.546042,47.620093],[7.545614,47.620393],[7.545481,47.620312],[7.546439,47.619365],[7.546551,47.619432],[7.5463,47.619735],[7.546434,47.619778],[7.560996,47.604961],[7.562521,47.603691],[7.578867,47.592083],[7.578972,47.591999],[7.578871,47.59186]]]}},{"type":"Feature","properties":{"kind":"area"},"geometry":{"type":"Polygon","coordinates":[[[7.541465,47.594034],[7.54166,47.594093],[7.541857,47.593763],[7.542263,47.593791],[7.542329,47.593624],[7.541666,47.59353],[7.541465,47.594034]]]}},{"type":"Feature","properties":{"kind":"area"},"geometry":{"type":"Polygon","coordinates":[[[7.628122,47.558962],[7.630741,47.55914],[7.630755,47.559039],[7.628139,47.558849],[7.628122,47.558962]]]}},{"type":"Feature","properties":{"kind":"area"},"geometry":{"type":"Polygon","coordinates":[[[7.630922,47.558952],[7.630931,47.558844],[7.628156,47.558664],[7.628153,47.558784],[7.630922,47.558952]]]}},{"type":"Feature","properties":{"kind":"area"},"geometry":{"type":"Polygon","coordinates":[[[7.543339,47.590806],[7.543651,47.591031],[7.54385,47.591059],[7.543956,47.590985],[7.543909,47.59024],[7.543781,47.590109],[7.54297,47.590235],[7.542845,47.590329],[7.543339,47.590806]]]}},{"type":"Feature","properties":{"kind":"area"},"geometry":{"type":"Polygon","coordinates":[[[7.548997,47.56729],[7.549319,47.567282],[7.549404,47.566986],[7.549034,47.566776],[7.548557,47.566768],[7.548401,47.566855],[7.548417,47.567221],[7.548997,47.56729]]]}},{"type":"Feature","properties":{"kind":"area"},"geometry":{"type":"Polygon","coordinates":[[[7.54269,47.590155],[7.543862,47.589889],[7.543991,47.588745],[7.542976,47.58813],[7.541969,47.587657],[7.541581,47.587611],[7.541138,47.587712],[7.540927,47.588066],[7.541295,47.588383],[7.541764,47.589324],[7.54218,47.589843],[7.542404,47.590059],[7.54269,47.590155]]]}},{"type":"Feature","properties":{"kind":"area"},"geometry":{"type":"Polygon","coordinates":[[[7.625825,47.560441],[7.62534,47.56029],[7.625919,47.560374],[7.626347,47.559425],[7.625401,47.55929],[7.625623,47.559292],[7.625579,47.559198],[7.62218,47.559072],[7.622562,47.558964],[7.624068,47.559001],[7.623057,47.558901],[7.627197,47.559029],[7.628122,47.558962],[7.628141,47.558864],[7.627347,47.558774],[7.628155,47.558767],[7.628156,47.558664],[7.626901,47.558396],[7.623178,47.558165],[7.621678,47.558178],[7.619739,47.558324],[7.61574,47.557639],[7.613709,47.55701],[7.610475,47.556212],[7.606361,47.555446],[7.601646,47.555162],[7.59994,47.555138],[7.597045,47.555367],[7.595329,47.555827],[7.594894,47.555798],[7.594407,47.556],[7.59396,47.55631],[7.593395,47.556536],[7.592974,47.557],[7.592051,47.557358],[7.591979,47.557321],[7.589931,47.558587],[7.588301,47.560024],[7.58671,47.561653],[7.584903,47.563699],[7.584176,47.56469],[7.583492,47.566416],[7.583343,47.567447],[7.583309,47.569486],[7.583522,47.570822],[7.583738,47.571388],[7.583765,47.57263],[7.583177,47.575843],[7.583088,47.578969],[7.583327,47.580583],[7.583846,47.582653],[7.584441,47.584141],[7.585977,47.587314],[7.586291,47.587657],[7.586975,47.588852],[7.587257,47.589079],[7.58799,47.591261],[7.588358,47.591666],[7.588373,47.591932],[7.589061,47.592835],[7.58836,47.593013],[7.588396,47.59345],[7.588513,47.593555],[7.589489,47.593378],[7.590362,47.594558],[7.591107,47.596025],[7.591609,47.597914],[7.591711,47.598768],[7.591768,47.599643],[7.591624,47.600951],[7.591287,47.601894],[7.590031,47.603851],[7.587962,47.60586],[7.586313,47.6071],[7.584663,47.608164],[7.572967,47.61439],[7.570711,47.615695],[7.57196,47.617332],[7.5748,47.617424],[7.57528,47.616929],[7.576627,47.615936],[7.582798,47.612676],[7.582731,47.612518],[7.585081,47.611249],[7.585348,47.611293],[7.588386,47.60955],[7.590752,47.607595],[7.59068,47.607371],[7.591512,47.606447],[7.591889,47.606396],[7.593356,47.604128],[7.594012,47.602541],[7.594366,47.601233],[7.594543,47.599883],[7.594437,47.597738],[7.594252,47.597024],[7.593401,47.595099],[7.591909,47.59245],[7.591905,47.592067],[7.591693,47.591747],[7.591556,47.591759],[7.591477,47.591663],[7.59152,47.591309],[7.591251,47.591168],[7.590623,47.59003],[7.590631,47.589547],[7.589683,47.588571],[7.588757,47.587293],[7.58704,47.584032],[7.586916,47.583543],[7.586961,47.582955],[7.586266,47.581452],[7.585991,47.580327],[7.585832,47.580228],[7.585785,47.579778],[7.585881,47.5797],[7.585673,47.578746],[7.585826,47.578629],[7.585927,47.576715],[7.58657,47.573263],[7.586615,47.572108],[7.586163,47.569195],[7.58615,47.568],[7.586413,47.566534],[7.587111,47.564919],[7.587685,47.563975],[7.58921,47.561998],[7.591075,47.560219],[7.592737,47.559043],[7.593981,47.558341],[7.594894,47.557897],[7.596926,47.55715],[7.599013,47.556841],[7.60233,47.556859],[7.604985,47.557119],[7.608654,47.557826],[7.60885,47.557933],[7.609191,47.557929],[7.612026,47.558593],[7.612919,47.558632],[7.6173,47.559655],[7.618814,47.559927],[7.621432,47.560775],[7.625087,47.561771],[7.625233,47.561521],[7.625145,47.561478],[7.625258,47.561479],[7.625393,47.561251],[7.625306,47.561208],[7.625418,47.561209],[7.625555,47.560982],[7.625469,47.560939],[7.625578,47.56094],[7.625825,47.560441]]]}},{"type":"Feature","properties":{"kind":"area"},"geometry":{"type":"Polygon","coordinates":[[[7.569981,47.524164],[7.570929,47.523829],[7.57055,47.523269],[7.569623,47.523528],[7.569981,47.524164]]]}},{"type":"Feature","properties":{"kind":"area"},"geometry":{"type":"Polygon","coordinates":[[[7.617329,47.530519],[7.617646,47.530711],[7.617507,47.530864],[7.617752,47.531076],[7.617702,47.531342],[7.617972,47.531549],[7.618212,47.531445],[7.618247,47.53124],[7.618448,47.531185],[7.618639,47.530751],[7.618975,47.530706],[7.619038,47.530468],[7.618424,47.530478],[7.618373,47.530171],[7.618095,47.529972],[7.61777,47.530025],[7.617446,47.530216],[7.617329,47.530519]]]}},{"type":"Feature","properties":{"kind":"area"},"geometry":{"type":"Polygon","coordinates":[[[7.579738,47.591444],[7.579998,47.591353],[7.58066,47.590745],[7.581012,47.59064],[7.582017,47.590015],[7.582152,47.590018],[7.582445,47.589743],[7.582665,47.589728],[7.583441,47.589366],[7.583555,47.589147],[7.583339,47.589306],[7.583026,47.589043],[7.584696,47.588146],[7.585013,47.588179],[7.58517,47.588098],[7.585125,47.588269],[7.584715,47.588564],[7.583664,47.589085],[7.583499,47.589385],[7.582752,47.589785],[7.582485,47.589789],[7.582429,47.58994],[7.582001,47.590091],[7.581485,47.590484],[7.581167,47.59055],[7.580187,47.591248],[7.580015,47.591486],[7.579531,47.591606],[7.578972,47.591999],[7.578871,47.59186],[7.579367,47.591499],[7.579967,47.590831],[7.582352,47.589381],[7.583019,47.589126],[7.583167,47.589257],[7.582645,47.589464],[7.580594,47.590663],[7.579738,47.591444]]]}},{"type":"Feature","properties":{"kind":"area"},"geometry":{"type":"Polygon","coordinates":[[[7.625193,47.5618],[7.627179,47.562434],[7.628283,47.562569],[7.62968,47.562626],[7.631783,47.562507],[7.636055,47.56168],[7.637921,47.560904],[7.639147,47.56026],[7.641277,47.558817],[7.641375,47.558561],[7.641631,47.558424],[7.641728,47.558241],[7.642542,47.557676],[7.642941,47.557087],[7.644195,47.555833],[7.645005,47.554847],[7.645172,47.554829],[7.64527,47.554499],[7.646034,47.553406],[7.645903,47.553319],[7.646699,47.552196],[7.646909,47.552184],[7.647767,47.550964],[7.648492,47.550199],[7.650203,47.548788],[7.651701,47.547974],[7.654021,47.54738],[7.656699,47.546959],[7.659834,47.546699],[7.660673,47.546471],[7.661966,47.545919],[7.662549,47.54553],[7.662939,47.545052],[7.665126,47.540382],[7.665626,47.539645],[7.66713,47.538047],[7.668487,47.537042],[7.669864,47.536269],[7.672396,47.535454],[7.675225,47.534743],[7.677901,47.533954],[7.683314,47.533406],[7.691621,47.533206],[7.692866,47.533213],[7.69547,47.533416],[7.696163,47.533626],[7.697301,47.533781],[7.699573,47.534833],[7.701903,47.536265],[7.704192,47.537468],[7.704595,47.537851],[7.70471,47.538191],[7.705341,47.538617],[7.707327,47.539362],[7.707713,47.539423],[7.708021,47.539318],[7.708176,47.539151],[7.706202,47.538378],[7.705519,47.537972],[7.706898,47.53823],[7.708308,47.536544],[7.706845,47.535888],[7.70822,47.536032],[7.710146,47.536795],[7.710324,47.536587],[7.709599,47.536355],[7.7105,47.536653],[7.710597,47.536572],[7.710203,47.536181],[7.708454,47.535511],[7.707424,47.535323],[7.705906,47.535209],[7.704831,47.534919],[7.704526,47.534861],[7.704479,47.534926],[7.704334,47.534787],[7.704009,47.534717],[7.703703,47.534741],[7.703715,47.534662],[7.70303,47.534457],[7.702959,47.534501],[7.702959,47.534432],[7.702433,47.534261],[7.701725,47.533861],[7.701481,47.533839],[7.701517,47.533779],[7.70092,47.533571],[7.700298,47.5332],[7.700243,47.533274],[7.700239,47.533177],[7.698632,47.532481],[7.694935,47.531691],[7.693202,47.531561],[7.690232,47.531524],[7.689808,47.531611],[7.687035,47.531615],[7.684469,47.531765],[7.682146,47.53168],[7.680662,47.531731],[7.679793,47.531841],[7.679296,47.532021],[7.679032,47.531976],[7.677673,47.532223],[7.67696,47.532196],[7.676749,47.532305],[7.675186,47.532607],[7.672609,47.533452],[7.671297,47.533672],[7.668663,47.534364],[7.667658,47.53475],[7.666698,47.535288],[7.664267,47.537113],[7.663383,47.537999],[7.662908,47.538731],[7.660544,47.543802],[7.65975,47.54455],[7.659023,47.544879],[7.658464,47.545016],[7.651375,47.546159],[7.650132,47.546636],[7.647769,47.548121],[7.64687,47.548843],[7.64555,47.550266],[7.643918,47.552344],[7.63972,47.556698],[7.638852,47.557353],[7.637819,47.557875],[7.636299,47.558448],[7.634699,47.558813],[7.633439,47.558869],[7.631927,47.55878],[7.630931,47.558844],[7.630922,47.558952],[7.632162,47.559079],[7.630755,47.559039],[7.630741,47.55914],[7.632259,47.559371],[7.6338,47.559435],[7.636184,47.559197],[7.636314,47.559284],[7.633329,47.56036],[7.631463,47.560594],[7.631448,47.560344],[7.631078,47.560358],[7.631116,47.560649],[7.630984,47.56066],[7.630929,47.560367],[7.630591,47.560384],[7.630633,47.560674],[7.629773,47.560677],[7.628967,47.560447],[7.627538,47.559745],[7.626809,47.559499],[7.626317,47.560564],[7.625984,47.560488],[7.625922,47.560752],[7.62583,47.560744],[7.625756,47.561024],[7.625666,47.561016],[7.625593,47.561293],[7.625369,47.561511],[7.625432,47.561562],[7.625342,47.561555],[7.625193,47.5618]]]}},{"type":"Feature","properties":{"kind":"area"},"geometry":{"type":"Polygon","coordinates":[[[7.728578,47.637138],[7.728127,47.637066],[7.726773,47.637265],[7.725731,47.637642],[7.724791,47.637785],[7.723487,47.637763],[7.72256,47.637559],[7.720067,47.637562],[7.719542,47.637641],[7.717032,47.637664],[7.715685,47.637766],[7.712196,47.636953],[7.710898,47.636913],[7.708856,47.637209],[7.708618,47.637367],[7.708745,47.637422],[7.708919,47.637286],[7.708624,47.637552],[7.708507,47.637496],[7.708258,47.63795],[7.706293,47.639207],[7.705466,47.639581],[7.704528,47.63982],[7.702789,47.639908],[7.695271,47.639449],[7.693849,47.63908],[7.693107,47.638775],[7.689952,47.637174],[7.688682,47.63643],[7.683501,47.634541],[7.679362,47.633561],[7.670478,47.632113],[7.668293,47.631519],[7.666389,47.63072],[7.660438,47.627134],[7.659422,47.626419],[7.658478,47.625659],[7.658093,47.625044],[7.656653,47.624134],[7.654464,47.622153],[7.653414,47.62106],[7.652909,47.620324],[7.652802,47.619645],[7.653303,47.617366],[7.653268,47.616641],[7.652644,47.613804],[7.652833,47.612681],[7.653902,47.610042],[7.654101,47.609145],[7.654089,47.607351],[7.653761,47.606585],[7.652202,47.6042],[7.650997,47.601737],[7.650143,47.59961],[7.650215,47.598976],[7.650394,47.59876],[7.649867,47.598748],[7.649816,47.599555],[7.650099,47.600391],[7.651558,47.603548],[7.65369,47.606968],[7.65387,47.607656],[7.653671,47.609841],[7.652453,47.612773],[7.652349,47.613736],[7.653022,47.616977],[7.652948,47.617872],[7.652529,47.61957],[7.652699,47.620523],[7.652951,47.620906],[7.654636,47.622628],[7.657473,47.625353],[7.658684,47.626159],[7.658829,47.626366],[7.662859,47.628855],[7.662948,47.629074],[7.663052,47.62907],[7.663007,47.628949],[7.66637,47.630941],[7.668334,47.631752],[7.670725,47.632368],[7.679555,47.633769],[7.683262,47.634691],[7.687638,47.636176],[7.687769,47.63646],[7.688136,47.63673],[7.687959,47.636899],[7.688032,47.636949],[7.688407,47.63686],[7.693248,47.639067],[7.693824,47.639296],[7.695123,47.639612],[7.702803,47.640065],[7.704653,47.639987],[7.706061,47.639568],[7.709392,47.637484],[7.710109,47.63725],[7.711812,47.637173],[7.713187,47.637512],[7.716264,47.638087],[7.717426,47.638065],[7.71801,47.637989],[7.718152,47.637861],[7.720214,47.63775],[7.722214,47.63776],[7.724484,47.637968],[7.725813,47.637832],[7.727152,47.6374],[7.728329,47.637265],[7.731478,47.638441],[7.733527,47.639037],[7.743307,47.641327],[7.743434,47.641074],[7.733335,47.638833],[7.73207,47.638454],[7.729098,47.637265],[7.728578,47.637138]]]}},{"type":"Feature","properties":{"kind":"area"},"geometry":{"type":"Polygon","coordinates":[[[7.619349,47.518693],[7.619563,47.518527],[7.620544,47.519273],[7.621472,47.520388],[7.621911,47.52122],[7.622156,47.522065],[7.622246,47.523486],[7.62184,47.523379],[7.621707,47.521854],[7.621211,47.520625],[7.620728,47.519915],[7.619349,47.518693]]]}},{"type":"Feature","properties":{"kind":"area"},"geometry":{"type":"Polygon","coordinates":[[[7.618978,47.518423],[7.618534,47.518113],[7.617609,47.516998],[7.616123,47.514965],[7.614158,47.512507],[7.613654,47.512016],[7.613589,47.511799],[7.612583,47.510784],[7.610798,47.508238],[7.608828,47.505911],[7.609106,47.505837],[7.609511,47.506308],[7.61583,47.514222],[7.616009,47.51464],[7.616412,47.514953],[7.616618,47.515463],[7.617133,47.515904],[7.617727,47.516795],[7.618724,47.517907],[7.619563,47.518527],[7.619349,47.518693],[7.618978,47.518423]]]}},{"type":"Feature","properties":{"kind":"area"},"geometry":{"type":"Polygon","coordinates":[[[7.571347,47.618732],[7.571245,47.619088],[7.570988,47.619331],[7.571068,47.619551],[7.570727,47.620919],[7.570045,47.620505],[7.569225,47.620259],[7.568738,47.619902],[7.568376,47.619962],[7.568335,47.620144],[7.568813,47.620473],[7.569792,47.620812],[7.570417,47.621292],[7.570415,47.623137],[7.569947,47.625061],[7.570106,47.625217],[7.569938,47.62567],[7.570154,47.625641],[7.570227,47.625714],[7.570092,47.625889],[7.56984,47.625824],[7.569825,47.626771],[7.569387,47.627759],[7.569135,47.628038],[7.5694,47.628324],[7.569393,47.628536],[7.568726,47.62984],[7.568218,47.630656],[7.566562,47.632566],[7.566434,47.632536],[7.567375,47.630865],[7.567539,47.630197],[7.567377,47.630182],[7.566439,47.63134],[7.565757,47.632693],[7.564819,47.63377],[7.56306,47.635222],[7.561092,47.636418],[7.560123,47.637226],[7.558388,47.638415],[7.55689,47.639127],[7.55802,47.63852],[7.557898,47.638388],[7.559922,47.637031],[7.553453,47.640407],[7.552952,47.640535],[7.551007,47.64139],[7.542254,47.645541],[7.538222,47.647844],[7.536057,47.649341],[7.533936,47.650926],[7.532938,47.651854],[7.532786,47.652552],[7.533147,47.652577],[7.532471,47.653707],[7.530213,47.65552],[7.529982,47.655547],[7.530017,47.655282],[7.529883,47.655321],[7.530603,47.655964],[7.533526,47.653594],[7.533816,47.652943],[7.533783,47.652315],[7.534553,47.651944],[7.534807,47.651914],[7.535742,47.650786],[7.538914,47.648469],[7.538602,47.64843],[7.538761,47.648282],[7.53945,47.647997],[7.539529,47.647762],[7.540103,47.647407],[7.540154,47.64755],[7.540319,47.647597],[7.540641,47.647476],[7.541412,47.64739],[7.541978,47.647396],[7.542373,47.647307],[7.542504,47.64736],[7.543291,47.647047],[7.54635,47.645366],[7.547255,47.645028],[7.558253,47.639548],[7.562901,47.636837],[7.564221,47.635805],[7.564463,47.635448],[7.565332,47.63495],[7.566724,47.633669],[7.567982,47.632302],[7.56955,47.630164],[7.570476,47.628525],[7.571528,47.625804],[7.572159,47.623071],[7.57237,47.622793],[7.573179,47.620026],[7.573542,47.619215],[7.5748,47.617424],[7.57196,47.617332],[7.571343,47.618515],[7.571441,47.618535],[7.571347,47.618732]]]}},{"type":"Feature","properties":{"kind":"line"},"geometry":{"type":"LineString","coordinates":[[7.569904,47.524534],[7.570546,47.525042],[7.572013,47.526893],[7.572297,47.527375],[7.571928,47.528707],[7.57143,47.529234],[7.570932,47.5296],[7.570807,47.52979],[7.570797,47.529917],[7.571181,47.530712],[7.571215,47.531048],[7.57101,47.53139],[7.571029,47.531649],[7.572013,47.532387],[7.572352,47.533342],[7.573455,47.534295],[7.574256,47.535286],[7.574862,47.535702],[7.575316,47.536896],[7.575195,47.537193],[7.574949,47.537304]]}},{"type":"Feature","properties":{"kind":"line"},"geometry":{"type":"LineString","coordinates":[[7.576142,47.540884],[7.576244,47.541138],[7.577281,47.542317],[7.577681,47.542969],[7.578322,47.545556],[7.578566,47.54607]]}},{"type":"Feature","properties":{"kind":"line"},"geometry":{"type":"LineString","coordinates":[[7.588789,47.58322],[7.591188,47.587724],[7.59105,47.58819],[7.590373,47.588909]]}},{"type":"Feature","properties":{"kind":"line"},"geometry":{"type":"LineString","coordinates":[[7.601061,47.584772],[7.591983,47.588371],[7.590373,47.588909],[7.589039,47.589897]]}},{"type":"Feature","properties":{"kind":"line"},"geometry":{"type":"LineString","coordinates":[[7.630925,47.558905],[7.628181,47.558727]]}},{"type":"Feature","properties":{"kind":"line"},"geometry":{"type":"LineString","coordinates":[[7.630748,47.55909],[7.628157,47.558915]]}},{"type":"Feature","properties":{"kind":"line"},"geometry":{"type":"LineString","coordinates":[[7.581425,47.548409],[7.581461,47.548447]]}},{"type":"Feature","properties":{"kind":"line"},"geometry":{"type":"LineString","coordinates":[[7.582516,47.549039],[7.584353,47.550325],[7.585992,47.551045]]}},{"type":"Feature","properties":{"kind":"line"},"geometry":{"type":"LineString","coordinates":[[7.624294,47.578657],[7.624691,47.57771],[7.624756,47.577321],[7.624629,47.577167]]}},{"type":"Feature","properties":{"kind":"line"},"geometry":{"type":"LineString","coordinates":[[7.624629,47.577167],[7.617224,47.573007]]}},{"type":"Feature","properties":{"kind":"line"},"geometry":{"type":"LineString","coordinates":[[7.559695,47.513689],[7.560274,47.514111],[7.560553,47.514439],[7.561945,47.517492],[7.562362,47.518046],[7.563084,47.518468],[7.566746,47.519825],[7.567266,47.520263],[7.56741,47.520489],[7.567999,47.520929],[7.568154,47.521149],[7.568204,47.521399],[7.568335,47.521518],[7.568827,47.522846],[7.569904,47.524534]]}},{"type":"Feature","properties":{"kind":"line"},"geometry":{"type":"LineString","coordinates":[[7.641557,47.541219],[7.641382,47.541234]]}},{"type":"Feature","properties":{"kind":"line"},"geometry":{"type":"LineString","coordinates":[[7.647771,47.539644],[7.647718,47.539555],[7.647424,47.539487],[7.646495,47.53973],[7.645889,47.539745],[7.645583,47.53993],[7.645165,47.540061],[7.644158,47.540277],[7.643476,47.540525],[7.642865,47.540607],[7.642293,47.540831],[7.641789,47.540878],[7.641467,47.541078]]}},{"type":"Feature","properties":{"kind":"line"},"geometry":{"type":"LineString","coordinates":[[7.641454,47.541315],[7.641434,47.541273],[7.641382,47.541234]]}},{"type":"Feature","properties":{"kind":"line"},"geometry":{"type":"LineString","coordinates":[[7.641328,47.541206],[7.640799,47.541387],[7.640429,47.542088],[7.639701,47.542497],[7.639399,47.542837],[7.63904,47.543059],[7.637906,47.543473],[7.637425,47.543536],[7.636315,47.543906],[7.635487,47.543921],[7.63484,47.544112],[7.634498,47.544402],[7.634608,47.544955]]}},{"type":"Feature","properties":{"kind":"line"},"geometry":{"type":"LineString","coordinates":[[7.647771,47.539644],[7.647488,47.539906],[7.646263,47.540273],[7.645885,47.54032],[7.644359,47.540954],[7.643675,47.540958],[7.642943,47.541124],[7.641976,47.541255],[7.641557,47.541219]]}},{"type":"Feature","properties":{"kind":"line"},"geometry":{"type":"LineString","coordinates":[[7.641454,47.541315],[7.641526,47.541617],[7.641499,47.542219],[7.641073,47.542816],[7.640016,47.543246],[7.63922,47.543483],[7.638715,47.543774],[7.638243,47.54394],[7.637726,47.544063],[7.63719,47.544108],[7.635847,47.544427],[7.634929,47.544889],[7.634608,47.544955],[7.634579,47.545108]]}},{"type":"Feature","properties":{"kind":"line"},"geometry":{"type":"LineString","coordinates":[[7.650831,47.538861],[7.649605,47.539158],[7.648872,47.539079]]}},{"type":"Feature","properties":{"kind":"line"},"geometry":{"type":"LineString","coordinates":[[7.584653,47.575528],[7.584391,47.578577],[7.584658,47.58087],[7.585719,47.584085],[7.587317,47.58718],[7.588248,47.588516],[7.591529,47.594214],[7.592366,47.595812],[7.592784,47.596883],[7.592988,47.597841],[7.59311,47.600014],[7.593043,47.600752],[7.592497,47.602571],[7.591465,47.604324],[7.590863,47.60514],[7.589636,47.606478],[7.58798,47.607874],[7.585783,47.60931],[7.576247,47.6144]]}},{"type":"Feature","properties":{"kind":"line"},"geometry":{"type":"LineString","coordinates":[[7.631316,47.580157],[7.629435,47.57896],[7.628406,47.578473],[7.627153,47.578065],[7.626791,47.578021],[7.625834,47.577728],[7.625149,47.577424],[7.624756,47.577321]]}},{"type":"Feature","properties":{"kind":"line"},"geometry":{"type":"LineString","coordinates":[[7.633093,47.581265],[7.631316,47.580157]]}},{"type":"Feature","properties":{"kind":"line"},"geometry":{"type":"LineString","coordinates":[[7.607377,47.488399],[7.60701,47.489367],[7.606674,47.490578],[7.606347,47.493246],[7.605914,47.498439],[7.605914,47.499933],[7.606029,47.500665],[7.60615,47.501328],[7.606532,47.502305],[7.606978,47.503144],[7.608055,47.504703],[7.610687,47.508022],[7.610936,47.508207],[7.611133,47.508637],[7.613682,47.51165],[7.615855,47.51453],[7.616276,47.514874],[7.61634,47.515154],[7.616518,47.515434],[7.617041,47.51589],[7.617232,47.516239],[7.618616,47.517965],[7.620463,47.519449],[7.620852,47.5199]]}},{"type":"Feature","properties":{"kind":"line"},"geometry":{"type":"LineString","coordinates":[[7.646339,47.587939],[7.644912,47.587634],[7.641589,47.586387],[7.640164,47.585074],[7.639242,47.584529],[7.638918,47.584448],[7.637594,47.583884],[7.637197,47.583785],[7.633093,47.581265]]}},{"type":"Feature","properties":{"kind":"line"},"geometry":{"type":"LineString","coordinates":[[7.623863,47.576734],[7.6228,47.577009],[7.622545,47.577075],[7.62177,47.577275]]}},{"type":"Feature","properties":{"kind":"line"},"geometry":{"type":"LineString","coordinates":[[7.617899,47.557663],[7.617666,47.557989],[7.616475,47.558638]]}},{"type":"Feature","properties":{"kind":"line"},"geometry":{"type":"LineString","coordinates":[[7.62251,47.542664],[7.622959,47.548245],[7.623005,47.549801],[7.622707,47.550671],[7.621972,47.551591],[7.621403,47.551999],[7.618203,47.553848],[7.617771,47.554371],[7.617625,47.554845],[7.617939,47.556999],[7.617899,47.557663]]}},{"type":"Feature","properties":{"kind":"line"},"geometry":{"type":"LineString","coordinates":[[7.707537,47.537469],[7.705889,47.536891],[7.697342,47.532925],[7.694999,47.532496],[7.682619,47.532632],[7.679266,47.532797],[7.67706,47.533168],[7.672503,47.534333],[7.668044,47.53574],[7.665505,47.537737],[7.663842,47.539802],[7.66279,47.542662],[7.662265,47.543734],[7.661363,47.544849],[7.660043,47.545445],[7.658924,47.545752],[7.657965,47.545916],[7.653267,47.546431],[7.652349,47.546597],[7.650718,47.547264],[7.64923,47.54816],[7.648513,47.548673],[7.647067,47.550018],[7.645371,47.552319],[7.64348,47.554623],[7.641495,47.556754],[7.640673,47.557535]]}},{"type":"Feature","properties":{"kind":"line"},"geometry":{"type":"LineString","coordinates":[[7.587317,47.58718],[7.586191,47.587548],[7.585955,47.587679],[7.585551,47.587912]]}},{"type":"Feature","properties":{"kind":"line"},"geometry":{"type":"LineString","coordinates":[[7.585551,47.587912],[7.585188,47.588114],[7.585044,47.588192]]}},{"type":"Feature","properties":{"kind":"line"},"geometry":{"type":"LineString","coordinates":[[7.578566,47.54607],[7.578858,47.546357],[7.582534,47.548523],[7.5827,47.54869],[7.582516,47.549039]]}},{"type":"Feature","properties":{"kind":"line"},"geometry":{"type":"LineString","coordinates":[[7.574949,47.537304],[7.574245,47.537498],[7.574105,47.537912],[7.574208,47.538007],[7.574672,47.538166],[7.575177,47.538565],[7.575312,47.538889]]}},{"type":"Feature","properties":{"kind":"line"},"geometry":{"type":"LineString","coordinates":[[7.575312,47.538889],[7.575397,47.539087],[7.575522,47.539381],[7.576142,47.540884]]}},{"type":"Feature","properties":{"kind":"line"},"geometry":{"type":"LineString","coordinates":[[7.585992,47.551045],[7.586149,47.551103],[7.586262,47.551146],[7.58668,47.551281]]}},{"type":"Feature","properties":{"kind":"line"},"geometry":{"type":"LineString","coordinates":[[7.588109,47.560226],[7.588792,47.561141]]}},{"type":"Feature","properties":{"kind":"line"},"geometry":{"type":"LineString","coordinates":[[7.838381,47.671384],[7.83709,47.670398],[7.834984,47.668198],[7.832222,47.663324],[7.831763,47.662688],[7.831138,47.66223],[7.829634,47.661303],[7.829132,47.660643],[7.828176,47.657906],[7.828066,47.656297],[7.827738,47.655266],[7.827472,47.65471],[7.827002,47.654184],[7.826575,47.653962],[7.825878,47.653726],[7.822773,47.65307],[7.820781,47.652549],[7.82029,47.652486],[7.818007,47.652489],[7.817266,47.652414],[7.810323,47.650412],[7.80825,47.650269],[7.807065,47.650252],[7.805671,47.65041],[7.801668,47.651338],[7.800785,47.651391],[7.8003,47.651359],[7.799196,47.6511],[7.797446,47.650463],[7.79598,47.650039],[7.79511,47.649982],[7.790669,47.650829],[7.789834,47.650841],[7.788844,47.650754],[7.788119,47.650488],[7.784685,47.649533],[7.783997,47.649428],[7.779967,47.649395],[7.7765,47.649279],[7.775832,47.649179],[7.77322,47.648018],[7.77271,47.648068],[7.772001,47.647953],[7.77171,47.647796],[7.771772,47.647344],[7.770773,47.646764],[7.768271,47.646218],[7.765887,47.64609],[7.764731,47.645964],[7.763591,47.645805],[7.761011,47.645303],[7.759628,47.645335],[7.758126,47.645644],[7.757105,47.645757],[7.756498,47.645697],[7.75515,47.645221],[7.752524,47.643663],[7.751304,47.643217],[7.7436,47.641237],[7.74023,47.640509],[7.732334,47.63863],[7.728685,47.637253],[7.728216,47.637183],[7.727313,47.637259],[7.726729,47.637389],[7.725752,47.637746],[7.725035,47.637843],[7.72354,47.637852],[7.721711,47.637641],[7.715791,47.637851],[7.715196,47.637789],[7.712167,47.637036],[7.709906,47.637167],[7.709274,47.637338],[7.708481,47.637963],[7.706009,47.639531],[7.705494,47.639749],[7.704063,47.640012],[7.702598,47.640001],[7.695455,47.639554],[7.694745,47.639451],[7.694184,47.639302],[7.693108,47.638833],[7.689125,47.636967],[7.687704,47.636128],[7.684665,47.635035],[7.682549,47.634405],[7.678712,47.633508],[7.676652,47.633149],[7.670575,47.632238],[7.668322,47.631643],[7.666479,47.63089],[7.665438,47.630301],[7.664456,47.629638],[7.66068,47.627409],[7.658956,47.626251],[7.656216,47.623929],[7.654412,47.622254],[7.652861,47.620594],[7.652668,47.619616],[7.653093,47.617882],[7.653154,47.617018],[7.65312,47.616615],[7.652502,47.614083],[7.6525,47.613683],[7.652624,47.612759],[7.653855,47.60973],[7.654037,47.608242],[7.653945,47.607292],[7.653599,47.606547],[7.652275,47.604586],[7.651027,47.602118],[7.650118,47.600113],[7.650009,47.599583],[7.65009,47.59805],[7.650001,47.597647],[7.649431,47.596203],[7.648265,47.594586],[7.64717,47.593474],[7.644265,47.590867],[7.643244,47.590016],[7.64217,47.589269],[7.636752,47.586278],[7.623139,47.577947],[7.621461,47.577135],[7.620362,47.576792],[7.618825,47.576455],[7.606735,47.575241],[7.605585,47.575199],[7.6041,47.574941],[7.603059,47.574961],[7.601415,47.574768],[7.599163,47.574663],[7.598339,47.57464],[7.597812,47.574686],[7.597194,47.574846],[7.596674,47.575202],[7.596377,47.575719],[7.595683,47.57741],[7.594493,47.579425],[7.593897,47.580249],[7.593488,47.580637],[7.592555,47.581333],[7.592028,47.581573],[7.591367,47.581771],[7.586871,47.582794],[7.584658,47.58087]]}},{"type":"Feature","properties":{"kind":"line"},"geometry":{"type":"LineString","coordinates":[[7.58668,47.551281],[7.58807,47.551748],[7.588642,47.552045],[7.58891,47.552297],[7.589365,47.553365],[7.589558,47.554347],[7.589441,47.554916],[7.588776,47.556814],[7.588228,47.557687],[7.587933,47.557993],[7.587373,47.558311],[7.587086,47.559048],[7.587115,47.559247],[7.588109,47.560226]]}},{"type":"Feature","properties":{"kind":"line"},"geometry":{"type":"LineString","coordinates":[[7.640673,47.557535],[7.639458,47.558522],[7.637743,47.559723],[7.636917,47.560172],[7.635941,47.56057],[7.63233,47.561514],[7.629431,47.561629],[7.627703,47.561558],[7.625597,47.56113]]}},{"type":"Feature","properties":{"kind":"line"},"geometry":{"type":"LineString","coordinates":[[7.617234,47.558833],[7.61266,47.557625],[7.607578,47.556582],[7.603167,47.556159],[7.599087,47.555992],[7.596615,47.556337],[7.594058,47.557142],[7.59116,47.558868],[7.589791,47.56018]]}},{"type":"Feature","properties":{"kind":"line"},"geometry":{"type":"LineString","coordinates":[[7.63407,47.559121],[7.63304,47.558993],[7.630925,47.558905]]}},{"type":"Feature","properties":{"kind":"line"},"geometry":{"type":"LineString","coordinates":[[7.628181,47.558727],[7.627145,47.558684],[7.626331,47.558729]]}},{"type":"Feature","properties":{"kind":"line"},"geometry":{"type":"LineString","coordinates":[[7.620852,47.5199],[7.621552,47.520877],[7.621939,47.521725],[7.622026,47.522495],[7.621993,47.525335],[7.622129,47.525623],[7.622346,47.526989],[7.621626,47.528623],[7.621517,47.529334],[7.621834,47.532668],[7.622227,47.53895],[7.62225,47.540552],[7.62251,47.542664]]}},{"type":"Feature","properties":{"kind":"line"},"geometry":{"type":"LineString","coordinates":[[7.626331,47.558729],[7.621694,47.558621],[7.61929,47.558809],[7.617234,47.558833]]}},{"type":"Feature","properties":{"kind":"line"},"geometry":{"type":"LineString","coordinates":[[7.640673,47.557535],[7.639663,47.558037],[7.637954,47.558535],[7.63583,47.55902],[7.63407,47.559121]]}},{"type":"Feature","properties":{"kind":"line"},"geometry":{"type":"LineString","coordinates":[[7.621834,47.532668],[7.622262,47.532665],[7.622485,47.532832],[7.622645,47.532995],[7.622821,47.533519],[7.622336,47.53393],[7.621906,47.534086]]}},{"type":"Feature","properties":{"kind":"line"},"geometry":{"type":"LineString","coordinates":[[7.628157,47.558915],[7.627199,47.558847],[7.626331,47.558729]]}},{"type":"Feature","properties":{"kind":"line"},"geometry":{"type":"LineString","coordinates":[[7.63407,47.559121],[7.632732,47.55919],[7.630748,47.55909]]}},{"type":"Feature","properties":{"kind":"line"},"geometry":{"type":"LineString","coordinates":[[7.641382,47.541234],[7.641328,47.541206]]}},{"type":"Feature","properties":{"kind":"line"},"geometry":{"type":"LineString","coordinates":[[7.641467,47.541078],[7.64143,47.541158],[7.641382,47.541234]]}},{"type":"Feature","properties":{"kind":"line"},"geometry":{"type":"LineString","coordinates":[[7.585044,47.588192],[7.581382,47.590055],[7.580326,47.590728],[7.579201,47.591747],[7.562602,47.603517],[7.560927,47.604887],[7.531106,47.635199],[7.529924,47.636488]]}},{"type":"Feature","properties":{"kind":"line"},"geometry":{"type":"LineString","coordinates":[[7.617224,47.573007],[7.613155,47.572574],[7.610456,47.573289],[7.606233,47.575078],[7.606161,47.575239]]}},{"type":"Feature","properties":{"kind":"line"},"geometry":{"type":"LineString","coordinates":[[7.581067,47.548155],[7.581123,47.548182]]}},{"type":"Feature","properties":{"kind":"line"},"geometry":{"type":"LineString","coordinates":[[7.653653,47.595569],[7.653431,47.594765],[7.653405,47.594164],[7.653249,47.59392],[7.652829,47.593534],[7.652692,47.593242],[7.652862,47.591883],[7.652136,47.590549],[7.651953,47.590385],[7.651597,47.590223],[7.651293,47.59016],[7.650617,47.590174],[7.650132,47.590099],[7.649752,47.589963],[7.649265,47.589478],[7.649198,47.588331],[7.648964,47.588104],[7.648394,47.587885],[7.647746,47.587867],[7.647146,47.588023],[7.646339,47.587939]]}},{"type":"Feature","properties":{"kind":"line"},"geometry":{"type":"LineString","coordinates":[[7.625437,47.561084],[7.622899,47.560409],[7.620823,47.559731],[7.617234,47.558833]]}},{"type":"Feature","properties":{"kind":"line"},"geometry":{"type":"LineString","coordinates":[[7.625597,47.56113],[7.625437,47.561084]]}},{"type":"Feature","properties":{"kind":"line"},"geometry":{"type":"LineString","coordinates":[[7.589791,47.56018],[7.586472,47.563355],[7.585279,47.565195],[7.584682,47.567668],[7.584853,47.569853],[7.584799,47.574278],[7.584653,47.575528]]}}]}