{"type":"Feature","properties":{},"geometry":{"type":"Polygon","coordinates":[[[8.60184,47.371921],[8.601939,47.371982],[8.601877,47.372016],[8.601719,47.372101],[8.601381,47.372523],[8.601204,47.372815],[8.600959,47.373117],[8.600527,47.3734],[8.600197,47.373306],[8.599886,47.37348],[8.599496,47.373701],[8.599121,47.373983],[8.598634,47.374208],[8.598129,47.374467],[8.598357,47.374584],[8.598554,47.374733],[8.598282,47.375101],[8.598025,47.375343],[8.59778,47.375572],[8.597411,47.375741],[8.597049,47.37589],[8.597302,47.376241],[8.597603,47.376606],[8.597441,47.376748],[8.597167,47.377004],[8.597015,47.37716],[8.59698,47.377386],[8.596774,47.377709],[8.596742,47.377818],[8.596817,47.377898],[8.596935,47.377981],[8.597108,47.378222],[8.597214,47.378492],[8.59686,47.378698],[8.596764,47.378754],[8.596566,47.378887],[8.596537,47.378904],[8.596263,47.379069],[8.595745,47.379275],[8.595735,47.379292],[8.595678,47.37939],[8.595556,47.379602],[8.595422,47.379643],[8.595121,47.379734],[8.594981,47.379829],[8.594709,47.379966],[8.594568,47.380038],[8.594523,47.38006],[8.594271,47.380188],[8.594141,47.380253],[8.594061,47.380294],[8.594063,47.380357],[8.59407,47.380606],[8.594021,47.380648],[8.593838,47.380806],[8.593488,47.381027],[8.593137,47.381237],[8.593058,47.381284],[8.592977,47.381333],[8.592831,47.381421],[8.592819,47.381428],[8.592704,47.381494],[8.592656,47.381522],[8.592599,47.381577],[8.592492,47.381683],[8.592445,47.381729],[8.592109,47.381971],[8.59182,47.382198],[8.591735,47.382265],[8.591509,47.382441],[8.591655,47.38255],[8.591871,47.382711],[8.591834,47.382731],[8.591946,47.382826],[8.592059,47.382922],[8.592183,47.383054],[8.592185,47.383056],[8.592186,47.383058],[8.592187,47.383059],[8.592188,47.38306],[8.592189,47.383062],[8.592189,47.383063],[8.59219,47.383065],[8.592191,47.383066],[8.592191,47.383068],[8.592192,47.38307],[8.592192,47.383071],[8.592192,47.383073],[8.592192,47.383074],[8.592193,47.383076],[8.592193,47.383077],[8.592193,47.383079],[8.592192,47.383081],[8.592192,47.383082],[8.592192,47.383084],[8.592192,47.383085],[8.592191,47.383087],[8.592191,47.383088],[8.592189,47.383091],[8.592189,47.383093],[8.592188,47.383094],[8.592187,47.383096],[8.592186,47.383097],[8.592185,47.383099],[8.592184,47.3831],[8.592182,47.383101],[8.592181,47.383103],[8.59218,47.383104],[8.592178,47.383105],[8.592177,47.383106],[8.592175,47.383108],[8.592174,47.383109],[8.592172,47.38311],[8.59217,47.383111],[8.592169,47.383112],[8.592167,47.383113],[8.592165,47.383114],[8.592163,47.383115],[8.592161,47.383116],[8.592159,47.383117],[8.592036,47.383163],[8.591923,47.383199],[8.591776,47.383246],[8.591639,47.383284],[8.59157,47.383302],[8.591429,47.383334],[8.591358,47.383349],[8.590957,47.383428],[8.590973,47.383469],[8.590791,47.383504],[8.590296,47.383598],[8.589808,47.383688],[8.589561,47.383732],[8.589543,47.383761],[8.589663,47.384],[8.58988,47.38391],[8.590126,47.383809],[8.590303,47.384099],[8.590457,47.384296],[8.590561,47.384429],[8.590818,47.384759],[8.591353,47.38456],[8.591678,47.384458],[8.591951,47.384392],[8.592223,47.384326],[8.592736,47.384172],[8.592995,47.384373],[8.59303,47.384412],[8.593105,47.384496],[8.593224,47.384689],[8.593317,47.384841],[8.593378,47.38494],[8.593405,47.384986],[8.593544,47.385224],[8.593495,47.385225],[8.592992,47.385234],[8.593048,47.385523],[8.593073,47.385649],[8.592826,47.385829],[8.592654,47.385965],[8.592377,47.38613],[8.592121,47.386253],[8.59181,47.386378],[8.591502,47.386478],[8.591167,47.386594],[8.59106,47.38662],[8.590751,47.386696],[8.590744,47.386676],[8.590706,47.38669],[8.590426,47.386793],[8.590284,47.386845],[8.5901,47.38693],[8.589621,47.387085],[8.58945,47.38714],[8.589252,47.387208],[8.588602,47.387428],[8.588249,47.387535],[8.588191,47.387553],[8.586981,47.38793],[8.587415,47.388613],[8.587623,47.388975],[8.58764,47.389026],[8.587649,47.389053],[8.587549,47.389083],[8.587543,47.389089],[8.587511,47.389179],[8.587461,47.389218],[8.587361,47.389377],[8.587315,47.389399],[8.587264,47.389444],[8.587245,47.389479],[8.58706,47.38958],[8.587017,47.3896],[8.587016,47.38961],[8.587014,47.389622],[8.587022,47.389652],[8.587001,47.389695],[8.586912,47.38976],[8.586905,47.389767],[8.586904,47.389779],[8.586843,47.38992],[8.586842,47.389974],[8.586901,47.390005],[8.586958,47.390017],[8.586964,47.390022],[8.586955,47.390087],[8.58696,47.390171],[8.586931,47.390173],[8.586839,47.39018],[8.586476,47.390189],[8.586187,47.390235],[8.585849,47.390282],[8.585343,47.390384],[8.585307,47.390391],[8.585282,47.390397],[8.585254,47.390365],[8.585128,47.390276],[8.585082,47.390214],[8.585025,47.390146],[8.584923,47.390109],[8.584902,47.390071],[8.584905,47.39],[8.584874,47.389947],[8.584811,47.389837],[8.58481,47.389767],[8.584828,47.389736],[8.584801,47.389704],[8.584741,47.389666],[8.584657,47.38952],[8.584634,47.389426],[8.584578,47.389317],[8.584526,47.389269],[8.584476,47.389247],[8.58445,47.389202],[8.584454,47.389086],[8.584402,47.388997],[8.584321,47.388944],[8.584317,47.388851],[8.584354,47.388807],[8.584386,47.388735],[8.584363,47.388678],[8.584338,47.388625],[8.584338,47.388495],[8.584357,47.388424],[8.58437,47.388336],[8.584344,47.388335],[8.584235,47.388332],[8.584214,47.388332],[8.584173,47.388331],[8.58345,47.388312],[8.583159,47.388307],[8.583138,47.388508],[8.583114,47.388701],[8.583109,47.388731],[8.58308,47.388885],[8.583053,47.389034],[8.58305,47.389047],[8.583316,47.389406],[8.58335,47.389452],[8.58338,47.389493],[8.583408,47.38953],[8.583421,47.389556],[8.583516,47.389738],[8.583693,47.390082],[8.583774,47.390472],[8.583986,47.390937],[8.584008,47.391048],[8.584035,47.391183],[8.584054,47.391277],[8.584132,47.391548],[8.584251,47.391735],[8.584282,47.391781],[8.584359,47.391891],[8.584416,47.391953],[8.584481,47.392004],[8.584602,47.392064],[8.584819,47.392172],[8.585048,47.39229],[8.585431,47.392484],[8.585669,47.392594],[8.585762,47.392637],[8.586203,47.392774],[8.586185,47.392802],[8.586671,47.392947],[8.58673,47.392964],[8.586851,47.392978],[8.587475,47.392974],[8.587525,47.393213],[8.587609,47.393231],[8.587957,47.393381],[8.58802,47.393417],[8.588139,47.393484],[8.588177,47.393506],[8.588617,47.393823],[8.588939,47.394046],[8.589293,47.394291],[8.589362,47.394339],[8.589814,47.394657],[8.589918,47.394757],[8.589949,47.394776],[8.589861,47.394773],[8.589741,47.394778],[8.589403,47.394873],[8.589169,47.394952],[8.589083,47.394996],[8.589045,47.395015],[8.588935,47.395093],[8.588693,47.395315],[8.588526,47.395483],[8.588282,47.395798],[8.588334,47.395816],[8.588356,47.395826],[8.589559,47.396351],[8.589822,47.396467],[8.590446,47.39667],[8.591494,47.397002],[8.591724,47.396808],[8.592077,47.396908],[8.592562,47.396545],[8.592913,47.396341],[8.593216,47.396194],[8.593349,47.39614],[8.593476,47.396174],[8.593566,47.396204],[8.593665,47.396274],[8.593797,47.396411],[8.59387,47.396493],[8.593922,47.396472],[8.594012,47.396573],[8.594273,47.396852],[8.59453,47.397122],[8.594717,47.397049],[8.595008,47.396937],[8.59624,47.396462],[8.596268,47.396496],[8.596381,47.396631],[8.596381,47.396678],[8.596378,47.396813],[8.596386,47.396909],[8.596404,47.397001],[8.596451,47.39715],[8.596537,47.397331],[8.596706,47.397657],[8.596803,47.397808],[8.596852,47.397882],[8.596889,47.397932],[8.596941,47.398016],[8.597145,47.398241],[8.597294,47.398446],[8.597259,47.398504],[8.596782,47.398633],[8.595719,47.398927],[8.595598,47.39896],[8.595207,47.399068],[8.594796,47.399181],[8.595047,47.399597],[8.59551,47.400368],[8.596218,47.401545],[8.593796,47.402217],[8.593778,47.402222],[8.593905,47.402433],[8.594537,47.403482],[8.595054,47.404342],[8.595057,47.404347],[8.595101,47.40442],[8.595229,47.404633],[8.595293,47.404739],[8.595309,47.404766],[8.595495,47.405076],[8.595492,47.405141],[8.595825,47.405694],[8.595861,47.405754],[8.596079,47.406117],[8.59638,47.406086],[8.597154,47.406005],[8.597221,47.405999],[8.597279,47.406309],[8.597022,47.40634],[8.596844,47.406426],[8.596566,47.406507],[8.593115,47.407037],[8.592443,47.407136],[8.591719,47.407242],[8.591479,47.407276],[8.590652,47.407395],[8.58992,47.407401],[8.589672,47.407424],[8.589263,47.407558],[8.588942,47.407563],[8.588059,47.407965],[8.587718,47.408042],[8.585074,47.408642],[8.584144,47.408852],[8.582784,47.409166],[8.580457,47.409702],[8.580349,47.409726],[8.579717,47.409872],[8.578338,47.41019],[8.576957,47.410508],[8.575845,47.410764],[8.574779,47.41101],[8.573247,47.411363],[8.573001,47.411438],[8.572946,47.411482],[8.57274,47.411646],[8.572644,47.411829],[8.572603,47.411923],[8.57259,47.411974],[8.572587,47.411987],[8.572587,47.411994],[8.572586,47.412],[8.572586,47.412007],[8.572586,47.412014],[8.572587,47.41202],[8.572588,47.412027],[8.572591,47.41204],[8.572593,47.412047],[8.572596,47.412053],[8.572598,47.41206],[8.572601,47.412066],[8.572605,47.412073],[8.572608,47.412079],[8.572784,47.412181],[8.573068,47.412368],[8.573315,47.412573],[8.573435,47.4127],[8.573688,47.413011],[8.573702,47.413028],[8.573841,47.413238],[8.57384,47.413267],[8.573832,47.413512],[8.573844,47.413539],[8.573849,47.413552],[8.573853,47.413565],[8.573856,47.413579],[8.573858,47.413593],[8.57386,47.413606],[8.573891,47.413876],[8.573894,47.413968],[8.573892,47.414015],[8.573888,47.414061],[8.573871,47.414249],[8.573843,47.41433],[8.573842,47.414333],[8.573842,47.414335],[8.573841,47.414337],[8.573841,47.414338],[8.573841,47.41434],[8.57384,47.414342],[8.57384,47.414343],[8.57384,47.414345],[8.573841,47.414347],[8.573841,47.414349],[8.573841,47.41435],[8.573842,47.414352],[8.573842,47.414353],[8.573843,47.414355],[8.573843,47.414357],[8.573844,47.414358],[8.573845,47.41436],[8.573846,47.414362],[8.573847,47.414363],[8.573848,47.414365],[8.573849,47.414366],[8.57385,47.414368],[8.573852,47.414369],[8.573853,47.414371],[8.573854,47.414372],[8.573856,47.414373],[8.573858,47.414375],[8.573859,47.414376],[8.573861,47.414377],[8.573863,47.414378],[8.573847,47.414414],[8.573746,47.414412],[8.57373,47.415262],[8.573729,47.415296],[8.573683,47.415416],[8.573646,47.415463],[8.573593,47.415546],[8.573556,47.415604],[8.573542,47.415662],[8.57356,47.415795],[8.573537,47.415917],[8.573543,47.415987],[8.573537,47.416127],[8.573558,47.416301],[8.573571,47.416363],[8.573575,47.41645],[8.573555,47.41661],[8.573555,47.41661],[8.573544,47.416646],[8.573544,47.416648],[8.573531,47.416695],[8.573499,47.416829],[8.573487,47.416897],[8.573464,47.41697],[8.573437,47.41704],[8.573422,47.417108],[8.573425,47.417165],[8.573434,47.417218],[8.573479,47.417293],[8.573507,47.417361],[8.573521,47.417492],[8.573531,47.417523],[8.573562,47.41756],[8.573624,47.417638],[8.573643,47.417675],[8.573657,47.417793],[8.573678,47.417803],[8.573757,47.417799],[8.573783,47.417798],[8.573687,47.420034],[8.573629,47.419968],[8.57326,47.41965],[8.573106,47.41948],[8.572975,47.419382],[8.572851,47.419269],[8.572344,47.419029],[8.572247,47.418924],[8.571996,47.418984],[8.571761,47.419022],[8.570588,47.419136],[8.570498,47.419152],[8.570407,47.419173],[8.57032,47.419199],[8.570233,47.419229],[8.570219,47.419177],[8.570165,47.419199],[8.569455,47.419259],[8.569379,47.419168],[8.569639,47.418887],[8.569613,47.418683],[8.56942,47.418745],[8.569038,47.418708],[8.568758,47.418553],[8.568594,47.418311],[8.568434,47.417986],[8.56838,47.417996],[8.568314,47.417701],[8.568163,47.417381],[8.567873,47.416953],[8.567811,47.416843],[8.567572,47.416616],[8.567362,47.41649],[8.566935,47.416285],[8.566736,47.416283],[8.566433,47.416352],[8.566229,47.416323],[8.563246,47.415646],[8.563222,47.415692],[8.56283,47.416431],[8.562357,47.41632],[8.561468,47.417963],[8.561301,47.418285],[8.560832,47.418173],[8.554203,47.4208],[8.554562,47.421194],[8.554554,47.421206],[8.554864,47.421525],[8.55509,47.421763],[8.55724,47.424095],[8.55691,47.424241],[8.557371,47.42472],[8.556986,47.424902],[8.557842,47.425538],[8.557654,47.425586],[8.557542,47.425658],[8.557062,47.42607],[8.556978,47.426201],[8.556927,47.426196],[8.556928,47.426259],[8.556852,47.426237],[8.556108,47.428033],[8.555363,47.430661],[8.555076,47.430669],[8.554312,47.430767],[8.553548,47.430905],[8.552762,47.430931],[8.552002,47.431038],[8.551377,47.431086],[8.551166,47.431062],[8.550993,47.431021],[8.55084,47.431039],[8.550106,47.431282],[8.550067,47.431227],[8.549947,47.431266],[8.548869,47.431375],[8.548538,47.431426],[8.548355,47.431461],[8.548174,47.431503],[8.546995,47.431801],[8.54675,47.431867],[8.546082,47.432065],[8.545841,47.432139],[8.545606,47.432224],[8.545381,47.432319],[8.54516,47.432418],[8.544928,47.432504],[8.544598,47.432615],[8.544527,47.432499],[8.543903,47.432662],[8.543121,47.432883],[8.543154,47.432821],[8.542857,47.432889],[8.543639,47.431432],[8.542416,47.431596],[8.541956,47.43165],[8.540343,47.431859],[8.540214,47.431793],[8.540113,47.431095],[8.53996,47.431179],[8.539754,47.43124],[8.539655,47.431258],[8.538875,47.431301],[8.537823,47.431365],[8.537408,47.431399],[8.53716,47.431448],[8.536323,47.431806],[8.536074,47.431864],[8.535828,47.431882],[8.535829,47.431841],[8.535623,47.431835],[8.535222,47.431878],[8.534686,47.432],[8.53441,47.432127],[8.534126,47.432354],[8.533981,47.432434],[8.533751,47.432509],[8.533664,47.432505],[8.533191,47.432298],[8.533104,47.432279],[8.533013,47.432276],[8.532959,47.432282],[8.53073,47.432655],[8.530691,47.432659],[8.530647,47.432657],[8.530598,47.432646],[8.530554,47.432626],[8.530522,47.432603],[8.530497,47.432571],[8.53028,47.432104],[8.530311,47.432064],[8.529276,47.432281],[8.529027,47.432338],[8.527681,47.432656],[8.527683,47.432661],[8.525925,47.433075],[8.525716,47.43312],[8.525503,47.433155],[8.525476,47.433069],[8.524643,47.431288],[8.524639,47.431257],[8.520079,47.431643],[8.519807,47.43167],[8.518795,47.431889],[8.518734,47.431894],[8.518698,47.431891],[8.518214,47.431799],[8.51801,47.431749],[8.517652,47.43163],[8.517055,47.431413],[8.516818,47.431331],[8.516794,47.431474],[8.516784,47.431488],[8.516699,47.431462],[8.516642,47.431455],[8.516578,47.431463],[8.516531,47.431485],[8.516466,47.431528],[8.516417,47.431574],[8.516294,47.431753],[8.516132,47.431705],[8.516112,47.431725],[8.516083,47.431739],[8.516049,47.431745],[8.516014,47.431742],[8.515588,47.431584],[8.515223,47.431463],[8.513378,47.430927],[8.513205,47.430885],[8.513032,47.430855],[8.512881,47.430844],[8.512729,47.430848],[8.512589,47.430865],[8.512454,47.430895],[8.51172,47.431106],[8.511627,47.431137],[8.51154,47.431174],[8.51141,47.431244],[8.510449,47.431846],[8.510418,47.431857],[8.510386,47.431859],[8.510287,47.431928],[8.51038,47.431959],[8.510292,47.432004],[8.510156,47.43206],[8.509981,47.432126],[8.504141,47.433888],[8.503921,47.433935],[8.503657,47.434018],[8.502078,47.434665],[8.501925,47.434627],[8.500885,47.434564],[8.500283,47.434418],[8.495675,47.432828],[8.49563,47.432812],[8.485804,47.431026],[8.485515,47.43072],[8.485166,47.430411],[8.484856,47.430153],[8.48446,47.42979],[8.484482,47.429696],[8.484387,47.429089],[8.484382,47.429035],[8.484428,47.428994],[8.484387,47.428961],[8.48445,47.428931],[8.484674,47.428731],[8.484767,47.428464],[8.484786,47.428354],[8.484719,47.428101],[8.484827,47.427843],[8.485256,47.427263],[8.485532,47.427119],[8.486009,47.427078],[8.486566,47.426809],[8.48693,47.426718],[8.487716,47.426457],[8.488178,47.426344],[8.488563,47.426239],[8.489224,47.42607],[8.48916,47.425954],[8.490205,47.425688],[8.49021,47.425667],[8.490259,47.425655],[8.490305,47.425638],[8.490345,47.425617],[8.490364,47.425604],[8.490393,47.425579],[8.490407,47.425563],[8.490428,47.42553],[8.490436,47.425513],[8.49044,47.42549],[8.490439,47.425478],[8.490434,47.425455],[8.490423,47.425433],[8.490407,47.425413],[8.490386,47.425395],[8.490374,47.425387],[8.490347,47.425373],[8.490316,47.425362],[8.490209,47.425331],[8.490192,47.425325],[8.490159,47.425309],[8.490145,47.4253],[8.490119,47.425279],[8.490099,47.425258],[8.490087,47.425239],[8.490117,47.424904],[8.490072,47.424348],[8.491016,47.423898],[8.490199,47.422335],[8.490144,47.422301],[8.489288,47.422515],[8.488527,47.422707],[8.488251,47.422455],[8.488144,47.422295],[8.487994,47.422107],[8.487976,47.422006],[8.487844,47.422013],[8.487539,47.421956],[8.487272,47.421901],[8.486838,47.421863],[8.486705,47.421804],[8.486589,47.421641],[8.486414,47.421569],[8.486104,47.421553],[8.485671,47.421613],[8.485092,47.421719],[8.484418,47.421854],[8.483975,47.421941],[8.483542,47.422051],[8.483251,47.422131],[8.48293,47.422223],[8.482917,47.422465],[8.482956,47.422655],[8.482628,47.422771],[8.4822,47.422899],[8.481777,47.422996],[8.481718,47.423001],[8.481624,47.422442],[8.48155,47.422197],[8.48143,47.421755],[8.481381,47.421559],[8.481341,47.421412],[8.481381,47.421389],[8.481323,47.421341],[8.480854,47.421361],[8.48016,47.421413],[8.47995,47.42142],[8.479731,47.421406],[8.47938,47.421133],[8.479222,47.421333],[8.478964,47.421718],[8.478424,47.421891],[8.477841,47.422114],[8.477724,47.421884],[8.477617,47.421651],[8.477208,47.420815],[8.476892,47.420158],[8.47715,47.419916],[8.477214,47.419744],[8.476972,47.419619],[8.476727,47.419516],[8.476522,47.419424],[8.475556,47.419029],[8.475438,47.419001],[8.474544,47.418675],[8.471595,47.417625],[8.469637,47.417523],[8.469143,47.416926],[8.469147,47.416488],[8.469456,47.416075],[8.469574,47.415928],[8.469759,47.415791],[8.470085,47.415574],[8.470047,47.415538],[8.47005,47.415508],[8.470015,47.415469],[8.470008,47.415432],[8.4699,47.415351],[8.469876,47.415314],[8.469797,47.415239],[8.469748,47.415158],[8.469714,47.415119],[8.469696,47.415056],[8.46968,47.415046],[8.469687,47.41502],[8.469642,47.414964],[8.469591,47.414871],[8.469565,47.414838],[8.469537,47.414832],[8.469507,47.414814],[8.469481,47.414793],[8.46947,47.414764],[8.469405,47.41475],[8.469387,47.414729],[8.469282,47.414675],[8.469286,47.414665],[8.469259,47.414651],[8.469207,47.414604],[8.469186,47.414599],[8.469139,47.414549],[8.469084,47.41453],[8.46907,47.414515],[8.469066,47.41449],[8.468972,47.41443],[8.468935,47.41436],[8.468905,47.414342],[8.468835,47.414311],[8.468823,47.414281],[8.46881,47.414271],[8.46879,47.414265],[8.46877,47.414212],[8.468733,47.414197],[8.468707,47.414176],[8.468698,47.414157],[8.468639,47.414133],[8.468621,47.414099],[8.468579,47.414079],[8.468572,47.414053],[8.468579,47.414025],[8.468576,47.413993],[8.468585,47.413957],[8.468622,47.413956],[8.468644,47.413951],[8.468685,47.413874],[8.468638,47.413826],[8.468649,47.41379],[8.468636,47.413723],[8.468663,47.413672],[8.468642,47.413625],[8.468543,47.413594],[8.468486,47.413572],[8.468407,47.413581],[8.468386,47.413578],[8.468315,47.413547],[8.468226,47.41352],[8.468187,47.413484],[8.468186,47.413442],[8.46816,47.413422],[8.468119,47.413418],[8.468075,47.413362],[8.468018,47.413339],[8.468753,47.412287],[8.468769,47.412247],[8.47005,47.412493],[8.470321,47.412532],[8.470388,47.412497],[8.470454,47.411592],[8.470863,47.411672],[8.470942,47.411595],[8.471139,47.411367],[8.471109,47.411124],[8.471022,47.410935],[8.471582,47.410826],[8.472481,47.410622],[8.472694,47.410582],[8.472777,47.410741],[8.472913,47.410976],[8.473038,47.411456],[8.473501,47.411931],[8.473591,47.412062],[8.473728,47.412115],[8.473949,47.412221],[8.474159,47.412263],[8.474507,47.412367],[8.474765,47.412421],[8.474892,47.412412],[8.475576,47.412345],[8.475833,47.412305],[8.47617,47.412237],[8.476471,47.412165],[8.476897,47.412023],[8.477262,47.411937],[8.477019,47.411648],[8.476838,47.41146],[8.476745,47.411243],[8.47666,47.410968],[8.476508,47.410984],[8.476391,47.411001],[8.476291,47.411023],[8.476164,47.410827],[8.476058,47.410716],[8.475843,47.410768],[8.475672,47.410324],[8.475444,47.409704],[8.476351,47.40951],[8.477039,47.409345],[8.4773,47.409138],[8.477263,47.409022],[8.477274,47.408836],[8.477261,47.408678],[8.477272,47.408169],[8.477058,47.407635],[8.477066,47.406193],[8.477201,47.405955],[8.477251,47.405901],[8.477295,47.405839],[8.477339,47.405742],[8.477358,47.405642],[8.477359,47.405362],[8.477405,47.405327],[8.477389,47.405164],[8.477902,47.405119],[8.478003,47.405108],[8.478198,47.40508],[8.478139,47.40476],[8.478189,47.404233],[8.478199,47.404232],[8.478161,47.403874],[8.477831,47.403886],[8.477466,47.403894],[8.477121,47.403894],[8.476776,47.403887],[8.476422,47.403874],[8.476074,47.403854],[8.475714,47.403827],[8.475387,47.403796],[8.474996,47.403749],[8.474592,47.403692],[8.47058,47.40306],[8.470242,47.403015],[8.469887,47.40298],[8.469613,47.40296],[8.469337,47.402946],[8.469062,47.40294],[8.468813,47.402939],[8.468538,47.402944],[8.468266,47.402956],[8.467992,47.402974],[8.467714,47.402999],[8.46759,47.402621],[8.466159,47.400057],[8.468073,47.399566],[8.467604,47.398724],[8.465689,47.399217],[8.465171,47.398288],[8.466052,47.398054],[8.468819,47.397304],[8.468796,47.397264],[8.4735,47.395995],[8.473023,47.395063],[8.472943,47.395092],[8.472858,47.395115],[8.472778,47.395131],[8.472648,47.395148],[8.47246,47.395165],[8.472331,47.395172],[8.472221,47.395173],[8.472116,47.395166],[8.472022,47.395153],[8.471931,47.395133],[8.471853,47.39511],[8.471771,47.395078],[8.471704,47.395045],[8.471637,47.395003],[8.471583,47.39496],[8.471526,47.394904],[8.471485,47.394846],[8.471455,47.394785],[8.471437,47.394721],[8.471432,47.394657],[8.47144,47.394587],[8.471471,47.394504],[8.471518,47.39443],[8.471585,47.394358],[8.471536,47.394302],[8.472095,47.394075],[8.471925,47.393882],[8.47067,47.394393],[8.470408,47.394141],[8.470303,47.394125],[8.470191,47.394005],[8.469856,47.394158],[8.469683,47.39423],[8.469157,47.394433],[8.46897,47.394492],[8.468782,47.394539],[8.468551,47.394607],[8.468386,47.394606],[8.468199,47.394653],[8.468003,47.394695],[8.467765,47.394721],[8.467605,47.394749],[8.467412,47.394778],[8.467198,47.394751],[8.466999,47.394774],[8.465364,47.394921],[8.465241,47.395008],[8.465175,47.39503],[8.464896,47.395081],[8.464843,47.394826],[8.464847,47.394809],[8.464882,47.394762],[8.465114,47.394528],[8.465404,47.394276],[8.465449,47.394247],[8.465678,47.394074],[8.466083,47.393782],[8.466218,47.393725],[8.466423,47.393663],[8.466747,47.393544],[8.466957,47.393453],[8.467114,47.393341],[8.467286,47.393103],[8.467398,47.392901],[8.467433,47.392795],[8.467091,47.391588],[8.466984,47.391306],[8.46698,47.391218],[8.46709,47.390985],[8.467201,47.390795],[8.46728,47.390699],[8.467242,47.390683],[8.467278,47.39065],[8.467249,47.390634],[8.46692,47.390754],[8.466707,47.39085],[8.466189,47.391128],[8.466067,47.391164],[8.465934,47.391169],[8.465649,47.391129],[8.465572,47.39113],[8.465483,47.391168],[8.465193,47.391323],[8.463819,47.390526],[8.463475,47.390231],[8.461054,47.388029],[8.461224,47.387951],[8.461124,47.38778],[8.460888,47.387043],[8.460516,47.386735],[8.460048,47.385944],[8.459687,47.385541],[8.459355,47.38516],[8.458481,47.384411],[8.458241,47.384175],[8.458081,47.383877],[8.457567,47.38371],[8.457676,47.383469],[8.457684,47.383434],[8.457682,47.383399],[8.457657,47.383345],[8.45761,47.383299],[8.457544,47.383266],[8.457466,47.383247],[8.457527,47.383179],[8.457604,47.38312],[8.457712,47.383064],[8.457928,47.382968],[8.458091,47.382879],[8.458177,47.382824],[8.458271,47.382757],[8.458425,47.382627],[8.458462,47.382586],[8.458489,47.382542],[8.458506,47.382497],[8.458514,47.382447],[8.458506,47.382407],[8.45849,47.382371],[8.458466,47.382336],[8.458434,47.382304],[8.458374,47.382262],[8.458306,47.382232],[8.45825,47.382217],[8.458146,47.382204],[8.458026,47.382201],[8.457439,47.382223],[8.457351,47.382233],[8.457252,47.382249],[8.457156,47.38227],[8.457064,47.382296],[8.456975,47.382326],[8.45689,47.382362],[8.456809,47.382402],[8.456741,47.382441],[8.456701,47.380938],[8.456567,47.380887],[8.456414,47.380811],[8.456332,47.380776],[8.456236,47.380744],[8.456125,47.380717],[8.455856,47.380672],[8.455562,47.380629],[8.455278,47.380593],[8.454943,47.380556],[8.454815,47.380536],[8.45469,47.380509],[8.45457,47.380475],[8.454245,47.380353],[8.454191,47.380337],[8.454135,47.380327],[8.453961,47.380308],[8.453809,47.380277],[8.453701,47.380266],[8.45362,47.380264],[8.453547,47.380267],[8.453474,47.380274],[8.453393,47.380288],[8.453306,47.38031],[8.45311,47.380372],[8.452931,47.380421],[8.452752,47.380464],[8.452522,47.380511],[8.452419,47.380525],[8.452323,47.380534],[8.452201,47.380538],[8.452046,47.380537],[8.45195,47.380547],[8.451846,47.380576],[8.451755,47.380619],[8.451113,47.380528],[8.450399,47.38041],[8.44935,47.380294],[8.448018,47.380247],[8.448484,47.379664],[8.449113,47.379239],[8.45048,47.378355],[8.451175,47.378165],[8.451781,47.37813],[8.4534,47.378145],[8.454217,47.378099],[8.455241,47.378101],[8.456392,47.378006],[8.457416,47.377775],[8.457821,47.377717],[8.458644,47.377709],[8.45928,47.377636],[8.45996,47.377499],[8.460607,47.377207],[8.462891,47.376031],[8.463932,47.375446],[8.464612,47.374983],[8.46545,47.374434],[8.466916,47.373819],[8.46762,47.373572],[8.468141,47.373736],[8.468695,47.373823],[8.470236,47.373951],[8.470353,47.373557],[8.470435,47.37336],[8.470492,47.373078],[8.470489,47.372841],[8.470434,47.372842],[8.470432,47.372599],[8.470071,47.372184],[8.469693,47.371716],[8.469388,47.371361],[8.467727,47.370542],[8.466797,47.370047],[8.46589,47.369557],[8.465225,47.369209],[8.464835,47.369111],[8.464913,47.368968],[8.464733,47.368917],[8.464634,47.368861],[8.464485,47.368753],[8.464188,47.368379],[8.464198,47.367831],[8.46428,47.367274],[8.464862,47.366806],[8.465329,47.366619],[8.465458,47.366642],[8.465492,47.366553],[8.465588,47.366378],[8.465838,47.366097],[8.46609,47.365919],[8.466411,47.36574],[8.46714,47.365425],[8.467468,47.365312],[8.468336,47.364962],[8.469356,47.364467],[8.469519,47.364381],[8.469451,47.36431],[8.469489,47.364241],[8.469591,47.364082],[8.469704,47.363838],[8.470178,47.362889],[8.470308,47.362423],[8.470428,47.361913],[8.470546,47.361657],[8.47104,47.361509],[8.471335,47.36143],[8.471702,47.361316],[8.472285,47.360964],[8.472766,47.360789],[8.473408,47.360751],[8.473661,47.360809],[8.474184,47.360706],[8.474894,47.360626],[8.475353,47.360558],[8.476459,47.360345],[8.47699,47.360285],[8.477518,47.360485],[8.478056,47.360641],[8.478798,47.360779],[8.479279,47.360573],[8.479806,47.360453],[8.48071,47.360103],[8.481173,47.359963],[8.481702,47.359754],[8.482063,47.35954],[8.482734,47.359068],[8.483099,47.358586],[8.483213,47.358346],[8.483221,47.358135],[8.483427,47.358022],[8.483856,47.357759],[8.484123,47.357558],[8.484269,47.357364],[8.4843,47.357272],[8.484478,47.35702],[8.48454,47.356725],[8.484645,47.356703],[8.484654,47.356242],[8.484613,47.355822],[8.484603,47.35561],[8.484637,47.35536],[8.484849,47.354981],[8.485037,47.354724],[8.485018,47.354684],[8.485229,47.354566],[8.485443,47.354479],[8.485433,47.354424],[8.485725,47.35429],[8.485738,47.354217],[8.48614,47.354029],[8.486505,47.353772],[8.486847,47.35366],[8.487116,47.353403],[8.48721,47.353196],[8.487286,47.353108],[8.486992,47.35268],[8.486806,47.352198],[8.486925,47.352028],[8.487374,47.352087],[8.487408,47.352091],[8.488142,47.352],[8.488143,47.351922],[8.488217,47.351855],[8.48839,47.351808],[8.488558,47.351772],[8.488546,47.351768],[8.488744,47.351647],[8.488799,47.351603],[8.488892,47.35153],[8.489095,47.351337],[8.489233,47.351174],[8.489598,47.350869],[8.489863,47.350647],[8.49001,47.35056],[8.490098,47.350571],[8.490899,47.350671],[8.490893,47.350508],[8.490999,47.350254],[8.491182,47.350128],[8.491287,47.349834],[8.491463,47.349642],[8.491967,47.349535],[8.492071,47.349502],[8.492088,47.349427],[8.492308,47.349102],[8.492862,47.348281],[8.493454,47.348092],[8.493561,47.34808],[8.493545,47.348016],[8.49358,47.348011],[8.493606,47.348008],[8.493628,47.348004],[8.493652,47.347999],[8.493679,47.347993],[8.493704,47.347987],[8.49374,47.347976],[8.494176,47.347834],[8.494222,47.347817],[8.494291,47.347791],[8.494403,47.347744],[8.494512,47.347694],[8.494616,47.347642],[8.494671,47.34761],[8.494707,47.347586],[8.494743,47.34756],[8.494787,47.347523],[8.494817,47.347494],[8.494848,47.347462],[8.49487,47.347437],[8.494881,47.347423],[8.494894,47.347404],[8.494908,47.34738],[8.494922,47.347354],[8.494936,47.347319],[8.494943,47.347296],[8.494948,47.347279],[8.494951,47.34726],[8.494954,47.347235],[8.494971,47.347229],[8.49498,47.34712],[8.494982,47.347107],[8.494985,47.347092],[8.494991,47.347073],[8.494998,47.347054],[8.495005,47.347037],[8.495017,47.347015],[8.495027,47.346999],[8.495043,47.346978],[8.495057,47.346963],[8.495071,47.346949],[8.495084,47.346936],[8.495102,47.346921],[8.495114,47.346912],[8.495127,47.346902],[8.495146,47.34689],[8.495172,47.346877],[8.495192,47.346869],[8.495211,47.346863],[8.495228,47.346858],[8.49525,47.346853],[8.495281,47.346848],[8.495302,47.346846],[8.495323,47.346845],[8.495343,47.346845],[8.495363,47.346846],[8.495388,47.346848],[8.495412,47.346849],[8.495442,47.346849],[8.495475,47.346848],[8.495504,47.346845],[8.495535,47.34684],[8.495563,47.346835],[8.495591,47.346828],[8.495618,47.346819],[8.495641,47.346811],[8.495665,47.346801],[8.495693,47.346788],[8.495716,47.346775],[8.495893,47.346678],[8.495992,47.346629],[8.496295,47.34652],[8.496374,47.346482],[8.496437,47.346413],[8.496897,47.345907],[8.497254,47.34553],[8.497328,47.345455],[8.497516,47.345351],[8.497738,47.345206],[8.49791,47.344987],[8.498032,47.344813],[8.498149,47.344644],[8.498183,47.344533],[8.498195,47.344324],[8.498179,47.344234],[8.498143,47.344109],[8.498123,47.343961],[8.498107,47.343869],[8.498068,47.343781],[8.497995,47.343649],[8.497887,47.343636],[8.497773,47.343579],[8.497217,47.343352],[8.497135,47.343314],[8.497096,47.343261],[8.497072,47.343201],[8.497034,47.343005],[8.497017,47.342827],[8.497018,47.342549],[8.497031,47.342472],[8.497068,47.3424],[8.497135,47.342334],[8.497227,47.342284],[8.49756,47.34214],[8.497658,47.34208],[8.497826,47.341971],[8.497955,47.341851],[8.498087,47.341693],[8.498165,47.341519],[8.498306,47.340999],[8.49834,47.340831],[8.498388,47.340652],[8.49856,47.340214],[8.498736,47.339763],[8.498781,47.339683],[8.498856,47.339613],[8.499211,47.339325],[8.499377,47.339179],[8.49981,47.33877],[8.499961,47.338616],[8.500179,47.338375],[8.500258,47.338299],[8.500348,47.338229],[8.500592,47.338054],[8.501041,47.33775],[8.501105,47.337701],[8.501214,47.337617],[8.501619,47.337278],[8.501732,47.337167],[8.501824,47.337048],[8.501907,47.336925],[8.501966,47.336796],[8.501997,47.336662],[8.502007,47.336527],[8.501974,47.336394],[8.502022,47.336359],[8.501841,47.336119],[8.501705,47.335886],[8.501652,47.335442],[8.50153,47.335043],[8.501605,47.334807],[8.501632,47.334458],[8.501784,47.334114],[8.501916,47.333892],[8.502114,47.333702],[8.502215,47.333637],[8.502133,47.333415],[8.502107,47.333345],[8.502088,47.333292],[8.502043,47.33317],[8.50192,47.33303],[8.501674,47.332943],[8.501347,47.332778],[8.501067,47.332597],[8.500912,47.332426],[8.500793,47.332238],[8.500764,47.332021],[8.501132,47.331826],[8.500953,47.331622],[8.500745,47.331383],[8.500644,47.331098],[8.50075,47.33079],[8.500884,47.330525],[8.500791,47.330056],[8.500703,47.329791],[8.500841,47.329496],[8.501415,47.329025],[8.501325,47.328829],[8.501894,47.327645],[8.501779,47.327449],[8.501599,47.327324],[8.501589,47.32723],[8.501563,47.327092],[8.50156,47.326646],[8.501509,47.326503],[8.501417,47.326393],[8.501241,47.326215],[8.501144,47.3261],[8.501019,47.325975],[8.500994,47.32595],[8.500922,47.325378],[8.500889,47.325268],[8.500875,47.325227],[8.500824,47.325056],[8.500846,47.324818],[8.500675,47.324511],[8.500716,47.324329],[8.500736,47.3242],[8.500729,47.324136],[8.50077,47.323842],[8.500787,47.323699],[8.500739,47.323316],[8.500639,47.323001],[8.500622,47.322854],[8.500613,47.322783],[8.500791,47.322707],[8.500957,47.322585],[8.500973,47.322491],[8.501009,47.32217],[8.501026,47.322034],[8.501034,47.321978],[8.501246,47.321663],[8.501364,47.321536],[8.501526,47.321289],[8.501767,47.321067],[8.501939,47.320917],[8.502147,47.320858],[8.502281,47.320814],[8.502421,47.320527],[8.502616,47.320459],[8.502855,47.320374],[8.503126,47.320324],[8.503182,47.320219],[8.503363,47.320321],[8.503569,47.320436],[8.503703,47.32048],[8.503922,47.320559],[8.504122,47.320653],[8.504299,47.320742],[8.504477,47.320929],[8.504757,47.321209],[8.505293,47.321435],[8.505712,47.321448],[8.506004,47.3215],[8.506282,47.321551],[8.506756,47.321633],[8.507083,47.321717],[8.507348,47.321725],[8.507603,47.321844],[8.507614,47.321862],[8.507858,47.322018],[8.507877,47.322032],[8.508097,47.322007],[8.508205,47.321979],[8.50852,47.32186],[8.508689,47.321797],[8.508796,47.321751],[8.508998,47.321728],[8.50933,47.321693],[8.509503,47.321649],[8.509571,47.322024],[8.509784,47.322007],[8.510254,47.322037],[8.510605,47.322069],[8.510872,47.322092],[8.511102,47.322128],[8.511326,47.322163],[8.511364,47.322172],[8.511482,47.322201],[8.511516,47.322205],[8.511615,47.322215],[8.511707,47.322257],[8.511877,47.322334],[8.511994,47.322424],[8.512026,47.322448],[8.51212,47.322539],[8.512136,47.322555],[8.512177,47.322564],[8.512231,47.322601],[8.512442,47.322731],[8.51248,47.32274],[8.512509,47.32276],[8.512575,47.322775],[8.512616,47.322774],[8.512659,47.322797],[8.512707,47.322807],[8.512755,47.322832],[8.512815,47.322847],[8.512824,47.322859],[8.512873,47.322863],[8.512949,47.322895],[8.513017,47.322888],[8.513072,47.322892],[8.513122,47.322885],[8.513177,47.322895],[8.513264,47.322898],[8.513308,47.322905],[8.51341,47.322897],[8.513465,47.322883],[8.513522,47.322865],[8.513543,47.322857],[8.513554,47.322853],[8.513566,47.322849],[8.513577,47.322846],[8.513601,47.32284],[8.513613,47.322837],[8.513626,47.322835],[8.513638,47.322833],[8.514237,47.322754],[8.514301,47.322745],[8.514483,47.322722],[8.514561,47.322711],[8.514584,47.322709],[8.514596,47.322708],[8.514607,47.322708],[8.514632,47.322708],[8.514645,47.322709],[8.514716,47.322718],[8.514785,47.322739],[8.514861,47.322786],[8.514933,47.322847],[8.514994,47.322886],[8.515044,47.322913],[8.515119,47.322954],[8.5152,47.322994],[8.515291,47.323035],[8.515352,47.323064],[8.515405,47.323091],[8.515529,47.323136],[8.515603,47.323154],[8.515643,47.323153],[8.515722,47.323153],[8.515893,47.323118],[8.516171,47.323091],[8.516286,47.323101],[8.516344,47.323089],[8.516419,47.32308],[8.516475,47.323087],[8.516547,47.323099],[8.516596,47.323116],[8.516677,47.323139],[8.516707,47.323144],[8.516779,47.323156],[8.516886,47.323166],[8.517005,47.323171],[8.517132,47.323175],[8.51724,47.323179],[8.517281,47.323181],[8.517622,47.323195],[8.517645,47.323196],[8.517656,47.323197],[8.517667,47.323198],[8.517679,47.3232],[8.517689,47.323202],[8.5177,47.323204],[8.517711,47.323206],[8.517722,47.323209],[8.517742,47.323215],[8.517752,47.323219],[8.517762,47.323222],[8.517772,47.323226],[8.517776,47.323231],[8.51779,47.323235],[8.517799,47.32324],[8.517808,47.323244],[8.517816,47.32325],[8.517833,47.323261],[8.517841,47.323267],[8.517849,47.323273],[8.517856,47.323279],[8.517863,47.323285],[8.51787,47.323292],[8.517876,47.323299],[8.517882,47.323306],[8.517913,47.323342],[8.518022,47.323475],[8.518035,47.323489],[8.518042,47.323495],[8.518049,47.323502],[8.518057,47.323508],[8.518065,47.323514],[8.518073,47.32352],[8.518092,47.323532],[8.518102,47.323538],[8.518112,47.323544],[8.518122,47.323549],[8.518133,47.323554],[8.518144,47.323558],[8.518357,47.323651],[8.518397,47.323672],[8.518416,47.323684],[8.518449,47.323707],[8.518465,47.32372],[8.518541,47.323782],[8.518568,47.323801],[8.518582,47.32381],[8.518615,47.323828],[8.518632,47.323837],[8.518681,47.323861],[8.518893,47.323935],[8.518976,47.32395],[8.519317,47.324009],[8.519619,47.324011],[8.519726,47.324012],[8.51981,47.324013],[8.51992,47.324014],[8.52038,47.323929],[8.520853,47.323915],[8.521118,47.323922],[8.521346,47.323928],[8.521941,47.323941],[8.521935,47.324356],[8.522622,47.324361],[8.52304,47.324334],[8.523442,47.324252],[8.523718,47.324162],[8.523854,47.324388],[8.524021,47.324628],[8.524117,47.324793],[8.524195,47.324858],[8.524188,47.325169],[8.524214,47.325374],[8.524198,47.325445],[8.524176,47.325539],[8.524156,47.325542],[8.524184,47.325586],[8.524201,47.325769],[8.524213,47.325905],[8.524254,47.326076],[8.524255,47.326081],[8.524268,47.326078],[8.524753,47.32596],[8.525202,47.325851],[8.525631,47.325747],[8.525741,47.326056],[8.52579,47.326191],[8.526395,47.32618],[8.526944,47.32617],[8.526957,47.326169],[8.527003,47.326169],[8.527017,47.326168],[8.527621,47.326157],[8.527551,47.326391],[8.528016,47.326347],[8.528019,47.326398],[8.52804,47.326513],[8.528128,47.326851],[8.528189,47.326861],[8.528557,47.326924],[8.528871,47.326973],[8.528935,47.326978],[8.52899,47.326981],[8.529249,47.326914],[8.529419,47.326867],[8.5297,47.326865],[8.529722,47.327255],[8.529751,47.327766],[8.53018,47.327806],[8.531023,47.327888],[8.531182,47.328122],[8.531446,47.328459],[8.531517,47.328625],[8.531589,47.328982],[8.531579,47.329057],[8.531614,47.329231],[8.531675,47.329346],[8.531779,47.329448],[8.531743,47.329471],[8.53178,47.329494],[8.531799,47.329505],[8.53184,47.329524],[8.531861,47.329532],[8.532009,47.32958],[8.532427,47.329694],[8.532592,47.329739],[8.532728,47.329775],[8.532797,47.329792],[8.532935,47.329824],[8.533005,47.329839],[8.533239,47.329885],[8.533357,47.329906],[8.533421,47.329916],[8.533454,47.329921],[8.533627,47.329946],[8.533714,47.329957],[8.533954,47.329983],[8.534075,47.329993],[8.534081,47.329994],[8.534319,47.330009],[8.534439,47.330014],[8.534964,47.330033],[8.535054,47.330036],[8.535098,47.330039],[8.535172,47.330043],[8.535209,47.330045],[8.535242,47.330048],[8.53527,47.33005],[8.535302,47.330052],[8.535372,47.330058],[8.535453,47.330065],[8.535552,47.330076],[8.535601,47.330081],[8.535664,47.330089],[8.535696,47.330093],[8.535857,47.330116],[8.535937,47.330129],[8.536231,47.330179],[8.536227,47.330295],[8.536297,47.330317],[8.536353,47.330347],[8.536398,47.330388],[8.536426,47.330437],[8.536434,47.33047],[8.536443,47.330611],[8.53644,47.330685],[8.536431,47.330759],[8.536637,47.330897],[8.536894,47.331097],[8.537105,47.331227],[8.537285,47.331322],[8.537467,47.331405],[8.537697,47.331528],[8.537827,47.331596],[8.538182,47.331799],[8.538546,47.331936],[8.538711,47.33201],[8.538808,47.332081],[8.538884,47.332166],[8.539251,47.332633],[8.539312,47.332691],[8.539396,47.33273],[8.539488,47.332732],[8.539569,47.332715],[8.540429,47.333579],[8.540314,47.333647],[8.540204,47.333719],[8.540312,47.333958],[8.540738,47.333758],[8.540766,47.333827],[8.540817,47.33391],[8.541405,47.334506],[8.541545,47.334608],[8.541764,47.334752],[8.541863,47.334864],[8.542077,47.335016],[8.542825,47.335359],[8.542847,47.335369],[8.542967,47.33543],[8.553877,47.340861],[8.564262,47.346028],[8.565098,47.346444],[8.565241,47.346462],[8.565762,47.346659],[8.565701,47.346743],[8.565708,47.346745],[8.565644,47.346837],[8.565889,47.346911],[8.566658,47.347057],[8.566823,47.347126],[8.567049,47.34688],[8.567154,47.34693],[8.567364,47.346727],[8.567422,47.346734],[8.569693,47.347595],[8.570302,47.34672],[8.57171,47.347114],[8.571644,47.347274],[8.571689,47.347264],[8.572051,47.347347],[8.572097,47.34734],[8.572207,47.347364],[8.572152,47.347439],[8.573011,47.347647],[8.573096,47.347513],[8.57323,47.347555],[8.573676,47.347663],[8.576262,47.348384],[8.576895,47.34859],[8.576867,47.348778],[8.577873,47.348652],[8.57828,47.34888],[8.578523,47.348728],[8.578694,47.348856],[8.578755,47.348851],[8.57875,47.348868],[8.578838,47.348864],[8.578875,47.348854],[8.579206,47.349033],[8.582469,47.350615],[8.582294,47.350901],[8.582218,47.351006],[8.582489,47.350998],[8.582876,47.350964],[8.583008,47.350945],[8.583138,47.350923],[8.583361,47.350869],[8.583488,47.35104],[8.583658,47.350982],[8.583996,47.350843],[8.584066,47.350936],[8.584232,47.351128],[8.584389,47.351158],[8.584179,47.351292],[8.584217,47.351293],[8.584379,47.351329],[8.584633,47.351413],[8.584598,47.351452],[8.584779,47.351521],[8.58493,47.351678],[8.585062,47.351746],[8.585184,47.351912],[8.585309,47.352012],[8.585493,47.352123],[8.585917,47.352305],[8.586058,47.352475],[8.586108,47.352599],[8.586286,47.35285],[8.586307,47.35288],[8.586434,47.352852],[8.586531,47.352812],[8.586642,47.352832],[8.586826,47.352858],[8.586948,47.352854],[8.587076,47.352785],[8.587218,47.35274],[8.587356,47.35269],[8.587487,47.352672],[8.58766,47.352728],[8.587738,47.352823],[8.587783,47.352933],[8.587854,47.353037],[8.587938,47.353068],[8.58798,47.353067],[8.588046,47.353054],[8.588135,47.352986],[8.588227,47.352922],[8.588477,47.352883],[8.588646,47.352869],[8.588802,47.352851],[8.588934,47.352819],[8.589044,47.352803],[8.589212,47.352858],[8.589431,47.352849],[8.589475,47.352862],[8.5896,47.352876],[8.589721,47.352876],[8.589853,47.352852],[8.59001,47.352853],[8.590148,47.352861],[8.59022,47.352827],[8.590273,47.352772],[8.590386,47.352715],[8.590477,47.35271],[8.590578,47.352762],[8.590632,47.352846],[8.590757,47.352965],[8.590851,47.353081],[8.590985,47.35315],[8.591058,47.353196],[8.59119,47.353205],[8.59133,47.353162],[8.591375,47.353135],[8.591418,47.353104],[8.591518,47.35302],[8.591664,47.352931],[8.59179,47.352871],[8.591906,47.352781],[8.591927,47.352737],[8.591944,47.352681],[8.591944,47.352618],[8.592,47.352494],[8.592031,47.352454],[8.592132,47.352384],[8.592303,47.352295],[8.592482,47.352233],[8.592592,47.352211],[8.592847,47.352184],[8.593175,47.352196],[8.593319,47.352172],[8.593413,47.352147],[8.593513,47.352112],[8.593637,47.352033],[8.593698,47.351959],[8.59373,47.351865],[8.593769,47.351809],[8.593787,47.351771],[8.593858,47.351661],[8.593916,47.351607],[8.59397,47.351595],[8.594042,47.351596],[8.594195,47.351645],[8.594281,47.351663],[8.594553,47.351747],[8.594718,47.351672],[8.594876,47.351619],[8.594951,47.351606],[8.595145,47.351699],[8.59533,47.351777],[8.595489,47.351859],[8.59558,47.351892],[8.595652,47.351897],[8.595724,47.351888],[8.595818,47.351836],[8.595842,47.35175],[8.595972,47.351686],[8.596211,47.351711],[8.596355,47.351721],[8.59646,47.351693],[8.59657,47.351641],[8.596668,47.351611],[8.596728,47.351535],[8.596723,47.351453],[8.596799,47.351412],[8.596901,47.3514],[8.597047,47.351468],[8.597081,47.351476],[8.597139,47.351484],[8.5972,47.351486],[8.597283,47.351459],[8.597331,47.351464],[8.597631,47.351563],[8.597754,47.35161],[8.597926,47.351654],[8.598124,47.351655],[8.598247,47.351652],[8.598396,47.351576],[8.598599,47.351446],[8.598678,47.351438],[8.598853,47.351453],[8.599032,47.351475],[8.599191,47.351469],[8.599333,47.351458],[8.599444,47.351445],[8.599528,47.351452],[8.599612,47.351452],[8.599748,47.35136],[8.599882,47.351341],[8.599975,47.351309],[8.600044,47.351247],[8.600188,47.351151],[8.600271,47.351114],[8.600336,47.351099],[8.600636,47.351049],[8.600682,47.35105],[8.600879,47.351039],[8.600945,47.351046],[8.601052,47.351045],[8.601183,47.35098],[8.601332,47.350855],[8.601412,47.350807],[8.601514,47.350753],[8.601611,47.350726],[8.601728,47.350707],[8.601811,47.350703],[8.601942,47.350705],[8.602395,47.350725],[8.602631,47.350725],[8.602849,47.350758],[8.602953,47.350761],[8.603008,47.350758],[8.603002,47.35099],[8.603033,47.351043],[8.603044,47.351125],[8.602986,47.351182],[8.603019,47.35121],[8.60303,47.351267],[8.603074,47.351362],[8.603083,47.351402],[8.60306,47.35148],[8.602996,47.35153],[8.603018,47.351603],[8.603018,47.351678],[8.602954,47.351744],[8.603043,47.351909],[8.603105,47.35193],[8.6032,47.352009],[8.603213,47.352065],[8.603059,47.352185],[8.603142,47.352264],[8.603204,47.352289],[8.603338,47.35241],[8.603428,47.352526],[8.603423,47.352586],[8.603571,47.352755],[8.603723,47.352787],[8.603751,47.352812],[8.603767,47.352911],[8.603815,47.353003],[8.603952,47.353016],[8.604013,47.353045],[8.604102,47.353177],[8.604133,47.353179],[8.604237,47.353146],[8.604319,47.353162],[8.604326,47.353174],[8.604306,47.353226],[8.60432,47.353243],[8.604398,47.353245],[8.604693,47.353314],[8.604767,47.353384],[8.60496,47.353501],[8.605068,47.353587],[8.605163,47.353571],[8.605289,47.353615],[8.605422,47.35358],[8.605527,47.353598],[8.60571,47.353605],[8.605958,47.353607],[8.60608,47.353625],[8.606279,47.353555],[8.606407,47.353542],[8.606763,47.353474],[8.606862,47.353427],[8.607004,47.353431],[8.607147,47.353422],[8.607179,47.353396],[8.607296,47.353386],[8.607382,47.35337],[8.607518,47.353378],[8.607609,47.353357],[8.607775,47.353326],[8.608083,47.353329],[8.608235,47.353392],[8.608269,47.353412],[8.608363,47.353433],[8.60848,47.35338],[8.608611,47.353448],[8.609072,47.353476],[8.609172,47.353458],[8.60928,47.353501],[8.609364,47.353494],[8.609474,47.353513],[8.609553,47.353487],[8.609763,47.353405],[8.609851,47.353387],[8.609896,47.353441],[8.609945,47.353456],[8.61008,47.353416],[8.610228,47.353428],[8.61033,47.353423],[8.610432,47.353369],[8.610541,47.353395],[8.610687,47.353412],[8.610773,47.353474],[8.610879,47.353464],[8.61108,47.353517],[8.611147,47.353572],[8.611211,47.353586],[8.61131,47.35364],[8.611369,47.353782],[8.61141,47.353836],[8.611436,47.353863],[8.611455,47.353869],[8.611536,47.353878],[8.611572,47.353942],[8.611637,47.353972],[8.611714,47.35397],[8.611818,47.353944],[8.612023,47.354074],[8.612039,47.354078],[8.612055,47.354092],[8.612061,47.354142],[8.612118,47.354162],[8.612224,47.354245],[8.612349,47.354249],[8.61247,47.354323],[8.612562,47.354364],[8.612614,47.354359],[8.612633,47.354294],[8.612737,47.354302],[8.612855,47.35429],[8.613178,47.354247],[8.613228,47.354221],[8.613392,47.354168],[8.613576,47.354153],[8.613617,47.354112],[8.613696,47.354084],[8.613705,47.354093],[8.613741,47.354079],[8.613811,47.354093],[8.613865,47.354071],[8.613876,47.354019],[8.613958,47.354024],[8.614014,47.354075],[8.614081,47.354061],[8.61413,47.354066],[8.614207,47.354102],[8.614353,47.354079],[8.614419,47.354053],[8.614716,47.354055],[8.614772,47.354075],[8.614969,47.354058],[8.615052,47.354116],[8.615172,47.354142],[8.615209,47.354098],[8.615258,47.354132],[8.615301,47.354169],[8.615432,47.354318],[8.615479,47.354357],[8.61553,47.354383],[8.615585,47.354402],[8.615643,47.354412],[8.615704,47.354415],[8.615769,47.354409],[8.615835,47.354393],[8.615889,47.354369],[8.615939,47.354335],[8.615964,47.354365],[8.616136,47.354366],[8.616198,47.35436],[8.616258,47.354351],[8.616345,47.354328],[8.616551,47.354255],[8.616848,47.354173],[8.61696,47.35415],[8.617084,47.354136],[8.61719,47.354134],[8.617296,47.354139],[8.617633,47.354188],[8.617713,47.354196],[8.618088,47.354203],[8.618173,47.354208],[8.618294,47.354224],[8.618402,47.354249],[8.618444,47.354024],[8.618456,47.353816],[8.618533,47.353822],[8.618998,47.353843],[8.619382,47.353867],[8.61977,47.353845],[8.619813,47.353834],[8.619812,47.353684],[8.619897,47.353665],[8.619934,47.353682],[8.61998,47.353695],[8.620029,47.353699],[8.620078,47.353696],[8.620736,47.35354],[8.620857,47.353516],[8.620982,47.353498],[8.621693,47.353418],[8.622049,47.353345],[8.622091,47.353342],[8.622141,47.353351],[8.622185,47.353374],[8.622205,47.353396],[8.622275,47.353514],[8.622306,47.35355],[8.622371,47.3536],[8.622451,47.353637],[8.62253,47.353657],[8.622937,47.353719],[8.623455,47.353805],[8.623932,47.353904],[8.624039,47.35393],[8.62422,47.353989],[8.624306,47.354024],[8.624388,47.354063],[8.624535,47.354148],[8.624609,47.354219],[8.624566,47.354238],[8.62459,47.354267],[8.624691,47.354273],[8.624865,47.354387],[8.625082,47.35446],[8.625307,47.35455],[8.625453,47.354663],[8.62536,47.354664],[8.625262,47.354677],[8.625176,47.3547],[8.625096,47.354733],[8.624517,47.355041],[8.623978,47.35534],[8.623546,47.355601],[8.623494,47.35564],[8.623449,47.355684],[8.623395,47.355784],[8.623523,47.355883],[8.623494,47.355902],[8.62352,47.355922],[8.623464,47.355903],[8.623405,47.3559],[8.623098,47.356191],[8.622843,47.356391],[8.622826,47.356377],[8.622747,47.35644],[8.622335,47.35672],[8.622043,47.356868],[8.621844,47.356985],[8.621541,47.357189],[8.621486,47.357233],[8.621441,47.357283],[8.621345,47.357445],[8.621315,47.357525],[8.621302,47.357606],[8.621306,47.357689],[8.621326,47.357765],[8.621358,47.357835],[8.621678,47.358373],[8.621707,47.358433],[8.62173,47.358501],[8.62174,47.358549],[8.621769,47.358992],[8.621835,47.35922],[8.621858,47.359402],[8.621877,47.359457],[8.621897,47.359487],[8.621925,47.359518],[8.621959,47.359546],[8.621999,47.359571],[8.622464,47.359809],[8.622579,47.359826],[8.622412,47.359855],[8.622213,47.359907],[8.621905,47.360009],[8.621751,47.360069],[8.621694,47.360101],[8.621106,47.36044],[8.620786,47.360614],[8.62035,47.360832],[8.620028,47.360981],[8.619942,47.361002],[8.619968,47.361034],[8.619886,47.361053],[8.619689,47.361093],[8.619305,47.361212],[8.618655,47.361301],[8.618187,47.361353],[8.617528,47.361354],[8.615626,47.361411],[8.615256,47.361449],[8.614899,47.361498],[8.614716,47.361507],[8.614834,47.362629],[8.615668,47.362726],[8.615653,47.362783],[8.615586,47.363416],[8.615455,47.363561],[8.6152,47.364042],[8.614962,47.364579],[8.615016,47.364592],[8.615065,47.364632],[8.615142,47.364635],[8.615177,47.364595],[8.615269,47.364565],[8.615375,47.364566],[8.615473,47.364612],[8.615498,47.364678],[8.615534,47.364687],[8.615548,47.36468],[8.615565,47.36466],[8.615659,47.364653],[8.61569,47.364667],[8.615737,47.3647],[8.615878,47.364783],[8.615946,47.364813],[8.615978,47.364843],[8.616022,47.36486],[8.616073,47.364901],[8.616101,47.364918],[8.616114,47.364957],[8.616133,47.364965],[8.616178,47.36497],[8.616259,47.365003],[8.616326,47.365023],[8.616414,47.36513],[8.616446,47.365141],[8.616465,47.365151],[8.61651,47.36519],[8.616581,47.365217],[8.616614,47.365217],[8.616643,47.365225],[8.616687,47.36526],[8.616726,47.365267],[8.616767,47.365315],[8.616835,47.365344],[8.616848,47.365358],[8.616856,47.365383],[8.616849,47.365404],[8.616873,47.365436],[8.616877,47.365451],[8.616866,47.365475],[8.616871,47.365491],[8.616888,47.365505],[8.616926,47.365593],[8.616949,47.36561],[8.616961,47.365629],[8.616973,47.365669],[8.616957,47.36569],[8.616985,47.365737],[8.61699,47.365757],[8.617001,47.365768],[8.616998,47.365795],[8.617007,47.365806],[8.617033,47.365893],[8.617049,47.365904],[8.617051,47.365934],[8.617027,47.365946],[8.617022,47.365965],[8.617042,47.365977],[8.617053,47.366001],[8.617052,47.366015],[8.617027,47.366056],[8.617026,47.366077],[8.617062,47.366112],[8.617083,47.366153],[8.617113,47.366183],[8.617124,47.366204],[8.617108,47.366231],[8.617104,47.36626],[8.617124,47.366281],[8.617161,47.366291],[8.617187,47.36631],[8.617305,47.366361],[8.617323,47.366396],[8.617358,47.366418],[8.61734,47.366475],[8.617408,47.366509],[8.617457,47.366548],[8.617412,47.366582],[8.617514,47.366658],[8.617507,47.366687],[8.617539,47.366751],[8.617648,47.366812],[8.617613,47.366833],[8.617602,47.366843],[8.617592,47.366853],[8.617582,47.366864],[8.617573,47.366875],[8.617564,47.366886],[8.617347,47.367211],[8.617196,47.367487],[8.617049,47.367818],[8.6169,47.368024],[8.616652,47.36828],[8.61645,47.368407],[8.615543,47.367709],[8.615495,47.367695],[8.613662,47.368018],[8.613634,47.367958],[8.613623,47.367938],[8.613618,47.367928],[8.613611,47.367918],[8.613604,47.367908],[8.613596,47.367899],[8.613588,47.36789],[8.61358,47.367881],[8.613571,47.367872],[8.613561,47.367864],[8.613552,47.367855],[8.613541,47.367847],[8.61353,47.36784],[8.613519,47.367832],[8.613508,47.367825],[8.613496,47.367818],[8.613484,47.367811],[8.613471,47.367805],[8.613458,47.367799],[8.613445,47.367793],[8.613431,47.367787],[8.6134,47.367777],[8.613384,47.367772],[8.613355,47.367765],[8.61334,47.367762],[8.613325,47.367759],[8.61331,47.367756],[8.613295,47.367754],[8.61328,47.367753],[8.613264,47.367751],[8.613249,47.36775],[8.613233,47.36775],[8.613218,47.36775],[8.613202,47.36775],[8.613187,47.36775],[8.613171,47.367751],[8.613156,47.367753],[8.61314,47.367754],[8.613125,47.367756],[8.61311,47.367759],[8.613095,47.367762],[8.61308,47.367765],[8.612798,47.367526],[8.612002,47.366844],[8.611877,47.366902],[8.611749,47.366958],[8.611683,47.366984],[8.611549,47.367034],[8.61148,47.367056],[8.610943,47.367227],[8.610763,47.367279],[8.61067,47.367301],[8.610482,47.367337],[8.610386,47.36735],[8.609325,47.367489],[8.608638,47.367596],[8.608585,47.367603],[8.608558,47.367605],[8.608531,47.367607],[8.608477,47.367608],[8.60845,47.367607],[8.608423,47.367606],[8.608269,47.367595],[8.60825,47.367594],[8.608241,47.367594],[8.608231,47.367594],[8.608222,47.367595],[8.608213,47.367595],[8.608203,47.367596],[8.608194,47.367597],[8.608185,47.367598],[8.608176,47.3676],[8.608167,47.367601],[8.608158,47.367603],[8.608149,47.367605],[8.60814,47.367608],[8.608131,47.36761],[8.608123,47.367613],[8.608115,47.367616],[8.608106,47.367619],[8.608098,47.367622],[8.608083,47.367629],[8.608075,47.367633],[8.608068,47.367637],[8.608061,47.367641],[8.608054,47.367646],[8.608048,47.36765],[8.608042,47.367655],[8.608036,47.36766],[8.60803,47.367665],[8.608024,47.36767],[8.608019,47.367675],[8.608014,47.367681],[8.608009,47.367686],[8.608005,47.367692],[8.608,47.367697],[8.607997,47.367703],[8.607993,47.367709],[8.60799,47.367715],[8.60796,47.367767],[8.607943,47.367793],[8.607924,47.367818],[8.607905,47.367843],[8.607883,47.367867],[8.607861,47.36789],[8.607812,47.367935],[8.607785,47.367957],[8.607757,47.367978],[8.607729,47.367998],[8.607699,47.368017],[8.607668,47.368036],[8.607446,47.368163],[8.606985,47.368386],[8.606696,47.368539],[8.606649,47.368562],[8.606624,47.368573],[8.606599,47.368583],[8.606573,47.368592],[8.606546,47.368601],[8.606492,47.368616],[8.606464,47.368623],[8.606436,47.368629],[8.606407,47.368634],[8.606378,47.368639],[8.606226,47.36866],[8.606199,47.368665],[8.606186,47.368667],[8.606173,47.36867],[8.60616,47.368674],[8.606147,47.368677],[8.606134,47.368681],[8.606122,47.368686],[8.60611,47.36869],[8.606098,47.368695],[8.606086,47.3687],[8.606075,47.368706],[8.606063,47.368711],[8.606053,47.368717],[8.606042,47.368724],[8.606032,47.36873],[8.606022,47.368737],[8.606012,47.368744],[8.605994,47.368758],[8.605986,47.368766],[8.605978,47.368774],[8.60597,47.368781],[8.605963,47.368789],[8.605956,47.368798],[8.60595,47.368806],[8.605944,47.368815],[8.605939,47.368824],[8.605934,47.368832],[8.605929,47.368841],[8.605925,47.36885],[8.605922,47.36886],[8.605919,47.368869],[8.605916,47.368878],[8.605914,47.368887],[8.605912,47.368897],[8.605907,47.36893],[8.605901,47.368954],[8.605898,47.368966],[8.605893,47.368978],[8.605888,47.36899],[8.605883,47.369002],[8.605876,47.369014],[8.605861,47.369036],[8.605853,47.369047],[8.605844,47.369058],[8.605834,47.369068],[8.605824,47.369078],[8.605813,47.369088],[8.605619,47.369256],[8.605368,47.369465],[8.604895,47.369833],[8.604779,47.369917],[8.604719,47.369958],[8.604594,47.370034],[8.60453,47.37007],[8.604496,47.37009],[8.60448,47.3701],[8.604464,47.370111],[8.604449,47.370123],[8.604435,47.370134],[8.604409,47.370159],[8.604397,47.370172],[8.604385,47.370185],[8.604375,47.370199],[8.604365,47.370212],[8.60426,47.37037],[8.604221,47.370423],[8.604199,47.370449],[8.604175,47.370474],[8.604151,47.370499],[8.604097,47.370546],[8.604069,47.370568],[8.604039,47.37059],[8.604008,47.370611],[8.6039,47.370683],[8.603812,47.370744],[8.60377,47.370777],[8.60373,47.37081],[8.603656,47.37088],[8.603621,47.370916],[8.603589,47.370953],[8.603409,47.37116],[8.603367,47.371206],[8.603345,47.371227],[8.603321,47.371248],[8.603296,47.371269],[8.603269,47.371288],[8.603242,47.371308],[8.603214,47.371326],[8.603154,47.37136],[8.603122,47.371376],[8.60309,47.371392],[8.603057,47.371406],[8.603023,47.371419],[8.602989,47.371432],[8.602953,47.371444],[8.602681,47.371531],[8.602613,47.371551],[8.602578,47.37156],[8.602543,47.371568],[8.60247,47.371582],[8.602434,47.371587],[8.602397,47.371592],[8.602224,47.371612],[8.602178,47.371618],[8.602156,47.371622],[8.602134,47.371627],[8.602112,47.371632],[8.60209,47.371637],[8.602048,47.37165],[8.602027,47.371657],[8.602007,47.371665],[8.601987,47.371673],[8.601968,47.371681],[8.601954,47.371688],[8.601947,47.371692],[8.60194,47.371696],[8.601934,47.3717],[8.601928,47.371704],[8.601922,47.371708],[8.601916,47.371713],[8.601911,47.371717],[8.601906,47.371722],[8.6019,47.371727],[8.601892,47.371737],[8.601887,47.371742],[8.601884,47.371747],[8.60188,47.371752],[8.601877,47.371758],[8.601874,47.371763],[8.601871,47.371769],[8.601869,47.371774],[8.601867,47.37178],[8.601865,47.371786],[8.601843,47.37186],[8.601841,47.371912],[8.60184,47.371921]]]}}