{"type":"FeatureCollection","features":[{"type":"Feature","properties":{"modus":"oev","art":"best","beschriftung":"Rang 1 · 20,5 min","rang":1,"minuten":20.5,"orte":640,"lon":8.53942,"lat":47.37684,"adresse":"Bahnhofstrasse 93","name":"Hotel Schweizerhof"},"geometry":{"type":"Point","coordinates":[8.53942,47.37684]}},{"type":"Feature","properties":{"modus":"oev","art":"worst","beschriftung":"Rang 47’085 · 86,3 min","rang":47085,"minuten":86.3,"orte":0,"lon":8.5015,"lat":47.32401,"adresse":null,"name":"Säntisblick"},"geometry":{"type":"Point","coordinates":[8.5015,47.32401]}},{"type":"Feature","properties":{"modus":"kultur","art":"best","beschriftung":"Rang 1 · 683 Orte","rang":1,"minuten":24.5,"orte":683,"lon":8.53309,"lat":47.37288,"adresse":"Sihlstrasse 95","name":null},"geometry":{"type":"Point","coordinates":[8.53309,47.37288]}},{"type":"Feature","properties":{"modus":"kultur","art":"worst","beschriftung":"Rang 47’085 · 0 Orte","rang":47085,"minuten":66.2,"orte":0,"lon":8.50449,"lat":47.33248,"adresse":null,"name":"Alpinahütte"},"geometry":{"type":"Point","coordinates":[8.50449,47.33248]}}]}