{"type":"FeatureCollection","features":[{"type":"Feature","properties":{"name":"Central Polybahn","art":"bahnhof","z":12.5},"geometry":{"type":"Point","coordinates":[8.544172,47.376518]}},{"type":"Feature","properties":{"name":"Polyterrasse ETH","art":"bahnhof","z":12.5},"geometry":{"type":"Point","coordinates":[8.546321,47.376832]}},{"type":"Feature","properties":{"name":"Wollishofen","art":"stadtteil","z":11},"geometry":{"type":"Point","coordinates":[8.530708,47.342427]}},{"type":"Feature","properties":{"name":"Riesbach","art":"stadtteil","z":11},"geometry":{"type":"Point","coordinates":[8.559865,47.357475]}},{"type":"Feature","properties":{"name":"Bergstation Dolderbahn","art":"bahnhof","z":12.5},"geometry":{"type":"Point","coordinates":[8.574637,47.37317]}},{"type":"Feature","properties":{"name":"Altstetten","art":"stadtteil","z":11},"geometry":{"type":"Point","coordinates":[8.486061,47.387403]}},{"type":"Feature","properties":{"name":"Rigiblick","art":"bahnhof","z":12.5},"geometry":{"type":"Point","coordinates":[8.553336,47.38733]}},{"type":"Feature","properties":{"name":"Seilbahn Rigiblick","art":"bahnhof","z":12.5},"geometry":{"type":"Point","coordinates":[8.548947,47.385884]}},{"type":"Feature","properties":{"name":"Witikon","art":"stadtteil","z":11},"geometry":{"type":"Point","coordinates":[8.590628,47.35831]}},{"type":"Feature","properties":{"name":"Zürich","art":"stadtteil","z":11},"geometry":{"type":"Point","coordinates":[8.541042,47.374449]}},{"type":"Feature","properties":{"name":"Höngg","art":"stadtteil","z":11},"geometry":{"type":"Point","coordinates":[8.497669,47.40166]}},{"type":"Feature","properties":{"name":"Wipkingen","art":"stadtteil","z":11},"geometry":{"type":"Point","coordinates":[8.528602,47.393495]}},{"type":"Feature","properties":{"name":"Affoltern","art":"stadtteil","z":11},"geometry":{"type":"Point","coordinates":[8.507186,47.418762]}},{"type":"Feature","properties":{"name":"Seebach","art":"stadtteil","z":11},"geometry":{"type":"Point","coordinates":[8.548377,47.420438]}},{"type":"Feature","properties":{"name":"Oerlikon","art":"stadtteil","z":11},"geometry":{"type":"Point","coordinates":[8.544585,47.410421]}},{"type":"Feature","properties":{"name":"Schwamendingen","art":"stadtteil","z":11},"geometry":{"type":"Point","coordinates":[8.572414,47.405]}},{"type":"Feature","properties":{"name":"Fluntern","art":"stadtteil","z":11},"geometry":{"type":"Point","coordinates":[8.558775,47.376777]}},{"type":"Feature","properties":{"name":"Hottingen","art":"stadtteil","z":11},"geometry":{"type":"Point","coordinates":[8.555082,47.36968]}},{"type":"Feature","properties":{"name":"Hirslanden","art":"stadtteil","z":11},"geometry":{"type":"Point","coordinates":[8.564269,47.362948]}},{"type":"Feature","properties":{"name":"Unterstrass","art":"stadtteil","z":11},"geometry":{"type":"Point","coordinates":[8.539572,47.391447]}},{"type":"Feature","properties":{"name":"Industriequartier","art":"stadtteil","z":11},"geometry":{"type":"Point","coordinates":[8.520627,47.387507]}},{"type":"Feature","properties":{"name":"Aussersihl","art":"stadtteil","z":11},"geometry":{"type":"Point","coordinates":[8.5212,47.378714]}},{"type":"Feature","properties":{"name":"Wiedikon","art":"stadtteil","z":11},"geometry":{"type":"Point","coordinates":[8.510713,47.366267]}},{"type":"Feature","properties":{"name":"Enge","art":"stadtteil","z":11},"geometry":{"type":"Point","coordinates":[8.528708,47.361789]}},{"type":"Feature","properties":{"name":"Oberstrass","art":"stadtteil","z":11},"geometry":{"type":"Point","coordinates":[8.549124,47.385706]}},{"type":"Feature","properties":{"name":"Leimbach","art":"stadtteil","z":11},"geometry":{"type":"Point","coordinates":[8.512539,47.330511]}},{"type":"Feature","properties":{"name":"Altstadt","art":"stadtteil","z":11},"geometry":{"type":"Point","coordinates":[8.542329,47.372233]}},{"type":"Feature","properties":{"name":"Römerhof","art":"bahnhof","z":12.5},"geometry":{"type":"Point","coordinates":[8.560867,47.368444]}},{"type":"Feature","properties":{"name":"Zürich Oerlikon","art":"bahnhof","z":12.5},"geometry":{"type":"Point","coordinates":[8.544151,47.411499]}},{"type":"Feature","properties":{"name":"Zürich Hardbrücke","art":"bahnhof","z":12.5},"geometry":{"type":"Point","coordinates":[8.517393,47.385161]}},{"type":"Feature","properties":{"name":"Zürich Hauptbahnhof","art":"bahnhof","z":12.5},"geometry":{"type":"Point","coordinates":[8.539364,47.378101]}},{"type":"Feature","properties":{"name":"Zürich Stadelhofen","art":"bahnhof","z":12.5},"geometry":{"type":"Point","coordinates":[8.548386,47.366564]}},{"type":"Feature","properties":{"name":"Stettbach","art":"bahnhof","z":12.5},"geometry":{"type":"Point","coordinates":[8.596107,47.397152]}},{"type":"Feature","properties":{"name":"Zürich Selnau","art":"bahnhof","z":12.5},"geometry":{"type":"Point","coordinates":[8.531856,47.37247]}},{"type":"Feature","properties":{"name":"Zürich Binz","art":"bahnhof","z":12.5},"geometry":{"type":"Point","coordinates":[8.518085,47.362847]}},{"type":"Feature","properties":{"name":"Zürich Friesenberg","art":"bahnhof","z":12.5},"geometry":{"type":"Point","coordinates":[8.507577,47.364816]}},{"type":"Feature","properties":{"name":"Zürich Triemli","art":"bahnhof","z":12.5},"geometry":{"type":"Point","coordinates":[8.49535,47.364974]}},{"type":"Feature","properties":{"name":"Zürich Giesshübel","art":"bahnhof","z":12.5},"geometry":{"type":"Point","coordinates":[8.522015,47.362608]}},{"type":"Feature","properties":{"name":"Zürich Saalsporthalle","art":"bahnhof","z":12.5},"geometry":{"type":"Point","coordinates":[8.521834,47.358007]}},{"type":"Feature","properties":{"name":"Zürich Brunau","art":"bahnhof","z":12.5},"geometry":{"type":"Point","coordinates":[8.526223,47.351598]}},{"type":"Feature","properties":{"name":"Zürich Leimbach","art":"bahnhof","z":12.5},"geometry":{"type":"Point","coordinates":[8.518727,47.333073]}},{"type":"Feature","properties":{"name":"Zürich Wiedikon","art":"bahnhof","z":12.5},"geometry":{"type":"Point","coordinates":[8.523065,47.371712]}},{"type":"Feature","properties":{"name":"Zürich Enge","art":"bahnhof","z":12.5},"geometry":{"type":"Point","coordinates":[8.53076,47.364183]}},{"type":"Feature","properties":{"name":"Zürich Tiefenbrunnen","art":"bahnhof","z":12.5},"geometry":{"type":"Point","coordinates":[8.561341,47.350117]}},{"type":"Feature","properties":{"name":"Zürich Seebach","art":"bahnhof","z":12.5},"geometry":{"type":"Point","coordinates":[8.544219,47.418587]}},{"type":"Feature","properties":{"name":"Zürich Affoltern","art":"bahnhof","z":12.5},"geometry":{"type":"Point","coordinates":[8.508177,47.420901]}},{"type":"Feature","properties":{"name":"Mühlebach","art":"stadtteil","z":13.5},"geometry":{"type":"Point","coordinates":[8.554362,47.360772]}},{"type":"Feature","properties":{"name":"Seefeld","art":"stadtteil","z":13.5},"geometry":{"type":"Point","coordinates":[8.551074,47.357783]}},{"type":"Feature","properties":{"name":"Weinegg","art":"stadtteil","z":13.5},"geometry":{"type":"Point","coordinates":[8.56991,47.351058]}},{"type":"Feature","properties":{"name":"Albisrieden","art":"stadtteil","z":11},"geometry":{"type":"Point","coordinates":[8.484657,47.374857]}},{"type":"Feature","properties":{"name":"Zürich Altstetten","art":"bahnhof","z":12.5},"geometry":{"type":"Point","coordinates":[8.489333,47.391317]}},{"type":"Feature","properties":{"name":"Zürich Wollishofen","art":"bahnhof","z":12.5},"geometry":{"type":"Point","coordinates":[8.533738,47.347782]}},{"type":"Feature","properties":{"name":"Zürich Schweighof","art":"bahnhof","z":12.5},"geometry":{"type":"Point","coordinates":[8.503532,47.364965]}},{"type":"Feature","properties":{"name":"Zürich Manegg","art":"bahnhof","z":12.5},"geometry":{"type":"Point","coordinates":[8.519735,47.337828]}},{"type":"Feature","properties":{"name":"Saatlen","art":"stadtteil","z":13.5},"geometry":{"type":"Point","coordinates":[8.563383,47.410987]}},{"type":"Feature","properties":{"name":"Zürich Wipkingen","art":"bahnhof","z":12.5},"geometry":{"type":"Point","coordinates":[8.529316,47.393056]}},{"type":"Feature","properties":{"name":"Rathaus","art":"stadtteil","z":13.5},"geometry":{"type":"Point","coordinates":[8.544311,47.372649]}},{"type":"Feature","properties":{"name":"Hochschulen","art":"stadtteil","z":13.5},"geometry":{"type":"Point","coordinates":[8.548598,47.373896]}},{"type":"Feature","properties":{"name":"City","art":"stadtteil","z":13.5},"geometry":{"type":"Point","coordinates":[8.535346,47.372943]}},{"type":"Feature","properties":{"name":"Lindenhof","art":"stadtteil","z":13.5},"geometry":{"type":"Point","coordinates":[8.540176,47.372916]}},{"type":"Feature","properties":{"name":"Schwamendingen-Mitte","art":"stadtteil","z":13.5},"geometry":{"type":"Point","coordinates":[8.568326,47.404437]}},{"type":"Feature","properties":{"name":"Gewerbeschule","art":"stadtteil","z":13.5},"geometry":{"type":"Point","coordinates":[8.530086,47.383818]}},{"type":"Feature","properties":{"name":"Escher Wyss","art":"stadtteil","z":13.5},"geometry":{"type":"Point","coordinates":[8.51536,47.390899]}},{"type":"Feature","properties":{"name":"Langstrasse","art":"stadtteil","z":13.5},"geometry":{"type":"Point","coordinates":[8.526415,47.377273]}},{"type":"Feature","properties":{"name":"Hard","art":"stadtteil","z":13.5},"geometry":{"type":"Point","coordinates":[8.512554,47.381743]}},{"type":"Feature","properties":{"name":"Alt-Wiedikon","art":"stadtteil","z":13.5},"geometry":{"type":"Point","coordinates":[8.518227,47.365572]}},{"type":"Feature","properties":{"name":"Werd","art":"stadtteil","z":13.5},"geometry":{"type":"Point","coordinates":[8.526782,47.371991]}},{"type":"Feature","properties":{"name":"Sihlfeld","art":"stadtteil","z":13.5},"geometry":{"type":"Point","coordinates":[8.51082,47.373218]}},{"type":"Feature","properties":{"name":"Friesenberg","art":"stadtteil","z":13.5},"geometry":{"type":"Point","coordinates":[8.505544,47.361919]}},{"type":"Feature","properties":{"name":"Hirzenbach","art":"stadtteil","z":13.5},"geometry":{"type":"Point","coordinates":[8.587687,47.402204]}},{"type":"Feature","properties":{"name":"Überbauung Grünau","art":"stadtteil","z":13.5},"geometry":{"type":"Point","coordinates":[8.490807,47.396229]}},{"type":"Feature","properties":{"name":"Werdwies","art":"stadtteil","z":13.5},"geometry":{"type":"Point","coordinates":[8.487647,47.395992]}},{"type":"Feature","properties":{"name":"Helvetiaplatz","art":"platz","z":14},"geometry":{"type":"Point","coordinates":[8.526861,47.376075]}},{"type":"Feature","properties":{"name":"Lindenhof","art":"platz","z":14},"geometry":{"type":"Point","coordinates":[8.540804,47.372987]}},{"type":"Feature","properties":{"name":"Blatterwiese","art":"platz","z":14},"geometry":{"type":"Point","coordinates":[8.551141,47.354545]}},{"type":"Feature","properties":{"name":"Idaplatz","art":"platz","z":14},"geometry":{"type":"Point","coordinates":[8.514663,47.37421]}},{"type":"Feature","properties":{"name":"Löwenplatz","art":"platz","z":14},"geometry":{"type":"Point","coordinates":[8.537243,47.375877]}},{"type":"Feature","properties":{"name":"Bullingerplatz","art":"platz","z":14},"geometry":{"type":"Point","coordinates":[8.516011,47.379563]}},{"type":"Feature","properties":{"name":"Felix-und-Regula-Platz","art":"platz","z":14},"geometry":{"type":"Point","coordinates":[8.513738,47.381333]}},{"type":"Feature","properties":{"name":"Linthescherhof","art":"platz","z":14},"geometry":{"type":"Point","coordinates":[8.538271,47.37634]}},{"type":"Feature","properties":{"name":"Hallwylplatz","art":"platz","z":14},"geometry":{"type":"Point","coordinates":[8.528171,47.371207]}},{"type":"Feature","properties":{"name":"Ernst-Nobs-Platz","art":"platz","z":14},"geometry":{"type":"Point","coordinates":[8.530106,47.371273]}},{"type":"Feature","properties":{"name":"Altstetterplatz","art":"platz","z":14},"geometry":{"type":"Point","coordinates":[8.488356,47.391327]}},{"type":"Feature","properties":{"name":"Röschibachplatz","art":"platz","z":14},"geometry":{"type":"Point","coordinates":[8.528887,47.393282]}},{"type":"Feature","properties":{"name":"Europaplatz","art":"platz","z":14},"geometry":{"type":"Point","coordinates":[8.536048,47.378022]}},{"type":"Feature","properties":{"name":"Kappelerhof","art":"platz","z":14},"geometry":{"type":"Point","coordinates":[8.540368,47.368484]}},{"type":"Feature","properties":{"name":"Zentralhof","art":"platz","z":14},"geometry":{"type":"Point","coordinates":[8.540084,47.369258]}},{"type":"Feature","properties":{"name":"Franklinplatz","art":"platz","z":14},"geometry":{"type":"Point","coordinates":[8.543943,47.409694]}},{"type":"Feature","properties":{"name":"Zehntenhausplatz","art":"platz","z":14},"geometry":{"type":"Point","coordinates":[8.507105,47.419121]}},{"type":"Feature","properties":{"name":"Gustav-Gull-Platz","art":"platz","z":14},"geometry":{"type":"Point","coordinates":[8.531721,47.379101]}},{"type":"Feature","properties":{"name":"Steinfelsplatz","art":"platz","z":14},"geometry":{"type":"Point","coordinates":[8.520589,47.388265]}},{"type":"Feature","properties":{"name":"Susanna-Gossweiler-Platz","art":"platz","z":14},"geometry":{"type":"Point","coordinates":[8.546097,47.372042]}},{"type":"Feature","properties":{"name":"Albert-Näf-Platz","art":"platz","z":14},"geometry":{"type":"Point","coordinates":[8.546212,47.410183]}},{"type":"Feature","properties":{"name":"Albin-Zollinger-Platz","art":"platz","z":14},"geometry":{"type":"Point","coordinates":[8.542617,47.404994]}},{"type":"Feature","properties":{"name":"Beatenplatz","art":"platz","z":14},"geometry":{"type":"Point","coordinates":[8.541313,47.376042]}},{"type":"Feature","properties":{"name":"Rigiplatz","art":"platz","z":14},"geometry":{"type":"Point","coordinates":[8.548047,47.384639]}},{"type":"Feature","properties":{"name":"Leuenplatz","art":"platz","z":14},"geometry":{"type":"Point","coordinates":[8.544897,47.372107]}},{"type":"Feature","properties":{"name":"Römerhofplatz","art":"platz","z":14},"geometry":{"type":"Point","coordinates":[8.56044,47.368174]}},{"type":"Feature","properties":{"name":"Hardplatz","art":"platz","z":14},"geometry":{"type":"Point","coordinates":[8.515131,47.382455]}},{"type":"Feature","properties":{"name":"Stadthausanlage","art":"platz","z":14},"geometry":{"type":"Point","coordinates":[8.5408,47.367138]}},{"type":"Feature","properties":{"name":"Heimplatz","art":"platz","z":14},"geometry":{"type":"Point","coordinates":[8.548697,47.370511]}},{"type":"Feature","properties":{"name":"Max-Frisch-Platz","art":"platz","z":14},"geometry":{"type":"Point","coordinates":[8.543324,47.412222]}},{"type":"Feature","properties":{"name":"Schiffbauplatz","art":"platz","z":14},"geometry":{"type":"Point","coordinates":[8.519698,47.388563]}},{"type":"Feature","properties":{"name":"Emil-Oberhänsli-Platz","art":"platz","z":14},"geometry":{"type":"Point","coordinates":[8.545719,47.417563]}},{"type":"Feature","properties":{"name":"Tessinerplatz","art":"platz","z":14},"geometry":{"type":"Point","coordinates":[8.531581,47.364212]}},{"type":"Feature","properties":{"name":"Taubenschlag","art":"platz","z":14},"geometry":{"type":"Point","coordinates":[8.542196,47.377167]}},{"type":"Feature","properties":{"name":"Emilie-Lieberherr-Platz","art":"platz","z":14},"geometry":{"type":"Point","coordinates":[8.530677,47.383386]}},{"type":"Feature","properties":{"name":"Bahnhofplatz","art":"platz","z":14},"geometry":{"type":"Point","coordinates":[8.539676,47.377244]}},{"type":"Feature","properties":{"name":"Anny-Klawa-Platz","art":"platz","z":14},"geometry":{"type":"Point","coordinates":[8.516371,47.377126]}},{"type":"Feature","properties":{"name":"Marie-Bürkli-Eck","art":"platz","z":14},"geometry":{"type":"Point","coordinates":[8.524199,47.387206]}},{"type":"Feature","properties":{"name":"Maneggplatz","art":"platz","z":14},"geometry":{"type":"Point","coordinates":[8.520265,47.339585]}},{"type":"Feature","properties":{"name":"Pocketplatz","art":"platz","z":14},"geometry":{"type":"Point","coordinates":[8.560363,47.41368]}},{"type":"Feature","properties":{"name":"Zwingliplatz","art":"platz","z":14},"geometry":{"type":"Point","coordinates":[8.544155,47.370422]}},{"type":"Feature","properties":{"name":"Atrium","art":"platz","z":14},"geometry":{"type":"Point","coordinates":[8.519619,47.393144]}},{"type":"Feature","properties":{"name":"Hartplatz","art":"platz","z":14},"geometry":{"type":"Point","coordinates":[8.520443,47.392898]}},{"type":"Feature","properties":{"name":"Louis-Favre-Platz","art":"platz","z":14},"geometry":{"type":"Point","coordinates":[8.534413,47.380468]}},{"type":"Feature","properties":{"name":"Bürkliplatz","art":"platz","z":14},"geometry":{"type":"Point","coordinates":[8.54137,47.366495]}},{"type":"Feature","properties":{"name":"Plattenplatz","art":"platz","z":14},"geometry":{"type":"Point","coordinates":[8.560401,47.414241]}}]}