{"type":"FeatureCollection","features":[{"type":"Feature","properties":{"name":"Zürich, Klinik Hirslanden"},"geometry":{"type":"Point","coordinates":[8.576683,47.351635]}},{"type":"Feature","properties":{"name":"Zürich, Kinderspital"},"geometry":{"type":"Point","coordinates":[8.572317,47.352551]}},{"type":"Feature","properties":{"name":"Zollikon, Rotfluhstrasse"},"geometry":{"type":"Point","coordinates":[8.577036,47.343308]}},{"type":"Feature","properties":{"name":"Zollikon, Niederhofenrain"},"geometry":{"type":"Point","coordinates":[8.576753,47.347787]}},{"type":"Feature","properties":{"name":"Zürich, Balgrist Ost"},"geometry":{"type":"Point","coordinates":[8.575003,47.354794]}},{"type":"Feature","properties":{"name":"Zollikon, Bleulerstrasse"},"geometry":{"type":"Point","coordinates":[8.571671,47.3471]}},{"type":"Feature","properties":{"name":"Zürich, Arnikahof"},"geometry":{"type":"Point","coordinates":[8.530977,47.415604]}},{"type":"Feature","properties":{"name":"Uetliberg, Bahnhof"},"geometry":{"type":"Point","coordinates":[8.487705,47.352195]}},{"type":"Feature","properties":{"name":"Zürich, Grünauring"},"geometry":{"type":"Point","coordinates":[8.487912,47.396288]}},{"type":"Feature","properties":{"name":"Zürich, Reckenholz"},"geometry":{"type":"Point","coordinates":[8.515086,47.428392]}},{"type":"Feature","properties":{"name":"Zürich Wollishofen, Bahnhof"},"geometry":{"type":"Point","coordinates":[8.533306,47.348116]}},{"type":"Feature","properties":{"name":"Waldegg, Birmensdorferstrasse"},"geometry":{"type":"Point","coordinates":[8.463489,47.368292]}},{"type":"Feature","properties":{"name":"Zürich, Goldbrunnenplatz"},"geometry":{"type":"Point","coordinates":[8.513907,47.370294]}},{"type":"Feature","properties":{"name":"Zürich HB"},"geometry":{"type":"Point","coordinates":[8.53724,47.378646]}},{"type":"Feature","properties":{"name":"Zürich Altstetten"},"geometry":{"type":"Point","coordinates":[8.489163,47.391592]}},{"type":"Feature","properties":{"name":"Zürich Stadelhofen"},"geometry":{"type":"Point","coordinates":[8.548616,47.366674]}},{"type":"Feature","properties":{"name":"Zürich Tiefenbrunnen"},"geometry":{"type":"Point","coordinates":[8.561812,47.349858]}},{"type":"Feature","properties":{"name":"Zürich Oerlikon"},"geometry":{"type":"Point","coordinates":[8.544425,47.41191]}},{"type":"Feature","properties":{"name":"Zürich Seebach"},"geometry":{"type":"Point","coordinates":[8.544292,47.418657]}},{"type":"Feature","properties":{"name":"Zürich Affoltern"},"geometry":{"type":"Point","coordinates":[8.50893,47.420842]}},{"type":"Feature","properties":{"name":"Zürich Wollishofen"},"geometry":{"type":"Point","coordinates":[8.533702,47.347972]}},{"type":"Feature","properties":{"name":"Zürich Enge"},"geometry":{"type":"Point","coordinates":[8.53074,47.364041]}},{"type":"Feature","properties":{"name":"Zürich Wiedikon"},"geometry":{"type":"Point","coordinates":[8.522367,47.372225]}},{"type":"Feature","properties":{"name":"Zürich Wipkingen"},"geometry":{"type":"Point","coordinates":[8.529132,47.392303]}},{"type":"Feature","properties":{"name":"Zürich Hardbrücke"},"geometry":{"type":"Point","coordinates":[8.517208,47.385189]}},{"type":"Feature","properties":{"name":"Zürich, Rigiblick"},"geometry":{"type":"Point","coordinates":[8.553719,47.387437]}},{"type":"Feature","properties":{"name":"Zürich Binz"},"geometry":{"type":"Point","coordinates":[8.518297,47.362763]}},{"type":"Feature","properties":{"name":"Zürich Friesenberg"},"geometry":{"type":"Point","coordinates":[8.507504,47.364801]}},{"type":"Feature","properties":{"name":"Zürich Schweighof"},"geometry":{"type":"Point","coordinates":[8.503533,47.364944]}},{"type":"Feature","properties":{"name":"Zürich Triemli"},"geometry":{"type":"Point","coordinates":[8.495219,47.364984]}},{"type":"Feature","properties":{"name":"Uitikon Waldegg"},"geometry":{"type":"Point","coordinates":[8.465921,47.365924]}},{"type":"Feature","properties":{"name":"Ringlikon"},"geometry":{"type":"Point","coordinates":[8.477365,47.360285]}},{"type":"Feature","properties":{"name":"Uetliberg"},"geometry":{"type":"Point","coordinates":[8.487483,47.352015]}},{"type":"Feature","properties":{"name":"Zürich Stadelhofen, Bahnhof"},"geometry":{"type":"Point","coordinates":[8.547901,47.366204]}},{"type":"Feature","properties":{"name":"Zürich, Balgrist"},"geometry":{"type":"Point","coordinates":[8.575169,47.354378]}},{"type":"Feature","properties":{"name":"Zürich, Hegibachplatz"},"geometry":{"type":"Point","coordinates":[8.560738,47.36174]}},{"type":"Feature","properties":{"name":"Zürich, Kreuzplatz"},"geometry":{"type":"Point","coordinates":[8.554302,47.364998]}},{"type":"Feature","properties":{"name":"Zürich Limmatquai"},"geometry":{"type":"Point","coordinates":[8.542637,47.373018]}},{"type":"Feature","properties":{"name":"Zürich, Römerhof"},"geometry":{"type":"Point","coordinates":[8.560087,47.367963]}},{"type":"Feature","properties":{"name":"Zürich, Dolder"},"geometry":{"type":"Point","coordinates":[8.574527,47.3732]}},{"type":"Feature","properties":{"name":"Zürich Brunau"},"geometry":{"type":"Point","coordinates":[8.526237,47.35166]}},{"type":"Feature","properties":{"name":"Zürich Saalsporthalle"},"geometry":{"type":"Point","coordinates":[8.521973,47.357794]}},{"type":"Feature","properties":{"name":"Zürich Selnau"},"geometry":{"type":"Point","coordinates":[8.531725,47.372241]}},{"type":"Feature","properties":{"name":"Zürich Giesshübel"},"geometry":{"type":"Point","coordinates":[8.522016,47.362614]}},{"type":"Feature","properties":{"name":"Zürich Manegg"},"geometry":{"type":"Point","coordinates":[8.519703,47.337952]}},{"type":"Feature","properties":{"name":"Zürich Leimbach"},"geometry":{"type":"Point","coordinates":[8.518637,47.333041]}},{"type":"Feature","properties":{"name":"Sood-Oberleimbach"},"geometry":{"type":"Point","coordinates":[8.521518,47.319619]}},{"type":"Feature","properties":{"name":"Stettbach"},"geometry":{"type":"Point","coordinates":[8.596109,47.397137]}},{"type":"Feature","properties":{"name":"Glattbrugg"},"geometry":{"type":"Point","coordinates":[8.558444,47.431041]}},{"type":"Feature","properties":{"name":"Opfikon"},"geometry":{"type":"Point","coordinates":[8.5618,47.429935]}},{"type":"Feature","properties":{"name":"Zürich Landesmuseum (See)"},"geometry":{"type":"Point","coordinates":[8.541685,47.379064]}},{"type":"Feature","properties":{"name":"Zürich Storchen"},"geometry":{"type":"Point","coordinates":[8.54208,47.371089]}},{"type":"Feature","properties":{"name":"Zürich Central (Polybahn)"},"geometry":{"type":"Point","coordinates":[8.544038,47.37654]}},{"type":"Feature","properties":{"name":"Zürich Polyterrasse"},"geometry":{"type":"Point","coordinates":[8.546401,47.376856]}},{"type":"Feature","properties":{"name":"Zürich, Triemli"},"geometry":{"type":"Point","coordinates":[8.495402,47.368021]}},{"type":"Feature","properties":{"name":"Zürich Bürkliplatz (See)"},"geometry":{"type":"Point","coordinates":[8.541393,47.365612]}},{"type":"Feature","properties":{"name":"Zürichhorn (See)"},"geometry":{"type":"Point","coordinates":[8.553156,47.352222]}},{"type":"Feature","properties":{"name":"Zollikon (See)"},"geometry":{"type":"Point","coordinates":[8.567264,47.339045]}},{"type":"Feature","properties":{"name":"Zürich Wollishofen (See)"},"geometry":{"type":"Point","coordinates":[8.537081,47.345543]}},{"type":"Feature","properties":{"name":"Uitikon, Dorf"},"geometry":{"type":"Point","coordinates":[8.454151,47.370538]}},{"type":"Feature","properties":{"name":"Waldegg, Post"},"geometry":{"type":"Point","coordinates":[8.462168,47.368272]}},{"type":"Feature","properties":{"name":"Zürich Tiefenbrunnen (See)"},"geometry":{"type":"Point","coordinates":[8.560437,47.349828]}},{"type":"Feature","properties":{"name":"Zürich Bellevue (See)"},"geometry":{"type":"Point","coordinates":[8.544744,47.365413]}},{"type":"Feature","properties":{"name":"Zürich, Hertersteg"},"geometry":{"type":"Point","coordinates":[8.522986,47.367684]}},{"type":"Feature","properties":{"name":"Adliswil, Dietlimoos"},"geometry":{"type":"Point","coordinates":[8.532273,47.322471]}},{"type":"Feature","properties":{"name":"Adliswil, Sunnau"},"geometry":{"type":"Point","coordinates":[8.529549,47.326062]}},{"type":"Feature","properties":{"name":"Zollikerberg, Station/Q'treff"},"geometry":{"type":"Point","coordinates":[8.60427,47.346403]}},{"type":"Feature","properties":{"name":"Zürich Wiedikon, Bahnhof"},"geometry":{"type":"Point","coordinates":[8.523984,47.371484]}},{"type":"Feature","properties":{"name":"Zürich, Sädlenweg"},"geometry":{"type":"Point","coordinates":[8.487478,47.367766]}},{"type":"Feature","properties":{"name":"Uitikon, Halde"},"geometry":{"type":"Point","coordinates":[8.459169,47.369132]}},{"type":"Feature","properties":{"name":"Waldegg, Katholische Kirche"},"geometry":{"type":"Point","coordinates":[8.462456,47.364871]}},{"type":"Feature","properties":{"name":"Ringlikon, Gättern"},"geometry":{"type":"Point","coordinates":[8.465409,47.36161]}},{"type":"Feature","properties":{"name":"Uitikon Waldegg, Bahnhof"},"geometry":{"type":"Point","coordinates":[8.465032,47.366222]}},{"type":"Feature","properties":{"name":"Zürich Tiefenbrunnen, Bahnhof"},"geometry":{"type":"Point","coordinates":[8.561034,47.350419]}},{"type":"Feature","properties":{"name":"Zollikon, Bahnhof"},"geometry":{"type":"Point","coordinates":[8.569833,47.3377]}},{"type":"Feature","properties":{"name":"Zollikon, Schützenstrasse"},"geometry":{"type":"Point","coordinates":[8.58605,47.344966]}},{"type":"Feature","properties":{"name":"Zollikon, Rebwiesstrasse"},"geometry":{"type":"Point","coordinates":[8.589013,47.345736]}},{"type":"Feature","properties":{"name":"Zürich, Bellevue"},"geometry":{"type":"Point","coordinates":[8.545095,47.367077]}},{"type":"Feature","properties":{"name":"Zürich, Elektrowatt"},"geometry":{"type":"Point","coordinates":[8.550416,47.357386]}},{"type":"Feature","properties":{"name":"Zürich, Opernhaus"},"geometry":{"type":"Point","coordinates":[8.547634,47.365419]}},{"type":"Feature","properties":{"name":"Zürich, Kreuzstrasse"},"geometry":{"type":"Point","coordinates":[8.549785,47.363157]}},{"type":"Feature","properties":{"name":"Zürich, Feldeggstrasse"},"geometry":{"type":"Point","coordinates":[8.55211,47.360447]}},{"type":"Feature","properties":{"name":"Zürich, Höschgasse"},"geometry":{"type":"Point","coordinates":[8.554457,47.357969]}},{"type":"Feature","properties":{"name":"Zürich, Fröhlichstrasse"},"geometry":{"type":"Point","coordinates":[8.556889,47.355219]}},{"type":"Feature","properties":{"name":"Zürich, Wildbachstrasse"},"geometry":{"type":"Point","coordinates":[8.558834,47.353215]}},{"type":"Feature","properties":{"name":"Zollikon, Bahnübergang"},"geometry":{"type":"Point","coordinates":[8.565981,47.345918]}},{"type":"Feature","properties":{"name":"Zollikon, Felbenstrasse"},"geometry":{"type":"Point","coordinates":[8.568902,47.342704]}},{"type":"Feature","properties":{"name":"Zürich, Meierhofplatz"},"geometry":{"type":"Point","coordinates":[8.499606,47.402149]}},{"type":"Feature","properties":{"name":"Zürich, Heizenholz"},"geometry":{"type":"Point","coordinates":[8.483873,47.412285]}},{"type":"Feature","properties":{"name":"Zürich, Grünwald"},"geometry":{"type":"Point","coordinates":[8.483155,47.41735]}},{"type":"Feature","properties":{"name":"Regensdorf, Lettenhau"},"geometry":{"type":"Point","coordinates":[8.471958,47.425791]}},{"type":"Feature","properties":{"name":"Zürich, Zehntenhausplatz"},"geometry":{"type":"Point","coordinates":[8.506462,47.41922]}},{"type":"Feature","properties":{"name":"Zürich, Hungerbergstrasse"},"geometry":{"type":"Point","coordinates":[8.501419,47.421089]}},{"type":"Feature","properties":{"name":"Zürich Oerlikon, Bahnhof"},"geometry":{"type":"Point","coordinates":[8.544775,47.411475]}},{"type":"Feature","properties":{"name":"Zürich, Escher-Wyss-Platz"},"geometry":{"type":"Point","coordinates":[8.522652,47.390399]}},{"type":"Feature","properties":{"name":"Zürich, Schaufelbergerstrasse"},"geometry":{"type":"Point","coordinates":[8.50174,47.369043]}},{"type":"Feature","properties":{"name":"Waldegg, Leuen"},"geometry":{"type":"Point","coordinates":[8.459624,47.362766]}},{"type":"Feature","properties":{"name":"Zürich, Rote Fabrik"},"geometry":{"type":"Point","coordinates":[8.536057,47.3427]}},{"type":"Feature","properties":{"name":"Zürich, Bahnhofplatz/HB"},"geometry":{"type":"Point","coordinates":[8.539395,47.377182]}},{"type":"Feature","properties":{"name":"Zürich, Bahnhofquai/HB"},"geometry":{"type":"Point","coordinates":[8.541739,47.377562]}},{"type":"Feature","properties":{"name":"Wallisellen, Glatt (Bus)"},"geometry":{"type":"Point","coordinates":[8.595514,47.409216]}},{"type":"Feature","properties":{"name":"Zürich, Altried"},"geometry":{"type":"Point","coordinates":[8.591453,47.405513]}},{"type":"Feature","properties":{"name":"Zürich, Central"},"geometry":{"type":"Point","coordinates":[8.543792,47.376807]}},{"type":"Feature","properties":{"name":"Wallisellen, Steinacker"},"geometry":{"type":"Point","coordinates":[8.581977,47.418844]}},{"type":"Feature","properties":{"name":"Zürich, Farbhof"},"geometry":{"type":"Point","coordinates":[8.478948,47.390877]}},{"type":"Feature","properties":{"name":"Adliswil, Bodenacker"},"geometry":{"type":"Point","coordinates":[8.517747,47.316434]}},{"type":"Feature","properties":{"name":"Adliswil, Feldblumenstrasse"},"geometry":{"type":"Point","coordinates":[8.519081,47.314628]}},{"type":"Feature","properties":{"name":"Adliswil, Baldernstrasse"},"geometry":{"type":"Point","coordinates":[8.51558,47.320791]}},{"type":"Feature","properties":{"name":"Adliswil, Grüt"},"geometry":{"type":"Point","coordinates":[8.528949,47.322393]}},{"type":"Feature","properties":{"name":"Adliswil, Ahornweg"},"geometry":{"type":"Point","coordinates":[8.534301,47.318859]}},{"type":"Feature","properties":{"name":"Adliswil, Moos"},"geometry":{"type":"Point","coordinates":[8.531148,47.325136]}},{"type":"Feature","properties":{"name":"Adliswil, Zopf"},"geometry":{"type":"Point","coordinates":[8.516352,47.319166]}},{"type":"Feature","properties":{"name":"Binz bei Maur, Fridlimatt"},"geometry":{"type":"Point","coordinates":[8.62459,47.359279]}},{"type":"Feature","properties":{"name":"Dübendorf, Sport Heerenschürli"},"geometry":{"type":"Point","coordinates":[8.59564,47.404483]}},{"type":"Feature","properties":{"name":"Dübendorf, Hoffnung"},"geometry":{"type":"Point","coordinates":[8.599963,47.396007]}},{"type":"Feature","properties":{"name":"Dübendorf, Kämmaten"},"geometry":{"type":"Point","coordinates":[8.596644,47.389451]}},{"type":"Feature","properties":{"name":"Wallisellen, Neugut"},"geometry":{"type":"Point","coordinates":[8.604266,47.404824]}},{"type":"Feature","properties":{"name":"Dübendorf, Neugut Süd"},"geometry":{"type":"Point","coordinates":[8.601546,47.40279]}},{"type":"Feature","properties":{"name":"Dübendorf, Ringwiesen"},"geometry":{"type":"Point","coordinates":[8.604239,47.397529]}},{"type":"Feature","properties":{"name":"Dübendorf, Sonnental"},"geometry":{"type":"Point","coordinates":[8.603629,47.395447]}},{"type":"Feature","properties":{"name":"Glattbrugg, Bahnhof"},"geometry":{"type":"Point","coordinates":[8.559361,47.430558]}},{"type":"Feature","properties":{"name":"Glattbrugg, Frohbühlstrasse"},"geometry":{"type":"Point","coordinates":[8.557439,47.428146]}},{"type":"Feature","properties":{"name":"Glattbrugg, Giebeleichstrasse"},"geometry":{"type":"Point","coordinates":[8.564884,47.428367]}},{"type":"Feature","properties":{"name":"Glattpark, Lindberghplatz"},"geometry":{"type":"Point","coordinates":[8.560796,47.425429]}},{"type":"Feature","properties":{"name":"Glattbrugg, Oberhusen"},"geometry":{"type":"Point","coordinates":[8.57017,47.427097]}},{"type":"Feature","properties":{"name":"Glattbrugg, Post"},"geometry":{"type":"Point","coordinates":[8.561064,47.430464]}},{"type":"Feature","properties":{"name":"Opfikon, Zil"},"geometry":{"type":"Point","coordinates":[8.576911,47.422736]}},{"type":"Feature","properties":{"name":"Glattpark, Chavez-Allee"},"geometry":{"type":"Point","coordinates":[8.560823,47.422334]}},{"type":"Feature","properties":{"name":"Glattpark, Lindbergh-Allee"},"geometry":{"type":"Point","coordinates":[8.56262,47.424311]}},{"type":"Feature","properties":{"name":"Gockhausen, Ursprungstrasse"},"geometry":{"type":"Point","coordinates":[8.600048,47.38482]}},{"type":"Feature","properties":{"name":"Kilchberg ZH, Bächlerstrasse"},"geometry":{"type":"Point","coordinates":[8.539601,47.329033]}},{"type":"Feature","properties":{"name":"Kilchberg ZH, Hornhaldenstr."},"geometry":{"type":"Point","coordinates":[8.541939,47.331969]}},{"type":"Feature","properties":{"name":"Kilchberg ZH, Asp"},"geometry":{"type":"Point","coordinates":[8.535255,47.321685]}},{"type":"Feature","properties":{"name":"Kilchberg ZH, Paradiessteig"},"geometry":{"type":"Point","coordinates":[8.543147,47.329659]}},{"type":"Feature","properties":{"name":"Kilchberg ZH, Paradiesstrasse"},"geometry":{"type":"Point","coordinates":[8.547214,47.328741]}},{"type":"Feature","properties":{"name":"Kilchberg ZH, Sanatorium"},"geometry":{"type":"Point","coordinates":[8.544431,47.327146]}},{"type":"Feature","properties":{"name":"Kilchberg ZH, Weinbergstrasse"},"geometry":{"type":"Point","coordinates":[8.543293,47.332164]}},{"type":"Feature","properties":{"name":"Oberengstringen, Eggbühl"},"geometry":{"type":"Point","coordinates":[8.474098,47.405526]}},{"type":"Feature","properties":{"name":"Oberengstringen, Lanzrain"},"geometry":{"type":"Point","coordinates":[8.467798,47.407394]}},{"type":"Feature","properties":{"name":"Oberengstringen, Paradies"},"geometry":{"type":"Point","coordinates":[8.45882,47.410467]}},{"type":"Feature","properties":{"name":"Oberengstringen, Zentrum"},"geometry":{"type":"Point","coordinates":[8.462539,47.409158]}},{"type":"Feature","properties":{"name":"Opfikon, Austrasse"},"geometry":{"type":"Point","coordinates":[8.575208,47.425048]}},{"type":"Feature","properties":{"name":"Opfikon, Bahnhof"},"geometry":{"type":"Point","coordinates":[8.561642,47.429563]}},{"type":"Feature","properties":{"name":"Pfaffhausen, Feldhof"},"geometry":{"type":"Point","coordinates":[8.620087,47.364085]}},{"type":"Feature","properties":{"name":"Pfaffhausen, Sängglen"},"geometry":{"type":"Point","coordinates":[8.624739,47.366941]}},{"type":"Feature","properties":{"name":"Rümlang, Letten"},"geometry":{"type":"Point","coordinates":[8.534813,47.438638]}},{"type":"Feature","properties":{"name":"Schlieren, Bahnhof Nord"},"geometry":{"type":"Point","coordinates":[8.449053,47.401075]}},{"type":"Feature","properties":{"name":"Schlieren, Gasometerbrücke"},"geometry":{"type":"Point","coordinates":[8.460375,47.397662]}},{"type":"Feature","properties":{"name":"Schlieren, Industrie Gaswerk"},"geometry":{"type":"Point","coordinates":[8.462824,47.400996]}},{"type":"Feature","properties":{"name":"Schlieren, Mülligen"},"geometry":{"type":"Point","coordinates":[8.466942,47.395852]}},{"type":"Feature","properties":{"name":"Schlieren, Rütistrasse"},"geometry":{"type":"Point","coordinates":[8.453684,47.400796]}},{"type":"Feature","properties":{"name":"Wallisellen, Belair"},"geometry":{"type":"Point","coordinates":[8.585187,47.413896]}},{"type":"Feature","properties":{"name":"Wallisellen, Herti"},"geometry":{"type":"Point","coordinates":[8.57892,47.416538]}},{"type":"Feature","properties":{"name":"Zollikerberg, Hasenbart"},"geometry":{"type":"Point","coordinates":[8.597928,47.350171]}},{"type":"Feature","properties":{"name":"Zollikerberg, Sennhof"},"geometry":{"type":"Point","coordinates":[8.614933,47.348465]}},{"type":"Feature","properties":{"name":"Zollikerberg, Trichtenhauserm."},"geometry":{"type":"Point","coordinates":[8.601881,47.350595]}},{"type":"Feature","properties":{"name":"Zürich, Aargauerstrasse"},"geometry":{"type":"Point","coordinates":[8.502471,47.39217]}},{"type":"Feature","properties":{"name":"Zürich, Albisgütli"},"geometry":{"type":"Point","coordinates":[8.50771,47.351995]}},{"type":"Feature","properties":{"name":"Zürich, Albisrank"},"geometry":{"type":"Point","coordinates":[8.494669,47.379793]}},{"type":"Feature","properties":{"name":"Zürich, Albisrieden"},"geometry":{"type":"Point","coordinates":[8.484727,47.374475]}},{"type":"Feature","properties":{"name":"Zürich, Albisriederdörfli"},"geometry":{"type":"Point","coordinates":[8.485111,47.375351]}},{"type":"Feature","properties":{"name":"Zürich, Albisriederplatz"},"geometry":{"type":"Point","coordinates":[8.510105,47.378211]}},{"type":"Feature","properties":{"name":"Zürich, Alte Trotte"},"geometry":{"type":"Point","coordinates":[8.507632,47.397608]}},{"type":"Feature","properties":{"name":"Zürich, Altenhofstrasse"},"geometry":{"type":"Point","coordinates":[8.561439,47.355266]}},{"type":"Feature","properties":{"name":"Zürich, Althoos"},"geometry":{"type":"Point","coordinates":[8.524099,47.410662]}},{"type":"Feature","properties":{"name":"Zürich, Am Börtli"},"geometry":{"type":"Point","coordinates":[8.507195,47.399594]}},{"type":"Feature","properties":{"name":"Zürich, Am Suteracher"},"geometry":{"type":"Point","coordinates":[8.469772,47.390935]}},{"type":"Feature","properties":{"name":"Zürich, Appenzellerstrasse"},"geometry":{"type":"Point","coordinates":[8.509528,47.398903]}},{"type":"Feature","properties":{"name":"Zürich, Aspholz"},"geometry":{"type":"Point","coordinates":[8.501018,47.424982]}},{"type":"Feature","properties":{"name":"Zürich, Aubrücke"},"geometry":{"type":"Point","coordinates":[8.572129,47.41088]}},{"type":"Feature","properties":{"name":"Zürich, Ausserdorfstrasse"},"geometry":{"type":"Point","coordinates":[8.548566,47.424528]}},{"type":"Feature","properties":{"name":"Zürich, Auzelg"},"geometry":{"type":"Point","coordinates":[8.568786,47.416826]}},{"type":"Feature","properties":{"name":"Zürich, Auzelg Ost"},"geometry":{"type":"Point","coordinates":[8.572165,47.413342]}},{"type":"Feature","properties":{"name":"Zürich, Bachmattstrasse"},"geometry":{"type":"Point","coordinates":[8.482935,47.389017]}},{"type":"Feature","properties":{"name":"Zürich, Bäckeranlage"},"geometry":{"type":"Point","coordinates":[8.522991,47.378499]}},{"type":"Feature","properties":{"name":"Zürich, Bad Allenmoos"},"geometry":{"type":"Point","coordinates":[8.5378,47.406018]}},{"type":"Feature","properties":{"name":"Zürich Affoltern, Bahnhof"},"geometry":{"type":"Point","coordinates":[8.507414,47.421184]}},{"type":"Feature","properties":{"name":"Zürich Altstetten, Bahnhof"},"geometry":{"type":"Point","coordinates":[8.48898,47.390794]}},{"type":"Feature","properties":{"name":"Zürich Altstetten, Bahnhof N"},"geometry":{"type":"Point","coordinates":[8.489998,47.392147]}},{"type":"Feature","properties":{"name":"Zürich Enge, Bahnhof"},"geometry":{"type":"Point","coordinates":[8.531549,47.36407]}},{"type":"Feature","properties":{"name":"Zürich Enge, Bahnhof/Bederstr."},"geometry":{"type":"Point","coordinates":[8.530447,47.364574]}},{"type":"Feature","properties":{"name":"Zürich Hardbrücke, Bahnhof"},"geometry":{"type":"Point","coordinates":[8.517107,47.385202]}},{"type":"Feature","properties":{"name":"Zürich Leimbach, Bahnhof"},"geometry":{"type":"Point","coordinates":[8.518618,47.333284]}},{"type":"Feature","properties":{"name":"Zürich Oerlikon, Bahnhof Nord"},"geometry":{"type":"Point","coordinates":[8.543988,47.41239]}},{"type":"Feature","properties":{"name":"Zürich Oerlikon, Bahnhof Ost"},"geometry":{"type":"Point","coordinates":[8.545992,47.413399]}},{"type":"Feature","properties":{"name":"Zürich Selnau, Bahnhof"},"geometry":{"type":"Point","coordinates":[8.53183,47.370744]}},{"type":"Feature","properties":{"name":"Stettbach, Bahnhof"},"geometry":{"type":"Point","coordinates":[8.595826,47.396949]}},{"type":"Feature","properties":{"name":"Zürich Wipkingen, Bahnhof"},"geometry":{"type":"Point","coordinates":[8.529522,47.393442]}},{"type":"Feature","properties":{"name":"Zürich, Bahnhofstrasse/HB"},"geometry":{"type":"Point","coordinates":[8.53953,47.376305]}},{"type":"Feature","properties":{"name":"Zürich, Bändliweg"},"geometry":{"type":"Point","coordinates":[8.485026,47.396366]}},{"type":"Feature","properties":{"name":"Zürich, Bärenbohlstrasse"},"geometry":{"type":"Point","coordinates":[8.509705,47.425744]}},{"type":"Feature","properties":{"name":"Zürich, Baslerstrasse"},"geometry":{"type":"Point","coordinates":[8.49007,47.388709]}},{"type":"Feature","properties":{"name":"Zürich, Beckenhof"},"geometry":{"type":"Point","coordinates":[8.540382,47.384082]}},{"type":"Feature","properties":{"name":"Zürich, Berghaldenstrasse"},"geometry":{"type":"Point","coordinates":[8.590041,47.358596]}},{"type":"Feature","properties":{"name":"Zürich, Berninaplatz"},"geometry":{"type":"Point","coordinates":[8.547955,47.403688]}},{"type":"Feature","properties":{"name":"Zürich, Bernoulli-Häuser"},"geometry":{"type":"Point","coordinates":[8.508674,47.39381]}},{"type":"Feature","properties":{"name":"Zürich, Bertastrasse"},"geometry":{"type":"Point","coordinates":[8.513469,47.373888]}},{"type":"Feature","properties":{"name":"Zürich, Berufswahlschule"},"geometry":{"type":"Point","coordinates":[8.53333,47.404375]}},{"type":"Feature","properties":{"name":"Zürich, Besenrainstrasse"},"geometry":{"type":"Point","coordinates":[8.52786,47.345482]}},{"type":"Feature","properties":{"name":"Zürich, Bethanien"},"geometry":{"type":"Point","coordinates":[8.555995,47.380913]}},{"type":"Feature","properties":{"name":"Zürich, Bezirksgebäude"},"geometry":{"type":"Point","coordinates":[8.525571,47.374131]}},{"type":"Feature","properties":{"name":"Zürich Wollishofen, Bhf/Werft"},"geometry":{"type":"Point","coordinates":[8.534337,47.347797]}},{"type":"Feature","properties":{"name":"Zürich Wollishofen,Bhf/Staubst"},"geometry":{"type":"Point","coordinates":[8.532908,47.347048]}},{"type":"Feature","properties":{"name":"Zürich, Billoweg"},"geometry":{"type":"Point","coordinates":[8.531967,47.351564]}},{"type":"Feature","properties":{"name":"Zürich, Grubenstrasse"},"geometry":{"type":"Point","coordinates":[8.511672,47.362839]}},{"type":"Feature","properties":{"name":"Zürich, Binz Center"},"geometry":{"type":"Point","coordinates":[8.511052,47.361902]}},{"type":"Feature","properties":{"name":"Zürich, Birch-/Glatttalstrasse"},"geometry":{"type":"Point","coordinates":[8.546138,47.42741]}},{"type":"Feature","properties":{"name":"Zürich, Birchdörfli"},"geometry":{"type":"Point","coordinates":[8.530615,47.407544]}},{"type":"Feature","properties":{"name":"Zürich, Bircher-Benner"},"geometry":{"type":"Point","coordinates":[8.564843,47.375744]}},{"type":"Feature","properties":{"name":"Zürich, Birchstrasse"},"geometry":{"type":"Point","coordinates":[8.535839,47.413048]}},{"type":"Feature","properties":{"name":"Zürich, Bleulerstrasse"},"geometry":{"type":"Point","coordinates":[8.57159,47.347174]}},{"type":"Feature","properties":{"name":"Zürich, Blumenfeldstrasse"},"geometry":{"type":"Point","coordinates":[8.505242,47.42378]}},{"type":"Feature","properties":{"name":"Zürich, Bollingerweg"},"geometry":{"type":"Point","coordinates":[8.537916,47.414247]}},{"type":"Feature","properties":{"name":"Zürich, Kantonalbank"},"geometry":{"type":"Point","coordinates":[8.539789,47.368188]}},{"type":"Feature","properties":{"name":"Zürich, Botanischer Garten"},"geometry":{"type":"Point","coordinates":[8.557836,47.359285]}},{"type":"Feature","properties":{"name":"Zürich, Bristenstrasse"},"geometry":{"type":"Point","coordinates":[8.487043,47.390072]}},{"type":"Feature","properties":{"name":"Zürich, Brunau/Mutschellenstr."},"geometry":{"type":"Point","coordinates":[8.527141,47.355147]}},{"type":"Feature","properties":{"name":"Zürich, Brunaustrasse"},"geometry":{"type":"Point","coordinates":[8.532217,47.356133]}},{"type":"Feature","properties":{"name":"Zürich, Bucheggplatz"},"geometry":{"type":"Point","coordinates":[8.533288,47.398314]}},{"type":"Feature","properties":{"name":"Zürich, Buchholz"},"geometry":{"type":"Point","coordinates":[8.588703,47.360928]}},{"type":"Feature","properties":{"name":"Zürich, Buhnstrasse"},"geometry":{"type":"Point","coordinates":[8.538801,47.422364]}},{"type":"Feature","properties":{"name":"Zürich, Burgwies"},"geometry":{"type":"Point","coordinates":[8.571799,47.358045]}},{"type":"Feature","properties":{"name":"Zürich, Bürkliplatz"},"geometry":{"type":"Point","coordinates":[8.541076,47.366546]}},{"type":"Feature","properties":{"name":"Zürich, Butzenstrasse"},"geometry":{"type":"Point","coordinates":[8.5301,47.341258]}},{"type":"Feature","properties":{"name":"Zürich, Zentrum Witikon"},"geometry":{"type":"Point","coordinates":[8.586592,47.358324]}},{"type":"Feature","properties":{"name":"Zürich, Chaletweg"},"geometry":{"type":"Point","coordinates":[8.531208,47.413374]}},{"type":"Feature","properties":{"name":"Zürich, Chinagarten"},"geometry":{"type":"Point","coordinates":[8.55295,47.354514]}},{"type":"Feature","properties":{"name":"Zürich, Löwenbräu"},"geometry":{"type":"Point","coordinates":[8.526065,47.38841]}},{"type":"Feature","properties":{"name":"Zürich, Dangelstrasse"},"geometry":{"type":"Point","coordinates":[8.529975,47.334683]}},{"type":"Feature","properties":{"name":"Zürich, Dorflinde"},"geometry":{"type":"Point","coordinates":[8.549219,47.407386]}},{"type":"Feature","properties":{"name":"Zürich, Dreispitz"},"geometry":{"type":"Point","coordinates":[8.567484,47.410774]}},{"type":"Feature","properties":{"name":"Zürich, Dreiwiesen"},"geometry":{"type":"Point","coordinates":[8.575639,47.378818]}},{"type":"Feature","properties":{"name":"Zürich, Drusbergstrasse"},"geometry":{"type":"Point","coordinates":[8.578837,47.360379]}},{"type":"Feature","properties":{"name":"Zürich, Dunkelhölzli"},"geometry":{"type":"Point","coordinates":[8.470172,47.388795]}},{"type":"Feature","properties":{"name":"Zürich, Einfangstrasse"},"geometry":{"type":"Point","coordinates":[8.512954,47.415718]}},{"type":"Feature","properties":{"name":"Zürich, Englischviertelstrasse"},"geometry":{"type":"Point","coordinates":[8.557863,47.366604]}},{"type":"Feature","properties":{"name":"Zürich, EPI-Klinik"},"geometry":{"type":"Point","coordinates":[8.570721,47.34869]}},{"type":"Feature","properties":{"name":"Zürich, Eschergutweg"},"geometry":{"type":"Point","coordinates":[8.512516,47.396319]}},{"type":"Feature","properties":{"name":"Zürich, ETH Hönggerberg"},"geometry":{"type":"Point","coordinates":[8.507754,47.408708]}},{"type":"Feature","properties":{"name":"Zürich, ETH/Universitätsspital"},"geometry":{"type":"Point","coordinates":[8.548225,47.377288]}},{"type":"Feature","properties":{"name":"Zürich, Ettenfeld"},"geometry":{"type":"Point","coordinates":[8.553693,47.425469]}},{"type":"Feature","properties":{"name":"Zürich, Fellenbergstrasse"},"geometry":{"type":"Point","coordinates":[8.488066,47.375733]}},{"type":"Feature","properties":{"name":"Zürich, Felsenrainstrasse"},"geometry":{"type":"Point","coordinates":[8.54531,47.416731]}},{"type":"Feature","properties":{"name":"Zürich, Fernsehstudio"},"geometry":{"type":"Point","coordinates":[8.561695,47.418164]}},{"type":"Feature","properties":{"name":"Zürich, Feusisbergli"},"geometry":{"type":"Point","coordinates":[8.471003,47.392652]}},{"type":"Feature","properties":{"name":"Zürich, Fischerweg"},"geometry":{"type":"Point","coordinates":[8.512236,47.393594]}},{"type":"Feature","properties":{"name":"Zürich, Flobotstrasse"},"geometry":{"type":"Point","coordinates":[8.56735,47.380666]}},{"type":"Feature","properties":{"name":"Zürich, Flühgasse"},"geometry":{"type":"Point","coordinates":[8.569425,47.350519]}},{"type":"Feature","properties":{"name":"Zürich, Flurstrasse"},"geometry":{"type":"Point","coordinates":[8.49199,47.381545]}},{"type":"Feature","properties":{"name":"Zürich, Förrlibuckstrasse"},"geometry":{"type":"Point","coordinates":[8.517194,47.39226]}},{"type":"Feature","properties":{"name":"Zürich, Frankental"},"geometry":{"type":"Point","coordinates":[8.481662,47.405471]}},{"type":"Feature","properties":{"name":"Zürich, Freiestrasse"},"geometry":{"type":"Point","coordinates":[8.562887,47.36284]}},{"type":"Feature","properties":{"name":"Zürich, Freihofstrasse"},"geometry":{"type":"Point","coordinates":[8.4995,47.38319]}},{"type":"Feature","properties":{"name":"Zürich, Friedackerstrasse"},"geometry":{"type":"Point","coordinates":[8.553349,47.40591]}},{"type":"Feature","properties":{"name":"Zürich, Friedhof Eichbühl"},"geometry":{"type":"Point","coordinates":[8.474536,47.382878]}},{"type":"Feature","properties":{"name":"Zürich, Friedhof Enzenbühl"},"geometry":{"type":"Point","coordinates":[8.580301,47.351003]}},{"type":"Feature","properties":{"name":"Zürich, Friedhof Hönggerberg"},"geometry":{"type":"Point","coordinates":[8.494272,47.408678]}},{"type":"Feature","properties":{"name":"Zürich, Friedhof Schwandenholz"},"geometry":{"type":"Point","coordinates":[8.537502,47.421224]}},{"type":"Feature","properties":{"name":"Zürich, Friedhof Sihlfeld"},"geometry":{"type":"Point","coordinates":[8.510922,47.375927]}},{"type":"Feature","properties":{"name":"Zürich, Friedhof Uetliberg"},"geometry":{"type":"Point","coordinates":[8.500605,47.358707]}},{"type":"Feature","properties":{"name":"Zürich, Friedhof Witikon"},"geometry":{"type":"Point","coordinates":[8.602723,47.361362]}},{"type":"Feature","properties":{"name":"Zürich, Friedrichstrasse"},"geometry":{"type":"Point","coordinates":[8.568794,47.403922]}},{"type":"Feature","properties":{"name":"Zürich, Friesenberg"},"geometry":{"type":"Point","coordinates":[8.508034,47.364389]}},{"type":"Feature","properties":{"name":"Zürich, Friesenberghalde"},"geometry":{"type":"Point","coordinates":[8.502381,47.361103]}},{"type":"Feature","properties":{"name":"Zürich, Friesenbergstrasse"},"geometry":{"type":"Point","coordinates":[8.50504,47.362112]}},{"type":"Feature","properties":{"name":"Zürich, Frohburg"},"geometry":{"type":"Point","coordinates":[8.562526,47.404197]}},{"type":"Feature","properties":{"name":"Zürich, Fronwald"},"geometry":{"type":"Point","coordinates":[8.509941,47.421972]}},{"type":"Feature","properties":{"name":"Zürich, Frymannstrasse"},"geometry":{"type":"Point","coordinates":[8.51909,47.335182]}},{"type":"Feature","properties":{"name":"Zürich, Geeringstrasse"},"geometry":{"type":"Point","coordinates":[8.480615,47.41433]}},{"type":"Feature","properties":{"name":"Zürich, Germaniastrasse"},"geometry":{"type":"Point","coordinates":[8.552406,47.387236]}},{"type":"Feature","properties":{"name":"Zürich, Giblenstrasse"},"geometry":{"type":"Point","coordinates":[8.48603,47.410639]}},{"type":"Feature","properties":{"name":"Zürich, Glattwiesen"},"geometry":{"type":"Point","coordinates":[8.581731,47.401577]}},{"type":"Feature","properties":{"name":"Zürich, Glaubtenstrasse"},"geometry":{"type":"Point","coordinates":[8.519112,47.414259]}},{"type":"Feature","properties":{"name":"Zürich, Glaubtenstrasse Süd"},"geometry":{"type":"Point","coordinates":[8.518688,47.413659]}},{"type":"Feature","properties":{"name":"Zürich, Glockenacker"},"geometry":{"type":"Point","coordinates":[8.599092,47.360951]}},{"type":"Feature","properties":{"name":"Zürich, Goldackerweg"},"geometry":{"type":"Point","coordinates":[8.487712,47.371989]}},{"type":"Feature","properties":{"name":"Zürich, Goldauerstrasse"},"geometry":{"type":"Point","coordinates":[8.550077,47.386128]}},{"type":"Feature","properties":{"name":"Zürich, Grimselstrasse"},"geometry":{"type":"Point","coordinates":[8.490054,47.386976]}},{"type":"Feature","properties":{"name":"Zürich, Grünaustrasse"},"geometry":{"type":"Point","coordinates":[8.489617,47.395124]}},{"type":"Feature","properties":{"name":"Zürich, Guggachstrasse"},"geometry":{"type":"Point","coordinates":[8.540171,47.39574]}},{"type":"Feature","properties":{"name":"Zürich, Güterbahnhof"},"geometry":{"type":"Point","coordinates":[8.519779,47.380393]}},{"type":"Feature","properties":{"name":"Zürich, Gutstrasse"},"geometry":{"type":"Point","coordinates":[8.506637,47.371728]}},{"type":"Feature","properties":{"name":"Zürich, Hadlaubstrasse"},"geometry":{"type":"Point","coordinates":[8.551291,47.386823]}},{"type":"Feature","properties":{"name":"Zürich, Hagenholz"},"geometry":{"type":"Point","coordinates":[8.555341,47.414438]}},{"type":"Feature","properties":{"name":"Zürich, Haldenbach"},"geometry":{"type":"Point","coordinates":[8.548251,47.38027]}},{"type":"Feature","properties":{"name":"Zürich, Haldenegg"},"geometry":{"type":"Point","coordinates":[8.544444,47.379754]}},{"type":"Feature","properties":{"name":"Zürich, Hallenbad Oerlikon"},"geometry":{"type":"Point","coordinates":[8.555869,47.41073]}},{"type":"Feature","properties":{"name":"Zürich, Hardhof"},"geometry":{"type":"Point","coordinates":[8.497488,47.396352]}},{"type":"Feature","properties":{"name":"Zürich, Hardplatz"},"geometry":{"type":"Point","coordinates":[8.514792,47.382505]}},{"type":"Feature","properties":{"name":"Zürich, Hardturm"},"geometry":{"type":"Point","coordinates":[8.504557,47.39419]}},{"type":"Feature","properties":{"name":"Zürich, Hedwigsteig"},"geometry":{"type":"Point","coordinates":[8.565027,47.360383]}},{"type":"Feature","properties":{"name":"Zürich, Heerenwiesen"},"geometry":{"type":"Point","coordinates":[8.576375,47.404803]}},{"type":"Feature","properties":{"name":"Zürich, Hegianwandweg"},"geometry":{"type":"Point","coordinates":[8.510003,47.356652]}},{"type":"Feature","properties":{"name":"Zürich, Helmhaus"},"geometry":{"type":"Point","coordinates":[8.543378,47.369921]}},{"type":"Feature","properties":{"name":"Zürich, Helvetiaplatz"},"geometry":{"type":"Point","coordinates":[8.525584,47.376293]}},{"type":"Feature","properties":{"name":"Zürich, Herbstweg"},"geometry":{"type":"Point","coordinates":[8.564798,47.408838]}},{"type":"Feature","properties":{"name":"Zürich, Herdernstrasse"},"geometry":{"type":"Point","coordinates":[8.508465,47.384904]}},{"type":"Feature","properties":{"name":"Zürich, Hertensteinstrasse"},"geometry":{"type":"Point","coordinates":[8.543569,47.422852]}},{"type":"Feature","properties":{"name":"Zürich, Herzogenmühlestrasse"},"geometry":{"type":"Point","coordinates":[8.57271,47.40743]}},{"type":"Feature","properties":{"name":"Zürich, Heubeeriweg"},"geometry":{"type":"Point","coordinates":[8.564601,47.381668]}},{"type":"Feature","properties":{"name":"Zürich, Heuried"},"geometry":{"type":"Point","coordinates":[8.50639,47.369428]}},{"type":"Feature","properties":{"name":"Zürich, Himmeri"},"geometry":{"type":"Point","coordinates":[8.538633,47.419935]}},{"type":"Feature","properties":{"name":"Zürich, Hinterbergstrasse"},"geometry":{"type":"Point","coordinates":[8.554576,47.380104]}},{"type":"Feature","properties":{"name":"Zürich, Hirschwiesenstrasse"},"geometry":{"type":"Point","coordinates":[8.543504,47.400265]}},{"type":"Feature","properties":{"name":"Zürich, Hirzenbach"},"geometry":{"type":"Point","coordinates":[8.591164,47.40325]}},{"type":"Feature","properties":{"name":"Zürich, Höfliweg"},"geometry":{"type":"Point","coordinates":[8.510969,47.367612]}},{"type":"Feature","properties":{"name":"Zürich, Hofstrasse"},"geometry":{"type":"Point","coordinates":[8.561845,47.37322]}},{"type":"Feature","properties":{"name":"Zürich, Hohenklingensteig"},"geometry":{"type":"Point","coordinates":[8.490427,47.401285]}},{"type":"Feature","properties":{"name":"Zürich, Hölderlinsteig"},"geometry":{"type":"Point","coordinates":[8.564956,47.366967]}},{"type":"Feature","properties":{"name":"Zürich, Hölderlinstrasse"},"geometry":{"type":"Point","coordinates":[8.562368,47.366134]}},{"type":"Feature","properties":{"name":"Zürich, Holzerhurd"},"geometry":{"type":"Point","coordinates":[8.496616,47.423803]}},{"type":"Feature","properties":{"name":"Zürich, Hönggerberg"},"geometry":{"type":"Point","coordinates":[8.50487,47.404957]}},{"type":"Feature","properties":{"name":"Zürich, Hottingerplatz"},"geometry":{"type":"Point","coordinates":[8.554661,47.369395]}},{"type":"Feature","properties":{"name":"Zürich, Hubertus"},"geometry":{"type":"Point","coordinates":[8.499171,47.377265]}},{"type":"Feature","properties":{"name":"Zürich, Hügelstrasse"},"geometry":{"type":"Point","coordinates":[8.526997,47.358543]}},{"type":"Feature","properties":{"name":"Zürich, Hürstholz"},"geometry":{"type":"Point","coordinates":[8.522886,47.41688]}},{"type":"Feature","properties":{"name":"Zürich, Im Ebnet"},"geometry":{"type":"Point","coordinates":[8.54374,47.431524]}},{"type":"Feature","properties":{"name":"Zürich, Im Gut"},"geometry":{"type":"Point","coordinates":[8.503282,47.373662]}},{"type":"Feature","properties":{"name":"Zürich, Im Hagacker"},"geometry":{"type":"Point","coordinates":[8.507562,47.359417]}},{"type":"Feature","properties":{"name":"Zürich, Im Hüsli"},"geometry":{"type":"Point","coordinates":[8.512734,47.328252]}},{"type":"Feature","properties":{"name":"Zürich, Im Klösterli"},"geometry":{"type":"Point","coordinates":[8.576935,47.38463]}},{"type":"Feature","properties":{"name":"Zürich, Im Walder"},"geometry":{"type":"Point","coordinates":[8.574425,47.348024]}},{"type":"Feature","properties":{"name":"Zürich, Im Wingert"},"geometry":{"type":"Point","coordinates":[8.508872,47.401367]}},{"type":"Feature","properties":{"name":"Zürich, In der Ey"},"geometry":{"type":"Point","coordinates":[8.491536,47.369444]}},{"type":"Feature","properties":{"name":"Zürich, Juchhof"},"geometry":{"type":"Point","coordinates":[8.473175,47.39833]}},{"type":"Feature","properties":{"name":"Zürich, Jugendherberge"},"geometry":{"type":"Point","coordinates":[8.52821,47.348002]}},{"type":"Feature","properties":{"name":"Zürich, Kalchbühlweg"},"geometry":{"type":"Point","coordinates":[8.531514,47.340526]}},{"type":"Feature","properties":{"name":"Zürich,Kalkbreite/Bhf.Wiedikon"},"geometry":{"type":"Point","coordinates":[8.521006,47.374479]}},{"type":"Feature","properties":{"name":"Zürich, Kanonengasse"},"geometry":{"type":"Point","coordinates":[8.530227,47.378445]}},{"type":"Feature","properties":{"name":"Zürich, Kantonsschule"},"geometry":{"type":"Point","coordinates":[8.550488,47.372663]}},{"type":"Feature","properties":{"name":"Zürich, Kapfstrasse"},"geometry":{"type":"Point","coordinates":[8.571145,47.361126]}},{"type":"Feature","properties":{"name":"Zürich, Kappeli"},"geometry":{"type":"Point","coordinates":[8.494938,47.384767]}},{"type":"Feature","properties":{"name":"Zürich, Kappenbühlweg"},"geometry":{"type":"Point","coordinates":[8.49826,47.402971]}},{"type":"Feature","properties":{"name":"Zürich, Käshaldenstrasse"},"geometry":{"type":"Point","coordinates":[8.540959,47.429987]}},{"type":"Feature","properties":{"name":"Zürich, Genossenschaftsstrasse"},"geometry":{"type":"Point","coordinates":[8.562386,47.415225]}},{"type":"Feature","properties":{"name":"Zürich, Kempfhofsteig"},"geometry":{"type":"Point","coordinates":[8.509927,47.397386]}},{"type":"Feature","properties":{"name":"Zürich, Kernstrasse"},"geometry":{"type":"Point","coordinates":[8.524332,47.374566]}},{"type":"Feature","properties":{"name":"Zürich, Kienastenwies"},"geometry":{"type":"Point","coordinates":[8.601162,47.355153]}},{"type":"Feature","properties":{"name":"Zürich, Kinkelstrasse"},"geometry":{"type":"Point","coordinates":[8.546349,47.388896]}},{"type":"Feature","properties":{"name":"Zürich, Kirche Fluntern"},"geometry":{"type":"Point","coordinates":[8.559457,47.376427]}},{"type":"Feature","properties":{"name":"Zürich, Klosbach"},"geometry":{"type":"Point","coordinates":[8.564026,47.369991]}},{"type":"Feature","properties":{"name":"Zürich, Klusplatz"},"geometry":{"type":"Point","coordinates":[8.566288,47.364103]}},{"type":"Feature","properties":{"name":"Zürich, Köschenrüti"},"geometry":{"type":"Point","coordinates":[8.537097,47.429042]}},{"type":"Feature","properties":{"name":"Zürich, Krematorium Nordheim"},"geometry":{"type":"Point","coordinates":[8.528165,47.405393]}},{"type":"Feature","properties":{"name":"Zürich, Altes Krematorium"},"geometry":{"type":"Point","coordinates":[8.507623,47.37776]}},{"type":"Feature","properties":{"name":"Zürich, Kronenstrasse"},"geometry":{"type":"Point","coordinates":[8.53925,47.388183]}},{"type":"Feature","properties":{"name":"Zürich, Krönleinstrasse"},"geometry":{"type":"Point","coordinates":[8.5611,47.384113]}},{"type":"Feature","properties":{"name":"Zürich, Kunsthaus"},"geometry":{"type":"Point","coordinates":[8.549145,47.370428]}},{"type":"Feature","properties":{"name":"Zürich, Lägernstrasse"},"geometry":{"type":"Point","coordinates":[8.532181,47.395928]}},{"type":"Feature","properties":{"name":"Zürich, Landiwiese"},"geometry":{"type":"Point","coordinates":[8.534256,47.350742]}},{"type":"Feature","properties":{"name":"Zürich, Langensteinenstrasse"},"geometry":{"type":"Point","coordinates":[8.549737,47.392494]}},{"type":"Feature","properties":{"name":"Zürich, Langgrütstrasse"},"geometry":{"type":"Point","coordinates":[8.500654,47.373772]}},{"type":"Feature","properties":{"name":"Zürich, Langmauerstrasse"},"geometry":{"type":"Point","coordinates":[8.544907,47.393588]}},{"type":"Feature","properties":{"name":"Zürich, Laubegg"},"geometry":{"type":"Point","coordinates":[8.517287,47.358712]}},{"type":"Feature","properties":{"name":"Zürich, Laubiweg"},"geometry":{"type":"Point","coordinates":[8.536347,47.394982]}},{"type":"Feature","properties":{"name":"Zürich, Lehenstrasse"},"geometry":{"type":"Point","coordinates":[8.520785,47.396141]}},{"type":"Feature","properties":{"name":"Zürich, Leimgrübelstrasse"},"geometry":{"type":"Point","coordinates":[8.543679,47.428652]}},{"type":"Feature","properties":{"name":"Zürich, Lerchenhalde"},"geometry":{"type":"Point","coordinates":[8.509875,47.411634]}},{"type":"Feature","properties":{"name":"Zürich, Lerchenrain"},"geometry":{"type":"Point","coordinates":[8.50948,47.414317]}},{"type":"Feature","properties":{"name":"Zürich, Lettenstrasse"},"geometry":{"type":"Point","coordinates":[8.532738,47.390572]}},{"type":"Feature","properties":{"name":"Zürich, Letzigrund"},"geometry":{"type":"Point","coordinates":[8.50367,47.381237]}},{"type":"Feature","properties":{"name":"Zürich, Letzipark"},"geometry":{"type":"Point","coordinates":[8.499507,47.387704]}},{"type":"Feature","properties":{"name":"Zürich, Letzipark West"},"geometry":{"type":"Point","coordinates":[8.496464,47.386363]}},{"type":"Feature","properties":{"name":"Zürich, Letzistrasse"},"geometry":{"type":"Point","coordinates":[8.545482,47.390687]}},{"type":"Feature","properties":{"name":"Zürich, Leutschenbach"},"geometry":{"type":"Point","coordinates":[8.551412,47.414539]}},{"type":"Feature","properties":{"name":"Zürich, Limmatplatz"},"geometry":{"type":"Point","coordinates":[8.53174,47.384686]}},{"type":"Feature","properties":{"name":"Zürich, Lindenplatz"},"geometry":{"type":"Point","coordinates":[8.486097,47.387838]}},{"type":"Feature","properties":{"name":"Zürich, Lochergut"},"geometry":{"type":"Point","coordinates":[8.517491,47.375443]}},{"type":"Feature","properties":{"name":"Zürich, Loogarten"},"geometry":{"type":"Point","coordinates":[8.472337,47.389448]}},{"type":"Feature","properties":{"name":"Zürich, Loorenstrasse"},"geometry":{"type":"Point","coordinates":[8.594524,47.359863]}},{"type":"Feature","properties":{"name":"Zürich, Löwenplatz"},"geometry":{"type":"Point","coordinates":[8.537368,47.375927]}},{"type":"Feature","properties":{"name":"Zürich, Luchswiesen"},"geometry":{"type":"Point","coordinates":[8.58555,47.40666]}},{"type":"Feature","properties":{"name":"Zürich, Luegisland"},"geometry":{"type":"Point","coordinates":[8.581305,47.406018]}},{"type":"Feature","properties":{"name":"Zürich, Letzibach"},"geometry":{"type":"Point","coordinates":[8.494903,47.38905]}},{"type":"Feature","properties":{"name":"Zürich, Maienweg"},"geometry":{"type":"Point","coordinates":[8.526455,47.407693]}},{"type":"Feature","properties":{"name":"Zürich, Maillartstrasse"},"geometry":{"type":"Point","coordinates":[8.5321,47.416206]}},{"type":"Feature","properties":{"name":"Zürich, Manegg"},"geometry":{"type":"Point","coordinates":[8.52035,47.336966]}},{"type":"Feature","properties":{"name":"Zürich, Manesseplatz"},"geometry":{"type":"Point","coordinates":[8.521565,47.365399]}},{"type":"Feature","properties":{"name":"Zürich, Marbachweg"},"geometry":{"type":"Point","coordinates":[8.51542,47.330385]}},{"type":"Feature","properties":{"name":"Zürich, Mattenhof"},"geometry":{"type":"Point","coordinates":[8.590869,47.398671]}},{"type":"Feature","properties":{"name":"Zürich, Max-Bill-Platz"},"geometry":{"type":"Point","coordinates":[8.541334,47.414048]}},{"type":"Feature","properties":{"name":"Zürich, Messe/Hallenstadion"},"geometry":{"type":"Point","coordinates":[8.550909,47.410901]}},{"type":"Feature","properties":{"name":"Zürich, Micafil"},"geometry":{"type":"Point","coordinates":[8.474549,47.393024]}},{"type":"Feature","properties":{"name":"Zürich, Michelstrasse"},"geometry":{"type":"Point","coordinates":[8.495535,47.406416]}},{"type":"Feature","properties":{"name":"Zürich, Milchbuck"},"geometry":{"type":"Point","coordinates":[8.541743,47.397749]}},{"type":"Feature","properties":{"name":"Zürich, Militär-/Langstrasse"},"geometry":{"type":"Point","coordinates":[8.527569,47.379643]}},{"type":"Feature","properties":{"name":"Zürich, Mittelleimbach"},"geometry":{"type":"Point","coordinates":[8.514293,47.323148]}},{"type":"Feature","properties":{"name":"Zürich, Morgental"},"geometry":{"type":"Point","coordinates":[8.530207,47.343686]}},{"type":"Feature","properties":{"name":"Zürich, Mötteliweg"},"geometry":{"type":"Point","coordinates":[8.526422,47.413973]}},{"type":"Feature","properties":{"name":"Zürich, Mühlacker"},"geometry":{"type":"Point","coordinates":[8.496304,47.426123]}},{"type":"Feature","properties":{"name":"Zürich, Museum für Gestaltung"},"geometry":{"type":"Point","coordinates":[8.534918,47.38216]}},{"type":"Feature","properties":{"name":"Zürich, Museum Rietberg"},"geometry":{"type":"Point","coordinates":[8.53157,47.360717]}},{"type":"Feature","properties":{"name":"Zürich, Neeserweg"},"geometry":{"type":"Point","coordinates":[8.474724,47.390601]}},{"type":"Feature","properties":{"name":"Zürich, Neuaffoltern"},"geometry":{"type":"Point","coordinates":[8.52503,47.411847]}},{"type":"Feature","properties":{"name":"Zürich, Neubühl"},"geometry":{"type":"Point","coordinates":[8.534788,47.333016]}},{"type":"Feature","properties":{"name":"Zürich, Neumarkt"},"geometry":{"type":"Point","coordinates":[8.547355,47.372797]}},{"type":"Feature","properties":{"name":"Zürich, Neunbrunnen"},"geometry":{"type":"Point","coordinates":[8.538226,47.416633]}},{"type":"Feature","properties":{"name":"Zürich, Nordheimstrasse"},"geometry":{"type":"Point","coordinates":[8.53051,47.403563]}},{"type":"Feature","properties":{"name":"Zürich, Nordstrasse"},"geometry":{"type":"Point","coordinates":[8.536189,47.388291]}},{"type":"Feature","properties":{"name":"Zürich, Nürenbergstrasse"},"geometry":{"type":"Point","coordinates":[8.533211,47.392325]}},{"type":"Feature","properties":{"name":"Zürich, Oberwiesenstrasse"},"geometry":{"type":"Point","coordinates":[8.532944,47.41045]}},{"type":"Feature","properties":{"name":"Zürich, Oerlikerhus"},"geometry":{"type":"Point","coordinates":[8.554057,47.417613]}},{"type":"Feature","properties":{"name":"Zürich, Okenstrasse"},"geometry":{"type":"Point","coordinates":[8.534139,47.388011]}},{"type":"Feature","properties":{"name":"Zürich, Orionstrasse"},"geometry":{"type":"Point","coordinates":[8.566312,47.41676]}},{"type":"Feature","properties":{"name":"Zürich, Ottikerstrasse"},"geometry":{"type":"Point","coordinates":[8.542381,47.385348]}},{"type":"Feature","properties":{"name":"Zürich, Paradeplatz"},"geometry":{"type":"Point","coordinates":[8.539019,47.369743]}},{"type":"Feature","properties":{"name":"Zürich, Stodolastrasse"},"geometry":{"type":"Point","coordinates":[8.590664,47.356851]}},{"type":"Feature","properties":{"name":"Zürich, Käferberg"},"geometry":{"type":"Point","coordinates":[8.517819,47.399692]}},{"type":"Feature","properties":{"name":"Zürich, Platte"},"geometry":{"type":"Point","coordinates":[8.552635,47.375021]}},{"type":"Feature","properties":{"name":"Zürich, Renggerstrasse"},"geometry":{"type":"Point","coordinates":[8.533083,47.34461]}},{"type":"Feature","properties":{"name":"Zürich, Probstei"},"geometry":{"type":"Point","coordinates":[8.586398,47.400234]}},{"type":"Feature","properties":{"name":"Zürich, Quellenstrasse"},"geometry":{"type":"Point","coordinates":[8.528749,47.386753]}},{"type":"Feature","properties":{"name":"Zürich, Brunnenhof"},"geometry":{"type":"Point","coordinates":[8.535163,47.402066]}},{"type":"Feature","properties":{"name":"Zürich, Räffelstrasse"},"geometry":{"type":"Point","coordinates":[8.514825,47.362828]}},{"type":"Feature","properties":{"name":"Zürich, Rathaus"},"geometry":{"type":"Point","coordinates":[8.542841,47.371891]}},{"type":"Feature","properties":{"name":"Zürich, Rautihalde"},"geometry":{"type":"Point","coordinates":[8.473893,47.386392]}},{"type":"Feature","properties":{"name":"Zürich, Rautistrasse"},"geometry":{"type":"Point","coordinates":[8.484094,47.383347]}},{"type":"Feature","properties":{"name":"Zürich, Rebbergsteig"},"geometry":{"type":"Point","coordinates":[8.514854,47.396968]}},{"type":"Feature","properties":{"name":"Zürich, Regensbergbrücke"},"geometry":{"type":"Point","coordinates":[8.539199,47.408869]}},{"type":"Feature","properties":{"name":"Zürich, Rehalp"},"geometry":{"type":"Point","coordinates":[8.583095,47.350988]}},{"type":"Feature","properties":{"name":"Zürich, Rennweg"},"geometry":{"type":"Point","coordinates":[8.538361,47.373083]}},{"type":"Feature","properties":{"name":"Zürich, Rentenanstalt"},"geometry":{"type":"Point","coordinates":[8.535028,47.363297]}},{"type":"Feature","properties":{"name":"Zürich, Riedbach"},"geometry":{"type":"Point","coordinates":[8.558295,47.414507]}},{"type":"Feature","properties":{"name":"Zürich, Riedgraben"},"geometry":{"type":"Point","coordinates":[8.558836,47.410801]}},{"type":"Feature","properties":{"name":"Zürich, Riedhofstrasse"},"geometry":{"type":"Point","coordinates":[8.479515,47.409903]}},{"type":"Feature","properties":{"name":"Zürich, Röntgenstrasse"},"geometry":{"type":"Point","coordinates":[8.529335,47.382033]}},{"type":"Feature","properties":{"name":"Zürich, Rosengartenstrasse"},"geometry":{"type":"Point","coordinates":[8.525468,47.394263]}},{"type":"Feature","properties":{"name":"Zürich, Röslistrasse"},"geometry":{"type":"Point","coordinates":[8.540506,47.388658]}},{"type":"Feature","properties":{"name":"Zürich, Roswiesen"},"geometry":{"type":"Point","coordinates":[8.577084,47.40293]}},{"type":"Feature","properties":{"name":"Zürich, Rotbuchstrasse"},"geometry":{"type":"Point","coordinates":[8.536033,47.391186]}},{"type":"Feature","properties":{"name":"Zürich, Rudolf-Brun-Brücke"},"geometry":{"type":"Point","coordinates":[8.542902,47.37395]}},{"type":"Feature","properties":{"name":"Zürich, Rütihof"},"geometry":{"type":"Point","coordinates":[8.477312,47.413452]}},{"type":"Feature","properties":{"name":"Zürich, Saalsporthalle"},"geometry":{"type":"Point","coordinates":[8.520723,47.357691]}},{"type":"Feature","properties":{"name":"Zürich, Saatlenstrasse"},"geometry":{"type":"Point","coordinates":[8.563092,47.410852]}},{"type":"Feature","properties":{"name":"Zürich, Sackzelg"},"geometry":{"type":"Point","coordinates":[8.495272,47.374359]}},{"type":"Feature","properties":{"name":"Zürich, Salersteig"},"geometry":{"type":"Point","coordinates":[8.548409,47.406151]}},{"type":"Feature","properties":{"name":"Zürich, Salzweg"},"geometry":{"type":"Point","coordinates":[8.471737,47.387723]}},{"type":"Feature","properties":{"name":"Zürich, SBB-Werkstätte"},"geometry":{"type":"Point","coordinates":[8.502887,47.386701]}},{"type":"Feature","properties":{"name":"Zürich, Schaffhauserplatz"},"geometry":{"type":"Point","coordinates":[8.538508,47.391685]}},{"type":"Feature","properties":{"name":"Zürich, Schäppiweg"},"geometry":{"type":"Point","coordinates":[8.551051,47.38985]}},{"type":"Feature","properties":{"name":"Zürich, Schauenberg"},"geometry":{"type":"Point","coordinates":[8.506947,47.416185]}},{"type":"Feature","properties":{"name":"Zürich, Scheuchzerstrasse"},"geometry":{"type":"Point","coordinates":[8.544095,47.387815]}},{"type":"Feature","properties":{"name":"Zürich, Schlyfi"},"geometry":{"type":"Point","coordinates":[8.574199,47.362544]}},{"type":"Feature","properties":{"name":"Zürich, Schmiede Wiedikon"},"geometry":{"type":"Point","coordinates":[8.519267,47.370123]}},{"type":"Feature","properties":{"name":"Zürich, Schönauring"},"geometry":{"type":"Point","coordinates":[8.536425,47.426091]}},{"type":"Feature","properties":{"name":"Zürich, Ueberlandpark"},"geometry":{"type":"Point","coordinates":[8.564069,47.406076]}},{"type":"Feature","properties":{"name":"Zürich, Schulhaus Altweg"},"geometry":{"type":"Point","coordinates":[8.494195,47.372484]}},{"type":"Feature","properties":{"name":"Zürich, Schulhaus Buchlern"},"geometry":{"type":"Point","coordinates":[8.478175,47.384604]}},{"type":"Feature","properties":{"name":"Zürich, Schumacherweg"},"geometry":{"type":"Point","coordinates":[8.51478,47.412156]}},{"type":"Feature","properties":{"name":"Zürich, Schürgistrasse"},"geometry":{"type":"Point","coordinates":[8.579643,47.408783]}},{"type":"Feature","properties":{"name":"Zürich, Schützenhaus Höngg"},"geometry":{"type":"Point","coordinates":[8.497047,47.409731]}},{"type":"Feature","properties":{"name":"Zürich, Schwamendingerplatz"},"geometry":{"type":"Point","coordinates":[8.5717,47.404686]}},{"type":"Feature","properties":{"name":"Zürich, Schwandenholz"},"geometry":{"type":"Point","coordinates":[8.520044,47.423838]}},{"type":"Feature","properties":{"name":"Zürich, Schweighof"},"geometry":{"type":"Point","coordinates":[8.502729,47.364704]}},{"type":"Feature","properties":{"name":"Zürich, Schweizer Rück"},"geometry":{"type":"Point","coordinates":[8.535477,47.359728]}},{"type":"Feature","properties":{"name":"Zürich, Schwert"},"geometry":{"type":"Point","coordinates":[8.504719,47.399731]}},{"type":"Feature","properties":{"name":"Zürich, Seebach"},"geometry":{"type":"Point","coordinates":[8.549815,47.421779]}},{"type":"Feature","properties":{"name":"Zürich, Seebacherplatz"},"geometry":{"type":"Point","coordinates":[8.548199,47.41988]}},{"type":"Feature","properties":{"name":"Zürich, Seerose"},"geometry":{"type":"Point","coordinates":[8.538118,47.338955]}},{"type":"Feature","properties":{"name":"Zürich, Segantinistrasse"},"geometry":{"type":"Point","coordinates":[8.48989,47.407493]}},{"type":"Feature","properties":{"name":"Zürich, Segeten"},"geometry":{"type":"Point","coordinates":[8.594398,47.355784]}},{"type":"Feature","properties":{"name":"Zürich, Seidelhof"},"geometry":{"type":"Point","coordinates":[8.483847,47.391911]}},{"type":"Feature","properties":{"name":"Zürich, Seilbahn Rigiblick"},"geometry":{"type":"Point","coordinates":[8.548373,47.385909]}},{"type":"Feature","properties":{"name":"Zürich, Siemens"},"geometry":{"type":"Point","coordinates":[8.493986,47.378453]}},{"type":"Feature","properties":{"name":"Zürich, Signaustrasse"},"geometry":{"type":"Point","coordinates":[8.557661,47.36319]}},{"type":"Feature","properties":{"name":"Zürich, Sihlcity"},"geometry":{"type":"Point","coordinates":[8.522643,47.358129]}},{"type":"Feature","properties":{"name":"Zürich, Sihlcity Nord"},"geometry":{"type":"Point","coordinates":[8.52294,47.36016]}},{"type":"Feature","properties":{"name":"Zürich, Sihlpost/HB"},"geometry":{"type":"Point","coordinates":[8.53426,47.376164]}},{"type":"Feature","properties":{"name":"Zürich, Sihlquai/HB"},"geometry":{"type":"Point","coordinates":[8.537568,47.379904]}},{"type":"Feature","properties":{"name":"Zürich, Sihlstrasse"},"geometry":{"type":"Point","coordinates":[8.534635,47.372284]}},{"type":"Feature","properties":{"name":"Zürich, Sihlweidstrasse"},"geometry":{"type":"Point","coordinates":[8.514425,47.326532]}},{"type":"Feature","properties":{"name":"Zürich, Singlistrasse"},"geometry":{"type":"Point","coordinates":[8.49307,47.405298]}},{"type":"Feature","properties":{"name":"Zürich, Solidapark"},"geometry":{"type":"Point","coordinates":[8.488505,47.387786]}},{"type":"Feature","properties":{"name":"Zürich, Sonneggstrasse"},"geometry":{"type":"Point","coordinates":[8.543594,47.382889]}},{"type":"Feature","properties":{"name":"Zürich, Sportweg"},"geometry":{"type":"Point","coordinates":[8.505849,47.391612]}},{"type":"Feature","properties":{"name":"Zürich, Sprecherstrasse"},"geometry":{"type":"Point","coordinates":[8.552283,47.367579]}},{"type":"Feature","properties":{"name":"Zürich, Spyriplatz"},"geometry":{"type":"Point","coordinates":[8.552054,47.382284]}},{"type":"Feature","properties":{"name":"Zürich, Spyristeig"},"geometry":{"type":"Point","coordinates":[8.556276,47.386219]}},{"type":"Feature","properties":{"name":"Zürich, Stadtgrenze"},"geometry":{"type":"Point","coordinates":[8.541474,47.335045]}},{"type":"Feature","properties":{"name":"Zürich, Stampfenbachplatz"},"geometry":{"type":"Point","coordinates":[8.542727,47.380194]}},{"type":"Feature","properties":{"name":"Zürich, Staudenbühl"},"geometry":{"type":"Point","coordinates":[8.535355,47.420055]}},{"type":"Feature","properties":{"name":"Zürich, Stauffacher"},"geometry":{"type":"Point","coordinates":[8.529388,47.37332]}},{"type":"Feature","properties":{"name":"Zürich, Sternen Oerlikon"},"geometry":{"type":"Point","coordinates":[8.54641,47.409977]}},{"type":"Feature","properties":{"name":"Zürich, Stierenried"},"geometry":{"type":"Point","coordinates":[8.535486,47.416619]}},{"type":"Feature","properties":{"name":"Zürich, Stockerstrasse"},"geometry":{"type":"Point","coordinates":[8.535181,47.367811]}},{"type":"Feature","properties":{"name":"Zürich, Strassenverkehrsamt"},"geometry":{"type":"Point","coordinates":[8.511421,47.353253]}},{"type":"Feature","properties":{"name":"Zürich, Strickhof"},"geometry":{"type":"Point","coordinates":[8.547515,47.393576]}},{"type":"Feature","properties":{"name":"Zürich, Sukkulentensammlung"},"geometry":{"type":"Point","coordinates":[8.534271,47.354928]}},{"type":"Feature","properties":{"name":"Zürich, Susenbergstrasse"},"geometry":{"type":"Point","coordinates":[8.567927,47.378529]}},{"type":"Feature","properties":{"name":"Zürich, Talwiesenstrasse"},"geometry":{"type":"Point","coordinates":[8.50959,47.36988]}},{"type":"Feature","properties":{"name":"Zürich, Technopark"},"geometry":{"type":"Point","coordinates":[8.515333,47.389062]}},{"type":"Feature","properties":{"name":"Zürich, Thujastrasse"},"geometry":{"type":"Point","coordinates":[8.52779,47.350202]}},{"type":"Feature","properties":{"name":"Zürich, Tierspital"},"geometry":{"type":"Point","coordinates":[8.551866,47.401854]}},{"type":"Feature","properties":{"name":"Zürich, Titlisstrasse"},"geometry":{"type":"Point","coordinates":[8.564882,47.370925]}},{"type":"Feature","properties":{"name":"Zürich, Tobelhof"},"geometry":{"type":"Point","coordinates":[8.585788,47.382962]}},{"type":"Feature","properties":{"name":"Zürich, Toblerplatz"},"geometry":{"type":"Point","coordinates":[8.559474,47.379165]}},{"type":"Feature","properties":{"name":"Zürich, Toni-Areal"},"geometry":{"type":"Point","coordinates":[8.51063,47.390107]}},{"type":"Feature","properties":{"name":"Zürich, Trichtenhausenfussweg"},"geometry":{"type":"Point","coordinates":[8.598563,47.354198]}},{"type":"Feature","properties":{"name":"Zürich, Trichtisal"},"geometry":{"type":"Point","coordinates":[8.600842,47.353948]}},{"type":"Feature","properties":{"name":"Zürich, Triemlispital"},"geometry":{"type":"Point","coordinates":[8.496895,47.365966]}},{"type":"Feature","properties":{"name":"Zürich, Tüffenwies"},"geometry":{"type":"Point","coordinates":[8.49454,47.397852]}},{"type":"Feature","properties":{"name":"Zürich, Tulpenstrasse"},"geometry":{"type":"Point","coordinates":[8.568544,47.40612]}},{"type":"Feature","properties":{"name":"Zürich, Tunnelstrasse"},"geometry":{"type":"Point","coordinates":[8.532668,47.36624]}},{"type":"Feature","properties":{"name":"Zürich, Uetlihof"},"geometry":{"type":"Point","coordinates":[8.513956,47.356743]}},{"type":"Feature","properties":{"name":"Zürich, Universität Irchel"},"geometry":{"type":"Point","coordinates":[8.54482,47.396176]}},{"type":"Feature","properties":{"name":"Zürich, Unteraffoltern"},"geometry":{"type":"Point","coordinates":[8.511558,47.424314]}},{"type":"Feature","properties":{"name":"Zürich, Untermoosstrasse"},"geometry":{"type":"Point","coordinates":[8.483371,47.379761]}},{"type":"Feature","properties":{"name":"Zürich, Verenastrasse"},"geometry":{"type":"Point","coordinates":[8.525315,47.34088]}},{"type":"Feature","properties":{"name":"Zürich, Vogelsangstrasse"},"geometry":{"type":"Point","coordinates":[8.549159,47.383509]}},{"type":"Feature","properties":{"name":"Zürich, Voltastrasse"},"geometry":{"type":"Point","coordinates":[8.554288,47.376923]}},{"type":"Feature","properties":{"name":"Zürich, Vulkanstrasse"},"geometry":{"type":"Point","coordinates":[8.484105,47.3944]}},{"type":"Feature","properties":{"name":"Zürich, Waffenplatz-/Bederstr."},"geometry":{"type":"Point","coordinates":[8.526503,47.361664]}},{"type":"Feature","properties":{"name":"Zürich, Waffenplatzstrasse"},"geometry":{"type":"Point","coordinates":[8.525749,47.361482]}},{"type":"Feature","properties":{"name":"Zürich, Waidbadstrasse"},"geometry":{"type":"Point","coordinates":[8.513534,47.398976]}},{"type":"Feature","properties":{"name":"Zürich, Waidfussweg"},"geometry":{"type":"Point","coordinates":[8.518728,47.395419]}},{"type":"Feature","properties":{"name":"Zürich, Waidhof"},"geometry":{"type":"Point","coordinates":[8.523045,47.423864]}},{"type":"Feature","properties":{"name":"Zürich, Waidspital"},"geometry":{"type":"Point","coordinates":[8.521807,47.399157]}},{"type":"Feature","properties":{"name":"Zürich, Waldgarten"},"geometry":{"type":"Point","coordinates":[8.557457,47.404009]}},{"type":"Feature","properties":{"name":"Zürich, Waldhaus Dolder"},"geometry":{"type":"Point","coordinates":[8.568505,47.373218]}},{"type":"Feature","properties":{"name":"Zürich, Wartau"},"geometry":{"type":"Point","coordinates":[8.491786,47.402749]}},{"type":"Feature","properties":{"name":"Zürich, Waserstrasse"},"geometry":{"type":"Point","coordinates":[8.583995,47.358345]}},{"type":"Feature","properties":{"name":"Zürich, Weihersteig"},"geometry":{"type":"Point","coordinates":[8.528648,47.397865]}},{"type":"Feature","properties":{"name":"Zürich, Werd"},"geometry":{"type":"Point","coordinates":[8.526849,47.372443]}},{"type":"Feature","properties":{"name":"Zürich, Werdhölzli"},"geometry":{"type":"Point","coordinates":[8.482025,47.397809]}},{"type":"Feature","properties":{"name":"Zürich, Wetlistrasse"},"geometry":{"type":"Point","coordinates":[8.568506,47.360149]}},{"type":"Feature","properties":{"name":"Zürich, Widmerstrasse"},"geometry":{"type":"Point","coordinates":[8.532928,47.336814]}},{"type":"Feature","properties":{"name":"Zürich, Wieslergasse"},"geometry":{"type":"Point","coordinates":[8.495961,47.404107]}},{"type":"Feature","properties":{"name":"Zürich, Wiesliacher"},"geometry":{"type":"Point","coordinates":[8.596856,47.355171]}},{"type":"Feature","properties":{"name":"Zürich, Winkelriedstrasse"},"geometry":{"type":"Point","coordinates":[8.548186,47.383185]}},{"type":"Feature","properties":{"name":"Zürich, Winzerhalde"},"geometry":{"type":"Point","coordinates":[8.494606,47.400066]}},{"type":"Feature","properties":{"name":"Zürich, Winzerstrasse"},"geometry":{"type":"Point","coordinates":[8.486349,47.403546]}},{"type":"Feature","properties":{"name":"Zürich, Wipkingerplatz"},"geometry":{"type":"Point","coordinates":[8.523555,47.392589]}},{"type":"Feature","properties":{"name":"Zürich, Buchzelgstrasse"},"geometry":{"type":"Point","coordinates":[8.585244,47.359182]}},{"type":"Feature","properties":{"name":"Zürich, Wollishoferplatz"},"geometry":{"type":"Point","coordinates":[8.530218,47.338284]}},{"type":"Feature","properties":{"name":"Zürich, Wonnebergstrasse"},"geometry":{"type":"Point","coordinates":[8.566512,47.351852]}},{"type":"Feature","properties":{"name":"Zürich, Zielweg"},"geometry":{"type":"Point","coordinates":[8.497586,47.358823]}},{"type":"Feature","properties":{"name":"Zürich, Zoo"},"geometry":{"type":"Point","coordinates":[8.571463,47.381491]}},{"type":"Feature","properties":{"name":"Zürich, Zoo/Forrenweid"},"geometry":{"type":"Point","coordinates":[8.578089,47.380495]}},{"type":"Feature","properties":{"name":"Zürich, Zürichbergstrasse"},"geometry":{"type":"Point","coordinates":[8.564129,47.378733]}},{"type":"Feature","properties":{"name":"Zürich, Zweiackerstrasse"},"geometry":{"type":"Point","coordinates":[8.597971,47.357038]}},{"type":"Feature","properties":{"name":"Zürich, Zwielplatz"},"geometry":{"type":"Point","coordinates":[8.496652,47.402183]}},{"type":"Feature","properties":{"name":"Zürich, Zwinglihaus"},"geometry":{"type":"Point","coordinates":[8.516174,47.371608]}},{"type":"Feature","properties":{"name":"Zürich, Zypressenstrasse"},"geometry":{"type":"Point","coordinates":[8.513797,47.376729]}},{"type":"Feature","properties":{"name":"Zürich, Binz"},"geometry":{"type":"Point","coordinates":[8.518338,47.362977]}},{"type":"Feature","properties":{"name":"Binz bei Maur, Gassacher"},"geometry":{"type":"Point","coordinates":[8.627692,47.356936]}},{"type":"Feature","properties":{"name":"Glattpark, Glattpark"},"geometry":{"type":"Point","coordinates":[8.556929,47.42042]}},{"type":"Feature","properties":{"name":"Gockhausen, Dorf"},"geometry":{"type":"Point","coordinates":[8.59829,47.382016]}},{"type":"Feature","properties":{"name":"Pfaffhausen, Müseren"},"geometry":{"type":"Point","coordinates":[8.617494,47.362706]}},{"type":"Feature","properties":{"name":"Zürich, Würzgraben"},"geometry":{"type":"Point","coordinates":[8.494838,47.392091]}},{"type":"Feature","properties":{"name":"Zollikerberg, Spital"},"geometry":{"type":"Point","coordinates":[8.596024,47.34827]}},{"type":"Feature","properties":{"name":"Glattpark, Wright-Strasse"},"geometry":{"type":"Point","coordinates":[8.559233,47.420549]}},{"type":"Feature","properties":{"name":"Zürich, Schiffbau"},"geometry":{"type":"Point","coordinates":[8.51975,47.387914]}},{"type":"Feature","properties":{"name":"Benglen, Langwis"},"geometry":{"type":"Point","coordinates":[8.630122,47.362023]}},{"type":"Feature","properties":{"name":"Binz bei Maur, Bautacher"},"geometry":{"type":"Point","coordinates":[8.630036,47.358354]}},{"type":"Feature","properties":{"name":"Kilchberg ZH, Breitloo"},"geometry":{"type":"Point","coordinates":[8.539686,47.326104]}},{"type":"Feature","properties":{"name":"Zürich, Schanzackerstrasse"},"geometry":{"type":"Point","coordinates":[8.547434,47.392025]}},{"type":"Feature","properties":{"name":"Dübendorf, Hochbord Nord"},"geometry":{"type":"Point","coordinates":[8.601847,47.401384]}},{"type":"Feature","properties":{"name":"Zürich, Glaubtenstrasse Nord"},"geometry":{"type":"Point","coordinates":[8.519687,47.414738]}},{"type":"Feature","properties":{"name":"Binz bei Maur, Twäracher"},"geometry":{"type":"Point","coordinates":[8.62347,47.360887]}},{"type":"Feature","properties":{"name":"Zürich, Hermetschloo"},"geometry":{"type":"Point","coordinates":[8.473889,47.394148]}},{"type":"Feature","properties":{"name":"Dübendorf, Hochbord Süd"},"geometry":{"type":"Point","coordinates":[8.600473,47.399015]}},{"type":"Feature","properties":{"name":"Kilchberg ZH, Lätten"},"geometry":{"type":"Point","coordinates":[8.535603,47.32899]}},{"type":"Feature","properties":{"name":"Zürich, Obere Hornhalde"},"geometry":{"type":"Point","coordinates":[8.536834,47.33117]}},{"type":"Feature","properties":{"name":"Zürich, Leutschenpark"},"geometry":{"type":"Point","coordinates":[8.555088,47.416552]}}]}