{"type":"FeatureCollection","features":[{"type":"Feature","properties":{"modus":"oev","art":"best","beschriftung":"Rang 1 · 15,7 min","rang":1,"minuten":15.7,"orte":357,"lon":7.43742,"lat":46.94672,"adresse":"Hirschengraben 6","name":null},"geometry":{"type":"Point","coordinates":[7.43742,46.94672]}},{"type":"Feature","properties":{"modus":"oev","art":"worst","beschriftung":"Rang 20’540 · 88,9 min","rang":20540,"minuten":88.9,"orte":0,"lon":7.30692,"lat":46.92325,"adresse":null,"name":null},"geometry":{"type":"Point","coordinates":[7.30692,46.92325]}},{"type":"Feature","properties":{"modus":"kultur","art":"best","beschriftung":"Rang 1 · 378 Orte","rang":1,"minuten":17.4,"orte":378,"lon":7.44395,"lat":46.94832,"adresse":"Waaghausgasse 2","name":null},"geometry":{"type":"Point","coordinates":[7.44395,46.94832]}},{"type":"Feature","properties":{"modus":"kultur","art":"worst","beschriftung":"Rang 20’540 · 0 Orte","rang":20540,"minuten":32.2,"orte":0,"lon":7.46087,"lat":46.97059,"adresse":null,"name":null},"geometry":{"type":"Point","coordinates":[7.46087,46.97059]}}]}