{"type":"FeatureCollection","features":[{"type":"Feature","properties":{"name":"Bern","art":"stadtteil","z":11},"geometry":{"type":"Point","coordinates":[7.452175,46.948474]}},{"type":"Feature","properties":{"name":"Matte","art":"stadtteil","z":13.5},"geometry":{"type":"Point","coordinates":[7.456732,46.94716]}},{"type":"Feature","properties":{"name":"Marzili","art":"stadtteil","z":13.5},"geometry":{"type":"Point","coordinates":[7.442853,46.943578]}},{"type":"Feature","properties":{"name":"Dalmazi","art":"stadtteil","z":13.5},"geometry":{"type":"Point","coordinates":[7.445857,46.940777]}},{"type":"Feature","properties":{"name":"Monbijou","art":"stadtteil","z":13.5},"geometry":{"type":"Point","coordinates":[7.435025,46.943809]}},{"type":"Feature","properties":{"name":"Neufeld","art":"stadtteil","z":13.5},"geometry":{"type":"Point","coordinates":[7.428097,46.959032]}},{"type":"Feature","properties":{"name":"Lorraine","art":"stadtteil","z":13.5},"geometry":{"type":"Point","coordinates":[7.445142,46.960057]}},{"type":"Feature","properties":{"name":"Tiefenau","art":"stadtteil","z":13.5},"geometry":{"type":"Point","coordinates":[7.454004,46.976305]}},{"type":"Feature","properties":{"name":"Länggasse","art":"stadtteil","z":13.5},"geometry":{"type":"Point","coordinates":[7.436954,46.95296]}},{"type":"Feature","properties":{"name":"Bümpliz","art":"stadtteil","z":13.5},"geometry":{"type":"Point","coordinates":[7.389322,46.943644]}},{"type":"Feature","properties":{"name":"Mattenhof","art":"stadtteil","z":13.5},"geometry":{"type":"Point","coordinates":[7.425956,46.944191]}},{"type":"Feature","properties":{"name":"Kirchenfeld","art":"stadtteil","z":13.5},"geometry":{"type":"Point","coordinates":[7.449965,46.940381]}},{"type":"Feature","properties":{"name":"Breitenrain","art":"stadtteil","z":13.5},"geometry":{"type":"Point","coordinates":[7.450398,46.96018]}},{"type":"Feature","properties":{"name":"Murifeld","art":"stadtteil","z":13.5},"geometry":{"type":"Point","coordinates":[7.483396,46.940073]}},{"type":"Feature","properties":{"name":"Wittigkofen","art":"stadtteil","z":13.5},"geometry":{"type":"Point","coordinates":[7.482029,46.93957]}},{"type":"Feature","properties":{"name":"Oberbottigen","art":"stadtteil","z":13.5},"geometry":{"type":"Point","coordinates":[7.349612,46.935846]}},{"type":"Feature","properties":{"name":"Niederbottigen","art":"stadtteil","z":13.5},"geometry":{"type":"Point","coordinates":[7.371157,46.939634]}},{"type":"Feature","properties":{"name":"Rossfeld","art":"stadtteil","z":13.5},"geometry":{"type":"Point","coordinates":[7.447552,46.973081]}},{"type":"Feature","properties":{"name":"Felsenau","art":"stadtteil","z":13.5},"geometry":{"type":"Point","coordinates":[7.440329,46.971404]}},{"type":"Feature","properties":{"name":"Bethlehem","art":"stadtteil","z":13.5},"geometry":{"type":"Point","coordinates":[7.385761,46.948347]}},{"type":"Feature","properties":{"name":"Gäbelbach","art":"stadtteil","z":13.5},"geometry":{"type":"Point","coordinates":[7.377653,46.948796]}},{"type":"Feature","properties":{"name":"Holenacker","art":"stadtteil","z":13.5},"geometry":{"type":"Point","coordinates":[7.379834,46.949798]}},{"type":"Feature","properties":{"name":"Bern Europaplatz","art":"bahnhof","z":12.5},"geometry":{"type":"Point","coordinates":[7.407446,46.943467]}},{"type":"Feature","properties":{"name":"Bern Europaplatz","art":"bahnhof","z":12.5},"geometry":{"type":"Point","coordinates":[7.406236,46.944114]}},{"type":"Feature","properties":{"name":"Bern Brünnen Westside","art":"bahnhof","z":12.5},"geometry":{"type":"Point","coordinates":[7.375437,46.944075]}},{"type":"Feature","properties":{"name":"Riedbach","art":"bahnhof","z":12.5},"geometry":{"type":"Point","coordinates":[7.334196,46.94114]}},{"type":"Feature","properties":{"name":"Altstadt","art":"stadtteil","z":13.5},"geometry":{"type":"Point","coordinates":[7.451273,46.948289]}},{"type":"Feature","properties":{"name":"Weissenstein","art":"stadtteil","z":13.5},"geometry":{"type":"Point","coordinates":[7.422289,46.937916]}},{"type":"Feature","properties":{"name":"Holligen","art":"stadtteil","z":13.5},"geometry":{"type":"Point","coordinates":[7.417252,46.942855]}},{"type":"Feature","properties":{"name":"Weissenbühl","art":"stadtteil","z":13.5},"geometry":{"type":"Point","coordinates":[7.434217,46.936802]}},{"type":"Feature","properties":{"name":"Bern Weissenbühl","art":"bahnhof","z":12.5},"geometry":{"type":"Point","coordinates":[7.430045,46.93579]}},{"type":"Feature","properties":{"name":"Bern","art":"bahnhof","z":12.5},"geometry":{"type":"Point","coordinates":[7.439955,46.948909]}},{"type":"Feature","properties":{"name":"Bern Bümpliz Nord","art":"bahnhof","z":12.5},"geometry":{"type":"Point","coordinates":[7.390002,46.945852]}},{"type":"Feature","properties":{"name":"Bern Bümpliz Süd","art":"bahnhof","z":12.5},"geometry":{"type":"Point","coordinates":[7.395613,46.937615]}},{"type":"Feature","properties":{"name":"Villette","art":"stadtteil","z":13.5},"geometry":{"type":"Point","coordinates":[7.430543,46.946899]}},{"type":"Feature","properties":{"name":"Bern Felsenau","art":"bahnhof","z":12.5},"geometry":{"type":"Point","coordinates":[7.444305,46.968709]}},{"type":"Feature","properties":{"name":"Bern Tiefenau","art":"bahnhof","z":12.5},"geometry":{"type":"Point","coordinates":[7.449874,46.972586]}},{"type":"Feature","properties":{"name":"Brunnadern","art":"stadtteil","z":13.5},"geometry":{"type":"Point","coordinates":[7.467685,46.933763]}},{"type":"Feature","properties":{"name":"Beundenfeld","art":"stadtteil","z":13.5},"geometry":{"type":"Point","coordinates":[7.472624,46.96158]}},{"type":"Feature","properties":{"name":"Gryphenhübeli","art":"stadtteil","z":13.5},"geometry":{"type":"Point","coordinates":[7.455662,46.944999]}},{"type":"Feature","properties":{"name":"Schosshalde","art":"stadtteil","z":13.5},"geometry":{"type":"Point","coordinates":[7.47416,46.947125]}},{"type":"Feature","properties":{"name":"Altenberg","art":"stadtteil","z":13.5},"geometry":{"type":"Point","coordinates":[7.452607,46.951548]}},{"type":"Feature","properties":{"name":"Spitalacker","art":"stadtteil","z":13.5},"geometry":{"type":"Point","coordinates":[7.45437,46.956265]}},{"type":"Feature","properties":{"name":"Breitfeld","art":"stadtteil","z":13.5},"geometry":{"type":"Point","coordinates":[7.460203,46.967417]}},{"type":"Feature","properties":{"name":"Engeried","art":"stadtteil","z":13.5},"geometry":{"type":"Point","coordinates":[7.438821,46.959265]}},{"type":"Feature","properties":{"name":"Stadtbach","art":"stadtteil","z":13.5},"geometry":{"type":"Point","coordinates":[7.432471,46.950204]}},{"type":"Feature","properties":{"name":"Viererfeld","art":"stadtteil","z":13.5},"geometry":{"type":"Point","coordinates":[7.439449,46.964453]}},{"type":"Feature","properties":{"name":"Muesmatt","art":"stadtteil","z":13.5},"geometry":{"type":"Point","coordinates":[7.426847,46.952806]}},{"type":"Feature","properties":{"name":"Stöckacker","art":"stadtteil","z":13.5},"geometry":{"type":"Point","coordinates":[7.402774,46.944163]}},{"type":"Feature","properties":{"name":"Weisses Quartier","art":"stadtteil","z":13.5},"geometry":{"type":"Point","coordinates":[7.454657,46.948294]}},{"type":"Feature","properties":{"name":"Grünes Quartier","art":"stadtteil","z":13.5},"geometry":{"type":"Point","coordinates":[7.449865,46.948006]}},{"type":"Feature","properties":{"name":"Gelbes Quartier","art":"stadtteil","z":13.5},"geometry":{"type":"Point","coordinates":[7.44556,46.948573]}},{"type":"Feature","properties":{"name":"Rotes Quartier","art":"stadtteil","z":13.5},"geometry":{"type":"Point","coordinates":[7.440471,46.948865]}},{"type":"Feature","properties":{"name":"Campagne Schönberg","art":"stadtteil","z":13.5},"geometry":{"type":"Point","coordinates":[7.464836,46.950287]}},{"type":"Feature","properties":{"name":"Loryplatz","art":"platz","z":14},"geometry":{"type":"Point","coordinates":[7.421696,46.944589]}},{"type":"Feature","properties":{"name":"Meienegg","art":"stadtteil","z":13.5},"geometry":{"type":"Point","coordinates":[7.399644,46.945252]}},{"type":"Feature","properties":{"name":"Brünnen","art":"stadtteil","z":13.5},"geometry":{"type":"Point","coordinates":[7.376656,46.946716]}},{"type":"Feature","properties":{"name":"Untermatt","art":"stadtteil","z":13.5},"geometry":{"type":"Point","coordinates":[7.401431,46.948019]}},{"type":"Feature","properties":{"name":"Eymatt","art":"stadtteil","z":13.5},"geometry":{"type":"Point","coordinates":[7.383533,46.961716]}},{"type":"Feature","properties":{"name":"Wyler","art":"stadtteil","z":13.5},"geometry":{"type":"Point","coordinates":[7.449378,46.962426]}},{"type":"Feature","properties":{"name":"Ackerli","art":"stadtteil","z":13.5},"geometry":{"type":"Point","coordinates":[7.38465,46.949961]}},{"type":"Feature","properties":{"name":"Bethlehemacker","art":"stadtteil","z":13.5},"geometry":{"type":"Point","coordinates":[7.389115,46.950209]}},{"type":"Feature","properties":{"name":"Altes Bethlehem","art":"stadtteil","z":13.5},"geometry":{"type":"Point","coordinates":[7.39571,46.950192]}},{"type":"Feature","properties":{"name":"Bümpliz Dorf","art":"stadtteil","z":13.5},"geometry":{"type":"Point","coordinates":[7.390757,46.94111]}},{"type":"Feature","properties":{"name":"Tscharnerplätzli","art":"platz","z":14},"geometry":{"type":"Point","coordinates":[7.430844,46.940853]}},{"type":"Feature","properties":{"name":"Vordere Rehhag","art":"stadtteil","z":13.5},"geometry":{"type":"Point","coordinates":[7.37881,46.937737]}},{"type":"Feature","properties":{"name":"Kleefeld","art":"stadtteil","z":13.5},"geometry":{"type":"Point","coordinates":[7.384385,46.937617]}},{"type":"Feature","properties":{"name":"Hohliebe","art":"stadtteil","z":13.5},"geometry":{"type":"Point","coordinates":[7.384173,46.929212]}},{"type":"Feature","properties":{"name":"Burgfeld","art":"stadtteil","z":13.5},"geometry":{"type":"Point","coordinates":[7.477911,46.95723]}},{"type":"Feature","properties":{"name":"Unders Galgefeld","art":"stadtteil","z":13.5},"geometry":{"type":"Point","coordinates":[7.472068,46.956106]}},{"type":"Feature","properties":{"name":"Stauffacherplatz","art":"platz","z":14},"geometry":{"type":"Point","coordinates":[7.454462,46.960057]}},{"type":"Feature","properties":{"name":"Cäcilienplatz","art":"platz","z":14},"geometry":{"type":"Point","coordinates":[7.425665,46.941935]}},{"type":"Feature","properties":{"name":"Freudenbergerplatz","art":"platz","z":14},"geometry":{"type":"Point","coordinates":[7.472154,46.944996]}},{"type":"Feature","properties":{"name":"Schmiedenplatz","art":"platz","z":14},"geometry":{"type":"Point","coordinates":[7.447082,46.948607]}},{"type":"Feature","properties":{"name":"Theaterplatz","art":"platz","z":14},"geometry":{"type":"Point","coordinates":[7.447448,46.947586]}},{"type":"Feature","properties":{"name":"Helvetiaplatz","art":"platz","z":14},"geometry":{"type":"Point","coordinates":[7.449077,46.943915]}},{"type":"Feature","properties":{"name":"Bundesplatz","art":"platz","z":14},"geometry":{"type":"Point","coordinates":[7.444161,46.947024]}},{"type":"Feature","properties":{"name":"Casinoplatz","art":"platz","z":14},"geometry":{"type":"Point","coordinates":[7.448006,46.946866]}},{"type":"Feature","properties":{"name":"Läuferplatz","art":"platz","z":14},"geometry":{"type":"Point","coordinates":[7.457679,46.949544]}},{"type":"Feature","properties":{"name":"Bahnhofplatz","art":"platz","z":14},"geometry":{"type":"Point","coordinates":[7.440327,46.948494]}},{"type":"Feature","properties":{"name":"Rosalia-Wenger-Platz","art":"platz","z":14},"geometry":{"type":"Point","coordinates":[7.464119,46.968003]}},{"type":"Feature","properties":{"name":"Münsterplatz","art":"platz","z":14},"geometry":{"type":"Point","coordinates":[7.450785,46.947196]}},{"type":"Feature","properties":{"name":"Gilberte-de-Courgenay-Platz","art":"platz","z":14},"geometry":{"type":"Point","coordinates":[7.375048,46.944358]}},{"type":"Feature","properties":{"name":"Hirschengraben","art":"platz","z":14},"geometry":{"type":"Point","coordinates":[7.437707,46.9465]}},{"type":"Feature","properties":{"name":"Ralligplatz","art":"platz","z":14},"geometry":{"type":"Point","coordinates":[7.430744,46.956089]}},{"type":"Feature","properties":{"name":"Holenackerplatz","art":"platz","z":14},"geometry":{"type":"Point","coordinates":[7.382616,46.948505]}},{"type":"Feature","properties":{"name":"Kornhausplatz","art":"platz","z":14},"geometry":{"type":"Point","coordinates":[7.447623,46.948714]}},{"type":"Feature","properties":{"name":"Barbara-Lischetti-Platz","art":"platz","z":14},"geometry":{"type":"Point","coordinates":[7.435122,46.955414]}},{"type":"Feature","properties":{"name":"Holligerplatz","art":"platz","z":14},"geometry":{"type":"Point","coordinates":[7.41572,46.946375]}}]}