{"type":"FeatureCollection","features":[{"type":"Feature","properties":{"name":"Bern, Holligen"},"geometry":{"type":"Point","coordinates":[7.415197,46.946149]}},{"type":"Feature","properties":{"name":"Bern, Kunstmuseum"},"geometry":{"type":"Point","coordinates":[7.442991,46.951094]}},{"type":"Feature","properties":{"name":"Bern, Bundesgasse"},"geometry":{"type":"Point","coordinates":[7.439614,46.94617]}},{"type":"Feature","properties":{"name":"Bern, Waisenhausplatz"},"geometry":{"type":"Point","coordinates":[7.444177,46.949878]}},{"type":"Feature","properties":{"name":"Bern, Bösstude"},"geometry":{"type":"Point","coordinates":[7.360628,46.936293]}},{"type":"Feature","properties":{"name":"Bern, Berner Fachhochschule"},"geometry":{"type":"Point","coordinates":[7.429665,46.945375]}},{"type":"Feature","properties":{"name":"Bern Brünnen Westside"},"geometry":{"type":"Point","coordinates":[7.375267,46.944037]}},{"type":"Feature","properties":{"name":"Bern Wankdorf"},"geometry":{"type":"Point","coordinates":[7.465661,46.967321]}},{"type":"Feature","properties":{"name":"Bern Matte"},"geometry":{"type":"Point","coordinates":[7.452567,46.94663]}},{"type":"Feature","properties":{"name":"Bern Münsterplattform"},"geometry":{"type":"Point","coordinates":[7.452513,46.94663]}},{"type":"Feature","properties":{"name":"Bern, Moosweg"},"geometry":{"type":"Point","coordinates":[7.372623,46.933991]}},{"type":"Feature","properties":{"name":"Bern, Huberstrasse"},"geometry":{"type":"Point","coordinates":[7.41603,46.942071]}},{"type":"Feature","properties":{"name":"Liebefeld, Bündenackerstrasse"},"geometry":{"type":"Point","coordinates":[7.423136,46.928744]}},{"type":"Feature","properties":{"name":"Bern (Marzilibahn)"},"geometry":{"type":"Point","coordinates":[7.442201,46.945961]}},{"type":"Feature","properties":{"name":"Bern Marzili"},"geometry":{"type":"Point","coordinates":[7.443099,46.945201]}},{"type":"Feature","properties":{"name":"Niederwangen"},"geometry":{"type":"Point","coordinates":[7.376729,46.925715]}},{"type":"Feature","properties":{"name":"Bern Bümpliz Süd"},"geometry":{"type":"Point","coordinates":[7.395217,46.937419]}},{"type":"Feature","properties":{"name":"Bern Europaplatz"},"geometry":{"type":"Point","coordinates":[7.40652,46.944037]}},{"type":"Feature","properties":{"name":"Rosshäusern"},"geometry":{"type":"Point","coordinates":[7.29679,46.934368]}},{"type":"Feature","properties":{"name":"Bern Riedbach"},"geometry":{"type":"Point","coordinates":[7.334729,46.941306]}},{"type":"Feature","properties":{"name":"Bern Bümpliz Nord"},"geometry":{"type":"Point","coordinates":[7.389786,46.945938]}},{"type":"Feature","properties":{"name":"Worblaufen, Fischrainweg"},"geometry":{"type":"Point","coordinates":[7.465898,46.979699]}},{"type":"Feature","properties":{"name":"Bern"},"geometry":{"type":"Point","coordinates":[7.437665,46.948825]}},{"type":"Feature","properties":{"name":"Ostermundigen"},"geometry":{"type":"Point","coordinates":[7.481576,46.956796]}},{"type":"Feature","properties":{"name":"Bern, Egghölzli"},"geometry":{"type":"Point","coordinates":[7.476446,46.937053]}},{"type":"Feature","properties":{"name":"Gümligen, Melchenbühl (Tram)"},"geometry":{"type":"Point","coordinates":[7.498088,46.934956]}},{"type":"Feature","properties":{"name":"Bern, Helvetiaplatz"},"geometry":{"type":"Point","coordinates":[7.449557,46.943651]}},{"type":"Feature","properties":{"name":"Bern, Brunnadernstrasse"},"geometry":{"type":"Point","coordinates":[7.463793,46.941005]}},{"type":"Feature","properties":{"name":"Muri bei Bern"},"geometry":{"type":"Point","coordinates":[7.485971,46.931491]}},{"type":"Feature","properties":{"name":"Ittigen bei Bern"},"geometry":{"type":"Point","coordinates":[7.484053,46.973351]}},{"type":"Feature","properties":{"name":"Wabern bei Bern"},"geometry":{"type":"Point","coordinates":[7.445273,46.928713]}},{"type":"Feature","properties":{"name":"Bern Weissenbühl"},"geometry":{"type":"Point","coordinates":[7.429828,46.935868]}},{"type":"Feature","properties":{"name":"Liebefeld"},"geometry":{"type":"Point","coordinates":[7.418988,46.930014]}},{"type":"Feature","properties":{"name":"Wabern (Gurtenbahn)"},"geometry":{"type":"Point","coordinates":[7.446028,46.927824]}},{"type":"Feature","properties":{"name":"Bern, Zytglogge"},"geometry":{"type":"Point","coordinates":[7.447865,46.948008]}},{"type":"Feature","properties":{"name":"Bern, Inselplatz"},"geometry":{"type":"Point","coordinates":[7.427491,46.948211]}},{"type":"Feature","properties":{"name":"Bern, Weyermannshaus"},"geometry":{"type":"Point","coordinates":[7.409498,46.949504]}},{"type":"Feature","properties":{"name":"Bern, Bethlehem Kirche"},"geometry":{"type":"Point","coordinates":[7.393812,46.949204]}},{"type":"Feature","properties":{"name":"Eymatt b. Bern, Camping"},"geometry":{"type":"Point","coordinates":[7.385178,46.961872]}},{"type":"Feature","properties":{"name":"Hinterkappelen, Bennenboden"},"geometry":{"type":"Point","coordinates":[7.368584,46.970121]}},{"type":"Feature","properties":{"name":"Kappelenring, Nord"},"geometry":{"type":"Point","coordinates":[7.376525,46.967525]}},{"type":"Feature","properties":{"name":"Kappelenring, West"},"geometry":{"type":"Point","coordinates":[7.372405,46.966534]}},{"type":"Feature","properties":{"name":"Kappelenring, Ost"},"geometry":{"type":"Point","coordinates":[7.378429,46.965889]}},{"type":"Feature","properties":{"name":"Bern, Universität"},"geometry":{"type":"Point","coordinates":[7.435514,46.950928]}},{"type":"Feature","properties":{"name":"Bern, Mittelstrasse"},"geometry":{"type":"Point","coordinates":[7.432533,46.953193]}},{"type":"Feature","properties":{"name":"Bern, Länggasse"},"geometry":{"type":"Point","coordinates":[7.426395,46.955921]}},{"type":"Feature","properties":{"name":"Herrenschwanden, Halenbrücke"},"geometry":{"type":"Point","coordinates":[7.417711,46.972992]}},{"type":"Feature","properties":{"name":"Herrenschwanden, Mööslimatt"},"geometry":{"type":"Point","coordinates":[7.421275,46.975707]}},{"type":"Feature","properties":{"name":"Bern, Eigerplatz"},"geometry":{"type":"Point","coordinates":[7.431195,46.941094]}},{"type":"Feature","properties":{"name":"Wabern, Tram-Endstation"},"geometry":{"type":"Point","coordinates":[7.452837,46.928011]}},{"type":"Feature","properties":{"name":"Liebefeld, Hessstrasse"},"geometry":{"type":"Point","coordinates":[7.422675,46.932487]}},{"type":"Feature","properties":{"name":"Köniz, Brühlplatz"},"geometry":{"type":"Point","coordinates":[7.417086,46.926326]}},{"type":"Feature","properties":{"name":"Bern, Holenacker"},"geometry":{"type":"Point","coordinates":[7.382422,46.948691]}},{"type":"Feature","properties":{"name":"Bern, Bachmätteli"},"geometry":{"type":"Point","coordinates":[7.390686,46.940084]}},{"type":"Feature","properties":{"name":"Bern, Niederbottigen"},"geometry":{"type":"Point","coordinates":[7.371827,46.93771]}},{"type":"Feature","properties":{"name":"Bern, Chäs und Brot"},"geometry":{"type":"Point","coordinates":[7.355579,46.935688]}},{"type":"Feature","properties":{"name":"Bern, Oberbottigen Flühli"},"geometry":{"type":"Point","coordinates":[7.340826,46.937191]}},{"type":"Feature","properties":{"name":"Frauenkappelen, Hübeli"},"geometry":{"type":"Point","coordinates":[7.351388,46.951983]}},{"type":"Feature","properties":{"name":"Gümligen, Seidenberg"},"geometry":{"type":"Point","coordinates":[7.490809,46.932736]}},{"type":"Feature","properties":{"name":"Niederwangen, Papillon"},"geometry":{"type":"Point","coordinates":[7.38632,46.927963]}},{"type":"Feature","properties":{"name":"Niederwangen, Tubetränki"},"geometry":{"type":"Point","coordinates":[7.389395,46.926517]}},{"type":"Feature","properties":{"name":"Niederwangen, Schule Ried"},"geometry":{"type":"Point","coordinates":[7.385526,46.925676]}},{"type":"Feature","properties":{"name":"Rosshäusern, Bahnhof"},"geometry":{"type":"Point","coordinates":[7.296934,46.93425]}},{"type":"Feature","properties":{"name":"Bern Tiefenau, Bahnhof"},"geometry":{"type":"Point","coordinates":[7.450474,46.972963]}},{"type":"Feature","properties":{"name":"Bern Felsenau, Bahnhof"},"geometry":{"type":"Point","coordinates":[7.443988,46.968296]}},{"type":"Feature","properties":{"name":"Bern, Bahnhof"},"geometry":{"type":"Point","coordinates":[7.44023,46.947709]}},{"type":"Feature","properties":{"name":"Steinibach, Bahnhof"},"geometry":{"type":"Point","coordinates":[7.457239,46.983687]}},{"type":"Feature","properties":{"name":"Worblaufen, Bahnhof"},"geometry":{"type":"Point","coordinates":[7.458616,46.978747]}},{"type":"Feature","properties":{"name":"Worblaufen, Sandhof"},"geometry":{"type":"Point","coordinates":[7.464605,46.977462]}},{"type":"Feature","properties":{"name":"Bern, Löchligut"},"geometry":{"type":"Point","coordinates":[7.469653,46.970302]}},{"type":"Feature","properties":{"name":"Bern, Wankdorf City"},"geometry":{"type":"Point","coordinates":[7.459664,46.966986]}},{"type":"Feature","properties":{"name":"Bern, Stauffacherbrücke"},"geometry":{"type":"Point","coordinates":[7.455451,46.966134]}},{"type":"Feature","properties":{"name":"Bern, Winkelriedstrasse"},"geometry":{"type":"Point","coordinates":[7.454822,46.96321]}},{"type":"Feature","properties":{"name":"Bern, Guisanplatz Expo"},"geometry":{"type":"Point","coordinates":[7.464062,46.958849]}},{"type":"Feature","properties":{"name":"Bern, Kasernenstrasse"},"geometry":{"type":"Point","coordinates":[7.460508,46.954994]}},{"type":"Feature","properties":{"name":"Ittigen, Eyfeld"},"geometry":{"type":"Point","coordinates":[7.472052,46.971743]}},{"type":"Feature","properties":{"name":"Ittigen, Schermenwaldstrasse"},"geometry":{"type":"Point","coordinates":[7.470866,46.968414]}},{"type":"Feature","properties":{"name":"Bern, Wankdorfplatz"},"geometry":{"type":"Point","coordinates":[7.467884,46.964587]}},{"type":"Feature","properties":{"name":"Bern, Markuskirche"},"geometry":{"type":"Point","coordinates":[7.45667,46.963671]}},{"type":"Feature","properties":{"name":"Bern, UPD Waldau"},"geometry":{"type":"Point","coordinates":[7.480303,46.963842]}},{"type":"Feature","properties":{"name":"Bern, Schermenweg"},"geometry":{"type":"Point","coordinates":[7.479463,46.960324]}},{"type":"Feature","properties":{"name":"Bern, Zent"},"geometry":{"type":"Point","coordinates":[7.47534,46.957453]}},{"type":"Feature","properties":{"name":"Ostermundigen, Waldeck"},"geometry":{"type":"Point","coordinates":[7.477246,46.954404]}},{"type":"Feature","properties":{"name":"Ostermundigen, Bahnhof"},"geometry":{"type":"Point","coordinates":[7.482284,46.955972]}},{"type":"Feature","properties":{"name":"Ostermundigen, Zollgasse"},"geometry":{"type":"Point","coordinates":[7.487338,46.956861]}},{"type":"Feature","properties":{"name":"Ostermundigen, Hubel"},"geometry":{"type":"Point","coordinates":[7.490719,46.95305]}},{"type":"Feature","properties":{"name":"Ostermundigen, Dennigkofen"},"geometry":{"type":"Point","coordinates":[7.489308,46.949334]}},{"type":"Feature","properties":{"name":"Ostermundigen, Freibad"},"geometry":{"type":"Point","coordinates":[7.491491,46.94636]}},{"type":"Feature","properties":{"name":"Gümligen, Rütibühl"},"geometry":{"type":"Point","coordinates":[7.496405,46.942539]}},{"type":"Feature","properties":{"name":"Gümligen, Amselweg"},"geometry":{"type":"Point","coordinates":[7.498094,46.941883]}},{"type":"Feature","properties":{"name":"Gümligen, Meisenweg"},"geometry":{"type":"Point","coordinates":[7.500124,46.940276]}},{"type":"Feature","properties":{"name":"Gümligen, Melchenbühl (Bus)"},"geometry":{"type":"Point","coordinates":[7.498395,46.935373]}},{"type":"Feature","properties":{"name":"Muri b. Bern, Villette"},"geometry":{"type":"Point","coordinates":[7.482445,46.934056]}},{"type":"Feature","properties":{"name":"Bern, Hauptbahnhof"},"geometry":{"type":"Point","coordinates":[7.438603,46.948943]}},{"type":"Feature","properties":{"name":"Liebefeld, Steinhölzli"},"geometry":{"type":"Point","coordinates":[7.431843,46.931157]}},{"type":"Feature","properties":{"name":"Bern Bümpliz Nord, Bahnhof"},"geometry":{"type":"Point","coordinates":[7.390209,46.945642]}},{"type":"Feature","properties":{"name":"Bern, Obergericht"},"geometry":{"type":"Point","coordinates":[7.436362,46.949967]}},{"type":"Feature","properties":{"name":"Hinterkappelen, Post"},"geometry":{"type":"Point","coordinates":[7.378669,46.968016]}},{"type":"Feature","properties":{"name":"Frauenkappelen, Kirche"},"geometry":{"type":"Point","coordinates":[7.338683,46.954189]}},{"type":"Feature","properties":{"name":"Bern, Oberbottigen Dorf"},"geometry":{"type":"Point","coordinates":[7.34965,46.935513]}},{"type":"Feature","properties":{"name":"Bern, Hirschengraben"},"geometry":{"type":"Point","coordinates":[7.437515,46.946686]}},{"type":"Feature","properties":{"name":"Bern, Kocherpark"},"geometry":{"type":"Point","coordinates":[7.43415,46.945878]}},{"type":"Feature","properties":{"name":"Bern, Bümpliz Unterführung"},"geometry":{"type":"Point","coordinates":[7.400501,46.94233]}},{"type":"Feature","properties":{"name":"Bern, Bümpliz Höhe"},"geometry":{"type":"Point","coordinates":[7.397087,46.942279]}},{"type":"Feature","properties":{"name":"Bern, Bümpliz Post"},"geometry":{"type":"Point","coordinates":[7.392871,46.941544]}},{"type":"Feature","properties":{"name":"Bern, Statthalterstrasse"},"geometry":{"type":"Point","coordinates":[7.385981,46.93947]}},{"type":"Feature","properties":{"name":"Bern, Bremgartenfriedhof"},"geometry":{"type":"Point","coordinates":[7.424978,46.949786]}},{"type":"Feature","properties":{"name":"Bern, Bethlehem Säge"},"geometry":{"type":"Point","coordinates":[7.395078,46.94741]}},{"type":"Feature","properties":{"name":"Hinterkappelen, Bernstrasse"},"geometry":{"type":"Point","coordinates":[7.377342,46.967898]}},{"type":"Feature","properties":{"name":"Hinterkappelen, Schlossmatt"},"geometry":{"type":"Point","coordinates":[7.394057,46.968568]}},{"type":"Feature","properties":{"name":"Hinterkappelen, Aumatt"},"geometry":{"type":"Point","coordinates":[7.388288,46.967792]}},{"type":"Feature","properties":{"name":"Bern Riedbach, Bahnhof"},"geometry":{"type":"Point","coordinates":[7.335277,46.941226]}},{"type":"Feature","properties":{"name":"Bern Felsenau"},"geometry":{"type":"Point","coordinates":[7.444255,46.968604]}},{"type":"Feature","properties":{"name":"Bern Tiefenau"},"geometry":{"type":"Point","coordinates":[7.450094,46.972689]}},{"type":"Feature","properties":{"name":"Steinibach"},"geometry":{"type":"Point","coordinates":[7.457387,46.98435]}},{"type":"Feature","properties":{"name":"Worblaufen"},"geometry":{"type":"Point","coordinates":[7.457677,46.97882]}},{"type":"Feature","properties":{"name":"Wabern, Eichholz"},"geometry":{"type":"Point","coordinates":[7.451647,46.928841]}},{"type":"Feature","properties":{"name":"Bern, Breitenrain"},"geometry":{"type":"Point","coordinates":[7.454809,46.95896]}},{"type":"Feature","properties":{"name":"Bern Europaplatz, Bahnhof"},"geometry":{"type":"Point","coordinates":[7.406397,46.943221]}},{"type":"Feature","properties":{"name":"Bern, Riedernrain"},"geometry":{"type":"Point","coordinates":[7.369453,46.947523]}},{"type":"Feature","properties":{"name":"Bern, Schanzenstrasse"},"geometry":{"type":"Point","coordinates":[7.437186,46.94794]}},{"type":"Feature","properties":{"name":"Bern, Untermattweg"},"geometry":{"type":"Point","coordinates":[7.399489,46.949431]}},{"type":"Feature","properties":{"name":"Bern, Bümpliz Schloss"},"geometry":{"type":"Point","coordinates":[7.3912,46.943804]}},{"type":"Feature","properties":{"name":"Bern Brünnen Westside, Bahnhof"},"geometry":{"type":"Point","coordinates":[7.375134,46.944299]}},{"type":"Feature","properties":{"name":"Bern, Bodenweid"},"geometry":{"type":"Point","coordinates":[7.399405,46.9399]}},{"type":"Feature","properties":{"name":"Bern, Weidmatt"},"geometry":{"type":"Point","coordinates":[7.393572,46.935575]}},{"type":"Feature","properties":{"name":"Bern, Chueweid"},"geometry":{"type":"Point","coordinates":[7.390712,46.933684]}},{"type":"Feature","properties":{"name":"Bern, Hüsliacker"},"geometry":{"type":"Point","coordinates":[7.383586,46.931852]}},{"type":"Feature","properties":{"name":"Niederwangen, Hallmatt Parc"},"geometry":{"type":"Point","coordinates":[7.378322,46.93085]}},{"type":"Feature","properties":{"name":"Niederwangen, Riedmoosstrasse"},"geometry":{"type":"Point","coordinates":[7.375486,46.927773]}},{"type":"Feature","properties":{"name":"Niederwangen, Riedmoosbrücke"},"geometry":{"type":"Point","coordinates":[7.378199,46.926713]}},{"type":"Feature","properties":{"name":"Bern, Forsthaus"},"geometry":{"type":"Point","coordinates":[7.417564,46.951977]}},{"type":"Feature","properties":{"name":"Bern, Melchiorstrasse"},"geometry":{"type":"Point","coordinates":[7.391931,46.951928]}},{"type":"Feature","properties":{"name":"Bern, Lindenhofspital"},"geometry":{"type":"Point","coordinates":[7.427152,46.9591]}},{"type":"Feature","properties":{"name":"Bern, Schosshalde"},"geometry":{"type":"Point","coordinates":[7.465834,46.94747]}},{"type":"Feature","properties":{"name":"Bern, Ostring"},"geometry":{"type":"Point","coordinates":[7.471612,46.94517]}},{"type":"Feature","properties":{"name":"Bern, Burgernziel"},"geometry":{"type":"Point","coordinates":[7.467072,46.942074]}},{"type":"Feature","properties":{"name":"Bern, Salem"},"geometry":{"type":"Point","coordinates":[7.454729,46.953812]}},{"type":"Feature","properties":{"name":"Bern, Schönburg"},"geometry":{"type":"Point","coordinates":[7.457535,46.953581]}},{"type":"Feature","properties":{"name":"Bern, Rosengarten"},"geometry":{"type":"Point","coordinates":[7.46144,46.951942]}},{"type":"Feature","properties":{"name":"Bern, Weltpostverein"},"geometry":{"type":"Point","coordinates":[7.471854,46.938891]}},{"type":"Feature","properties":{"name":"Bremgarten BE, Schloss"},"geometry":{"type":"Point","coordinates":[7.441383,46.977475]}},{"type":"Feature","properties":{"name":"Bremgarten BE, Seftau"},"geometry":{"type":"Point","coordinates":[7.436694,46.970419]}},{"type":"Feature","properties":{"name":"Wabern, Gurtenbahn"},"geometry":{"type":"Point","coordinates":[7.44795,46.929825]}},{"type":"Feature","properties":{"name":"Bern, Wankdorf Center"},"geometry":{"type":"Point","coordinates":[7.465901,46.961812]}},{"type":"Feature","properties":{"name":"Bern, Aegertenstrasse"},"geometry":{"type":"Point","coordinates":[7.448148,46.940468]}},{"type":"Feature","properties":{"name":"Bern, Bärenplatz"},"geometry":{"type":"Point","coordinates":[7.442964,46.948142]}},{"type":"Feature","properties":{"name":"Bern, Bollwerk"},"geometry":{"type":"Point","coordinates":[7.441306,46.951473]}},{"type":"Feature","properties":{"name":"Bern, Breitfeld"},"geometry":{"type":"Point","coordinates":[7.452229,46.962541]}},{"type":"Feature","properties":{"name":"Bern, Gewerbeschule"},"geometry":{"type":"Point","coordinates":[7.446315,46.954821]}},{"type":"Feature","properties":{"name":"Bern, Lorraine"},"geometry":{"type":"Point","coordinates":[7.446982,46.957597]}},{"type":"Feature","properties":{"name":"Bern, Luternauweg"},"geometry":{"type":"Point","coordinates":[7.466863,46.935042]}},{"type":"Feature","properties":{"name":"Bern, Manuelstrasse"},"geometry":{"type":"Point","coordinates":[7.470483,46.934163]}},{"type":"Feature","properties":{"name":"Bern, Morgartenstrasse"},"geometry":{"type":"Point","coordinates":[7.459779,46.964413]}},{"type":"Feature","properties":{"name":"Bern, Parkstrasse"},"geometry":{"type":"Point","coordinates":[7.459059,46.959615]}},{"type":"Feature","properties":{"name":"Bern, Petruskirche"},"geometry":{"type":"Point","coordinates":[7.462634,46.938941]}},{"type":"Feature","properties":{"name":"Bern, Saali"},"geometry":{"type":"Point","coordinates":[7.485422,46.937665]}},{"type":"Feature","properties":{"name":"Bern, Thunplatz"},"geometry":{"type":"Point","coordinates":[7.458112,46.940465]}},{"type":"Feature","properties":{"name":"Bern, Willadingweg"},"geometry":{"type":"Point","coordinates":[7.464698,46.936673]}},{"type":"Feature","properties":{"name":"Bern, Wittigkofen"},"geometry":{"type":"Point","coordinates":[7.481504,46.937898]}},{"type":"Feature","properties":{"name":"Bern, Wyler"},"geometry":{"type":"Point","coordinates":[7.463668,46.965329]}},{"type":"Feature","properties":{"name":"Bern, Wyleregg"},"geometry":{"type":"Point","coordinates":[7.448727,46.960881]}},{"type":"Feature","properties":{"name":"Bremgarten BE, Aeschebrunnmatt"},"geometry":{"type":"Point","coordinates":[7.442075,46.987089]}},{"type":"Feature","properties":{"name":"Bremgarten BE, Chutze"},"geometry":{"type":"Point","coordinates":[7.437934,46.972987]}},{"type":"Feature","properties":{"name":"Bremgarten BE, Friedhagweg"},"geometry":{"type":"Point","coordinates":[7.440233,46.980244]}},{"type":"Feature","properties":{"name":"Bremgarten BE, Kalchacker"},"geometry":{"type":"Point","coordinates":[7.437925,46.975488]}},{"type":"Feature","properties":{"name":"Bremgarten BE, Ländli"},"geometry":{"type":"Point","coordinates":[7.433379,46.972803]}},{"type":"Feature","properties":{"name":"Bremgarten BE, Oeschenweg"},"geometry":{"type":"Point","coordinates":[7.439919,46.982377]}},{"type":"Feature","properties":{"name":"Ittigen, Bahnhof"},"geometry":{"type":"Point","coordinates":[7.483972,46.973569]}},{"type":"Feature","properties":{"name":"Ittigen, Talgut-Zentrum"},"geometry":{"type":"Point","coordinates":[7.484565,46.973925]}},{"type":"Feature","properties":{"name":"Reichenbach b. B., Känelgasse"},"geometry":{"type":"Point","coordinates":[7.445695,46.989669]}},{"type":"Feature","properties":{"name":"Steinibach BE, Aarestrasse"},"geometry":{"type":"Point","coordinates":[7.456376,46.985269]}},{"type":"Feature","properties":{"name":"Thoracker, Schürmatt"},"geometry":{"type":"Point","coordinates":[7.491622,46.935553]}},{"type":"Feature","properties":{"name":"Bern Bümpliz Süd, Bahnhof"},"geometry":{"type":"Point","coordinates":[7.395527,46.93757]}},{"type":"Feature","properties":{"name":"Niederwangen, Bahnhof"},"geometry":{"type":"Point","coordinates":[7.377326,46.925689]}},{"type":"Feature","properties":{"name":"Liebefeld, Thomasweg"},"geometry":{"type":"Point","coordinates":[7.416117,46.931067]}},{"type":"Feature","properties":{"name":"Worblaufen, Bahnhofplatz"},"geometry":{"type":"Point","coordinates":[7.457003,46.979631]}},{"type":"Feature","properties":{"name":"Bern, Monbijou"},"geometry":{"type":"Point","coordinates":[7.43588,46.943591]}},{"type":"Feature","properties":{"name":"Bern, Sulgenau"},"geometry":{"type":"Point","coordinates":[7.436198,46.940033]}},{"type":"Feature","properties":{"name":"Bern, Wander"},"geometry":{"type":"Point","coordinates":[7.436322,46.936802]}},{"type":"Feature","properties":{"name":"Bern, Zieglerspital"},"geometry":{"type":"Point","coordinates":[7.433424,46.932494]}},{"type":"Feature","properties":{"name":"Spiegel, Hohliebe"},"geometry":{"type":"Point","coordinates":[7.434329,46.92867]}},{"type":"Feature","properties":{"name":"Spiegel, Spiegel"},"geometry":{"type":"Point","coordinates":[7.435663,46.926724]}},{"type":"Feature","properties":{"name":"Bern, Bitziusstrasse"},"geometry":{"type":"Point","coordinates":[7.469234,46.949373]}},{"type":"Feature","properties":{"name":"Bern, Aeussere Enge"},"geometry":{"type":"Point","coordinates":[7.441946,46.965862]}},{"type":"Feature","properties":{"name":"Bern, Steigerhubel"},"geometry":{"type":"Point","coordinates":[7.411598,46.943937]}},{"type":"Feature","properties":{"name":"Bern, Luisenstrasse"},"geometry":{"type":"Point","coordinates":[7.453259,46.942371]}},{"type":"Feature","properties":{"name":"Bern, Pillonweg"},"geometry":{"type":"Point","coordinates":[7.447779,46.96728]}},{"type":"Feature","properties":{"name":"Bern, Kaufmännischer Verband"},"geometry":{"type":"Point","coordinates":[7.427516,46.945673]}},{"type":"Feature","properties":{"name":"Bern, Brunnhof"},"geometry":{"type":"Point","coordinates":[7.427051,46.944463]}},{"type":"Feature","properties":{"name":"Bern, Cäcilienstrasse"},"geometry":{"type":"Point","coordinates":[7.425507,46.941564]}},{"type":"Feature","properties":{"name":"Bern, Pestalozzi"},"geometry":{"type":"Point","coordinates":[7.423716,46.940264]}},{"type":"Feature","properties":{"name":"Bern, Munzinger"},"geometry":{"type":"Point","coordinates":[7.421941,46.940186]}},{"type":"Feature","properties":{"name":"Bern, Fischermätteli"},"geometry":{"type":"Point","coordinates":[7.418407,46.940783]}},{"type":"Feature","properties":{"name":"Bern, Hasler"},"geometry":{"type":"Point","coordinates":[7.432021,46.944028]}},{"type":"Feature","properties":{"name":"Bern, Beaumont"},"geometry":{"type":"Point","coordinates":[7.432194,46.937491]}},{"type":"Feature","properties":{"name":"Bern, Haldenstrasse"},"geometry":{"type":"Point","coordinates":[7.445466,46.963004]}},{"type":"Feature","properties":{"name":"Bern, Grimselstrasse"},"geometry":{"type":"Point","coordinates":[7.44755,46.963927]}},{"type":"Feature","properties":{"name":"Bern, Sonnenhof"},"geometry":{"type":"Point","coordinates":[7.469653,46.943358]}},{"type":"Feature","properties":{"name":"Bern, Kursaal"},"geometry":{"type":"Point","coordinates":[7.449672,46.95303]}},{"type":"Feature","properties":{"name":"Bern, Viktoriaplatz"},"geometry":{"type":"Point","coordinates":[7.451367,46.95505]}},{"type":"Feature","properties":{"name":"Bern, Schönegg"},"geometry":{"type":"Point","coordinates":[7.439826,46.93404]}},{"type":"Feature","properties":{"name":"Bern, Sandrain"},"geometry":{"type":"Point","coordinates":[7.44518,46.931708]}},{"type":"Feature","properties":{"name":"Bern, Jaunweg"},"geometry":{"type":"Point","coordinates":[7.44826,46.967976]}},{"type":"Feature","properties":{"name":"Bern, Güterbahnhof"},"geometry":{"type":"Point","coordinates":[7.422687,46.95131]}},{"type":"Feature","properties":{"name":"Bern, Sustenweg"},"geometry":{"type":"Point","coordinates":[7.446796,46.965177]}},{"type":"Feature","properties":{"name":"Bern, Henkerbrünnli"},"geometry":{"type":"Point","coordinates":[7.439057,46.953931]}},{"type":"Feature","properties":{"name":"Bern, Bierhübeli"},"geometry":{"type":"Point","coordinates":[7.437916,46.956651]}},{"type":"Feature","properties":{"name":"Bern, Engeried"},"geometry":{"type":"Point","coordinates":[7.436251,46.958509]}},{"type":"Feature","properties":{"name":"Bern, Brückfeld"},"geometry":{"type":"Point","coordinates":[7.434329,46.960612]}},{"type":"Feature","properties":{"name":"Bern, Wylergut"},"geometry":{"type":"Point","coordinates":[7.450542,46.969073]}},{"type":"Feature","properties":{"name":"Bern, Rathaus"},"geometry":{"type":"Point","coordinates":[7.452253,46.948394]}},{"type":"Feature","properties":{"name":"Bern, Nydegg"},"geometry":{"type":"Point","coordinates":[7.456268,46.948623]}},{"type":"Feature","properties":{"name":"Bern, Bärenpark"},"geometry":{"type":"Point","coordinates":[7.459511,46.948406]}},{"type":"Feature","properties":{"name":"Bern, Liebegg"},"geometry":{"type":"Point","coordinates":[7.459026,46.944671]}},{"type":"Feature","properties":{"name":"Bern, Seminar"},"geometry":{"type":"Point","coordinates":[7.461477,46.944887]}},{"type":"Feature","properties":{"name":"Bern, Tavelweg"},"geometry":{"type":"Point","coordinates":[7.464281,46.946349]}},{"type":"Feature","properties":{"name":"Bern, Unitobler"},"geometry":{"type":"Point","coordinates":[7.429701,46.954885]}},{"type":"Feature","properties":{"name":"Bern, Dändlikerweg"},"geometry":{"type":"Point","coordinates":[7.44596,46.963908]}},{"type":"Feature","properties":{"name":"Bern, Loryplatz"},"geometry":{"type":"Point","coordinates":[7.421162,46.944463]}},{"type":"Feature","properties":{"name":"Bern, Schlossmatte"},"geometry":{"type":"Point","coordinates":[7.414964,46.944174]}},{"type":"Feature","properties":{"name":"Bern, Stöckacker (Tram)"},"geometry":{"type":"Point","coordinates":[7.399007,46.944677]}},{"type":"Feature","properties":{"name":"Bern, Bümpliz"},"geometry":{"type":"Point","coordinates":[7.380668,46.937684]}},{"type":"Feature","properties":{"name":"Bern, Gäbelbach"},"geometry":{"type":"Point","coordinates":[7.377543,46.947809]}},{"type":"Feature","properties":{"name":"Bern, Tscharnergut"},"geometry":{"type":"Point","coordinates":[7.388275,46.948876]}},{"type":"Feature","properties":{"name":"Bern, Blumenfeld"},"geometry":{"type":"Point","coordinates":[7.391257,46.948514]}},{"type":"Feature","properties":{"name":"Bern, Bundesplatz"},"geometry":{"type":"Point","coordinates":[7.443887,46.947059]}},{"type":"Feature","properties":{"name":"Bern, Galgenfeld"},"geometry":{"type":"Point","coordinates":[7.466982,46.952539]}},{"type":"Feature","properties":{"name":"Bern, Schosshaldenfriedhof"},"geometry":{"type":"Point","coordinates":[7.473019,46.953743]}},{"type":"Feature","properties":{"name":"Bern, Weissensteinstrasse"},"geometry":{"type":"Point","coordinates":[7.428421,46.939053]}},{"type":"Feature","properties":{"name":"Bern, Dübystrasse"},"geometry":{"type":"Point","coordinates":[7.42516,46.936228]}},{"type":"Feature","properties":{"name":"Liebefeld, Sportweg"},"geometry":{"type":"Point","coordinates":[7.41703,46.932915]}},{"type":"Feature","properties":{"name":"Liebefeld, Neuhausplatz"},"geometry":{"type":"Point","coordinates":[7.416426,46.92913]}},{"type":"Feature","properties":{"name":"Liebefeld, Liebefeld Park"},"geometry":{"type":"Point","coordinates":[7.420614,46.930915]}},{"type":"Feature","properties":{"name":"Bern, Ka-We-De"},"geometry":{"type":"Point","coordinates":[7.447375,46.936821]}},{"type":"Feature","properties":{"name":"Bern, Tierpark"},"geometry":{"type":"Point","coordinates":[7.450519,46.938334]}},{"type":"Feature","properties":{"name":"Bern, Tillierstrasse"},"geometry":{"type":"Point","coordinates":[7.447435,46.939239]}},{"type":"Feature","properties":{"name":"Bern, Elfenau"},"geometry":{"type":"Point","coordinates":[7.472708,46.932627]}},{"type":"Feature","properties":{"name":"Bern, Innere Enge"},"geometry":{"type":"Point","coordinates":[7.439293,46.961321]}},{"type":"Feature","properties":{"name":"Bern, Rossfeld"},"geometry":{"type":"Point","coordinates":[7.443554,46.968296]}},{"type":"Feature","properties":{"name":"Bern, Felsenaustrasse"},"geometry":{"type":"Point","coordinates":[7.441704,46.972632]}},{"type":"Feature","properties":{"name":"Bremgarten BE, Zentrum"},"geometry":{"type":"Point","coordinates":[7.437233,46.975651]}},{"type":"Feature","properties":{"name":"Bremgarten BE, Kunoweg"},"geometry":{"type":"Point","coordinates":[7.434269,46.975496]}},{"type":"Feature","properties":{"name":"Bremgarten BE, Stuckishaus"},"geometry":{"type":"Point","coordinates":[7.427145,46.975209]}},{"type":"Feature","properties":{"name":"Ostermundigen, Oberdorf"},"geometry":{"type":"Point","coordinates":[7.485488,46.95418]}},{"type":"Feature","properties":{"name":"Ostermundigen, Waldheimstrasse"},"geometry":{"type":"Point","coordinates":[7.485173,46.950853]}},{"type":"Feature","properties":{"name":"Ostermundigen, Tiefenmösli"},"geometry":{"type":"Point","coordinates":[7.483903,46.947778]}},{"type":"Feature","properties":{"name":"Bern, Hardegg Vidmar"},"geometry":{"type":"Point","coordinates":[7.416698,46.937888]}},{"type":"Feature","properties":{"name":"Bern, Fährstrasse"},"geometry":{"type":"Point","coordinates":[7.441647,46.975421]}},{"type":"Feature","properties":{"name":"Bern, Neufeld P+R"},"geometry":{"type":"Point","coordinates":[7.431928,46.963081]}},{"type":"Feature","properties":{"name":"Bern, Monbijoubrücke"},"geometry":{"type":"Point","coordinates":[7.440641,46.939797]}},{"type":"Feature","properties":{"name":"Bern, Ramuzstrasse"},"geometry":{"type":"Point","coordinates":[7.375064,46.946337]}},{"type":"Feature","properties":{"name":"Bern, Wylerbad"},"geometry":{"type":"Point","coordinates":[7.450953,46.964857]}},{"type":"Feature","properties":{"name":"Bern, Schützenweg"},"geometry":{"type":"Point","coordinates":[7.453723,46.960888]}},{"type":"Feature","properties":{"name":"Bern, Schulhaus Wylergut"},"geometry":{"type":"Point","coordinates":[7.449643,46.964647]}},{"type":"Feature","properties":{"name":"Bern, Hohliebi"},"geometry":{"type":"Point","coordinates":[7.384972,46.930306]}},{"type":"Feature","properties":{"name":"Niederwangen, Guetmatt"},"geometry":{"type":"Point","coordinates":[7.381241,46.928222]}},{"type":"Feature","properties":{"name":"Bern, Hallmattstrasse"},"geometry":{"type":"Point","coordinates":[7.386188,46.932054]}},{"type":"Feature","properties":{"name":"Bern, Technologiepark"},"geometry":{"type":"Point","coordinates":[7.390435,46.935665]}},{"type":"Feature","properties":{"name":"Bern, Wylerhuus"},"geometry":{"type":"Point","coordinates":[7.451615,46.96336]}},{"type":"Feature","properties":{"name":"Bern, Scheibenrain"},"geometry":{"type":"Point","coordinates":[7.450856,46.966171]}},{"type":"Feature","properties":{"name":"Ostermundigen, Milchstrasse"},"geometry":{"type":"Point","coordinates":[7.482748,46.960534]}},{"type":"Feature","properties":{"name":"Bern, Spital Sonnenhof"},"geometry":{"type":"Point","coordinates":[7.473504,46.943132]}},{"type":"Feature","properties":{"name":"Bern, Giacomettistrasse"},"geometry":{"type":"Point","coordinates":[7.473244,46.945246]}},{"type":"Feature","properties":{"name":"Bern, Weltistrasse"},"geometry":{"type":"Point","coordinates":[7.477822,46.946168]}},{"type":"Feature","properties":{"name":"Bern, Dunkerstrasse"},"geometry":{"type":"Point","coordinates":[7.480014,46.944279]}},{"type":"Feature","properties":{"name":"Bern, Dennigkofengässli"},"geometry":{"type":"Point","coordinates":[7.483233,46.944886]}},{"type":"Feature","properties":{"name":"Liebefeld, Steinhölzli Märit"},"geometry":{"type":"Point","coordinates":[7.42866,46.930703]}},{"type":"Feature","properties":{"name":"Liebefeld, Lerbermatt"},"geometry":{"type":"Point","coordinates":[7.435826,46.930915]}},{"type":"Feature","properties":{"name":"Wabern, Morillon"},"geometry":{"type":"Point","coordinates":[7.443773,46.929946]}},{"type":"Feature","properties":{"name":"Wabern, Camping Eichholz"},"geometry":{"type":"Point","coordinates":[7.45431,46.930453]}},{"type":"Feature","properties":{"name":"Wabern, Weyerstrasse"},"geometry":{"type":"Point","coordinates":[7.45515,46.927216]}},{"type":"Feature","properties":{"name":"Bern, Brünnenstrasse"},"geometry":{"type":"Point","coordinates":[7.38699,46.943046]}},{"type":"Feature","properties":{"name":"Bern, Stapfenacker"},"geometry":{"type":"Point","coordinates":[7.384185,46.944473]}},{"type":"Feature","properties":{"name":"Wabern, Weyergut"},"geometry":{"type":"Point","coordinates":[7.457251,46.929271]}},{"type":"Feature","properties":{"name":"Bern, Dalmazibrücke"},"geometry":{"type":"Point","coordinates":[7.445007,46.944916]}},{"type":"Feature","properties":{"name":"Bern, Mühlenplatz"},"geometry":{"type":"Point","coordinates":[7.456816,46.94762]}},{"type":"Feature","properties":{"name":"Bern, Badgasse"},"geometry":{"type":"Point","coordinates":[7.452738,46.946078]}},{"type":"Feature","properties":{"name":"Bern, Marzilistrasse"},"geometry":{"type":"Point","coordinates":[7.443661,46.943088]}},{"type":"Feature","properties":{"name":"Bern, Dampfzentrale"},"geometry":{"type":"Point","coordinates":[7.441147,46.940824]}},{"type":"Feature","properties":{"name":"Liebefeld, Sägestrasse"},"geometry":{"type":"Point","coordinates":[7.414257,46.926509]}},{"type":"Feature","properties":{"name":"Liebefeld, Neumattweg"},"geometry":{"type":"Point","coordinates":[7.415284,46.934062]}},{"type":"Feature","properties":{"name":"Bern, Läuferplatz"},"geometry":{"type":"Point","coordinates":[7.457751,46.949236]}},{"type":"Feature","properties":{"name":"Bern, Zentrum Paul Klee"},"geometry":{"type":"Point","coordinates":[7.472705,46.950775]}},{"type":"Feature","properties":{"name":"Bern Wankdorf, Bahnhof"},"geometry":{"type":"Point","coordinates":[7.464355,46.966601]}},{"type":"Feature","properties":{"name":"Niederwangen, Moos"},"geometry":{"type":"Point","coordinates":[7.376408,46.923938]}},{"type":"Feature","properties":{"name":"Bern, Riedbachstrasse"},"geometry":{"type":"Point","coordinates":[7.383961,46.946997]}},{"type":"Feature","properties":{"name":"Bern, Fellerstrasse"},"geometry":{"type":"Point","coordinates":[7.389476,46.946957]}},{"type":"Feature","properties":{"name":"Niederwangen, Brüggbühlstrasse"},"geometry":{"type":"Point","coordinates":[7.381184,46.92693]}},{"type":"Feature","properties":{"name":"Bern, Inselspital"},"geometry":{"type":"Point","coordinates":[7.425651,46.947233]}},{"type":"Feature","properties":{"name":"Bern, Inselpark"},"geometry":{"type":"Point","coordinates":[7.420962,46.946268]}},{"type":"Feature","properties":{"name":"Ostermundigen, Kreuzweg"},"geometry":{"type":"Point","coordinates":[7.487424,46.965295]}},{"type":"Feature","properties":{"name":"Bern, Gaskessel"},"geometry":{"type":"Point","coordinates":[7.441204,46.938126]}},{"type":"Feature","properties":{"name":"Bern, Wankdorfbrücke"},"geometry":{"type":"Point","coordinates":[7.469008,46.966133]}},{"type":"Feature","properties":{"name":"Bern, Weyermannshaus Bad"},"geometry":{"type":"Point","coordinates":[7.403468,46.949035]}},{"type":"Feature","properties":{"name":"Bern, Wölflistrasse"},"geometry":{"type":"Point","coordinates":[7.475331,46.96612]}},{"type":"Feature","properties":{"name":"Bern, Weissenbühl (Tram)"},"geometry":{"type":"Point","coordinates":[7.433202,46.935815]}},{"type":"Feature","properties":{"name":"Ittigen, Pulverstutz"},"geometry":{"type":"Point","coordinates":[7.473309,46.973582]}},{"type":"Feature","properties":{"name":"Bern Wankdorf, Bahnhof Nord"},"geometry":{"type":"Point","coordinates":[7.464102,46.967737]}},{"type":"Feature","properties":{"name":"Bern Weissenbühl, Bahnhof"},"geometry":{"type":"Point","coordinates":[7.430154,46.935901]}}]}