{"type":"FeatureCollection","features":[{"type":"Feature","properties":{"kind":"area"},"geometry":{"type":"Polygon","coordinates":[[[7.465671,46.945097],[7.465889,46.945172],[7.466216,46.944884],[7.46587,46.944545],[7.464459,46.943702],[7.463844,46.94399],[7.463848,46.944198],[7.464066,46.944491],[7.465329,46.945102],[7.465503,46.945031],[7.465671,46.945097]]]}},{"type":"Feature","properties":{"kind":"area"},"geometry":{"type":"Polygon","coordinates":[[[7.447501,46.933245],[7.4463,46.933819],[7.444981,46.934861],[7.444504,46.935523],[7.443908,46.937182],[7.443888,46.937675],[7.444104,46.938102],[7.445185,46.9431],[7.445838,46.942994],[7.444724,46.938081],[7.444761,46.936585],[7.445421,46.935238],[7.446213,46.93444],[7.447211,46.933875],[7.448349,46.933501],[7.448156,46.93308],[7.447501,46.933245]]]}},{"type":"Feature","properties":{"kind":"area"},"geometry":{"type":"Polygon","coordinates":[[[7.444051,46.951886],[7.442538,46.952985],[7.441697,46.953759],[7.441103,46.954578],[7.440708,46.955722],[7.440757,46.956664],[7.442419,46.961461],[7.443117,46.961371],[7.44144,46.956592],[7.441387,46.955773],[7.441706,46.954822],[7.442354,46.95391],[7.442985,46.953338],[7.444748,46.952056],[7.444394,46.951645],[7.444051,46.951886]]]}},{"type":"Feature","properties":{"kind":"area"},"geometry":{"type":"Polygon","coordinates":[[[7.444786,46.9656],[7.44531,46.96538],[7.445298,46.965281],[7.443866,46.963467],[7.443117,46.961371],[7.442419,46.961461],[7.443282,46.963964],[7.443878,46.964901],[7.44421,46.965253],[7.444589,46.965309],[7.444786,46.9656]]]}},{"type":"Feature","properties":{"kind":"area"},"geometry":{"type":"Polygon","coordinates":[[[7.389088,46.957125],[7.389484,46.957127],[7.389567,46.956994],[7.389531,46.956736],[7.389251,46.956597],[7.388989,46.956664],[7.389088,46.957125]]]}},{"type":"Feature","properties":{"kind":"area"},"geometry":{"type":"Polygon","coordinates":[[[7.371021,46.923534],[7.3715,46.923427],[7.370787,46.922997],[7.370585,46.922992],[7.370726,46.923329],[7.371021,46.923534]]]}},{"type":"Feature","properties":{"kind":"area"},"geometry":{"type":"Polygon","coordinates":[[[7.454459,46.979681],[7.455053,46.979761],[7.454854,46.980453],[7.454259,46.980373],[7.454459,46.979681]]]}},{"type":"Feature","properties":{"kind":"area"},"geometry":{"type":"Polygon","coordinates":[[[7.433184,46.972619],[7.434327,46.97149],[7.435079,46.969296],[7.435415,46.968718],[7.435926,46.968513],[7.4367,46.96846],[7.437069,46.968492],[7.437772,46.968726],[7.438596,46.969364],[7.438992,46.970115],[7.439176,46.972077],[7.439079,46.972593],[7.439196,46.972631],[7.439274,46.973783],[7.439198,46.974208],[7.439347,46.974871],[7.43946,46.974912],[7.439428,46.975137],[7.439461,46.975215],[7.439691,46.975246],[7.439579,46.975372],[7.440011,46.975976],[7.440082,46.976015],[7.440464,46.975809],[7.439818,46.974278],[7.439741,46.972145],[7.439624,46.971953],[7.439722,46.971866],[7.439648,46.970723],[7.439753,46.970137],[7.438696,46.968604],[7.438731,46.968499],[7.438185,46.968291],[7.43676,46.967988],[7.435851,46.968012],[7.435179,46.968267],[7.435035,46.968536],[7.434692,46.968655],[7.434334,46.96906],[7.434342,46.969363],[7.434164,46.969579],[7.434049,46.970198],[7.433753,46.97082],[7.43328,46.971661],[7.432694,46.97234],[7.433184,46.972619]]]}},{"type":"Feature","properties":{"kind":"area"},"geometry":{"type":"Polygon","coordinates":[[[7.37592,46.934398],[7.375732,46.934525],[7.374977,46.934226],[7.374862,46.933928],[7.37505,46.933691],[7.375809,46.933751],[7.376195,46.934209],[7.376418,46.934229],[7.376328,46.934411],[7.37592,46.934398]]]}},{"type":"Feature","properties":{"kind":"area"},"geometry":{"type":"Polygon","coordinates":[[[7.463549,46.929482],[7.463615,46.929674],[7.462522,46.930444],[7.463174,46.929656],[7.463549,46.929482]]]}},{"type":"Feature","properties":{"kind":"area"},"geometry":{"type":"Polygon","coordinates":[[[7.497421,46.920885],[7.497621,46.920898],[7.498366,46.920573],[7.498556,46.920289],[7.499125,46.920063],[7.499274,46.919938],[7.499243,46.919777],[7.499345,46.919765],[7.49923,46.92009],[7.498646,46.920305],[7.498378,46.920646],[7.497565,46.920968],[7.49739,46.920939],[7.496888,46.92107],[7.495613,46.921826],[7.494276,46.922258],[7.494257,46.92217],[7.494552,46.922153],[7.495618,46.921776],[7.49682,46.920985],[7.497251,46.920938],[7.497334,46.920813],[7.497421,46.920885]]]}},{"type":"Feature","properties":{"kind":"area"},"geometry":{"type":"Polygon","coordinates":[[[7.427432,46.984747],[7.426201,46.984955],[7.42505,46.98424],[7.4251,46.984027],[7.425838,46.983466],[7.426013,46.983452],[7.426009,46.983304],[7.426379,46.983217],[7.426884,46.983241],[7.427217,46.983429],[7.427416,46.983775],[7.427958,46.984169],[7.42783,46.984505],[7.427655,46.984611],[7.427494,46.984593],[7.427432,46.984747]]]}},{"type":"Feature","properties":{"kind":"area"},"geometry":{"type":"Polygon","coordinates":[[[7.47049,46.927168],[7.47076,46.926867],[7.470618,46.92728],[7.47048,46.92726],[7.470133,46.927762],[7.46957,46.928174],[7.469439,46.928446],[7.468966,46.92873],[7.467645,46.929223],[7.467595,46.929397],[7.465977,46.930035],[7.464054,46.930557],[7.464529,46.930164],[7.466881,46.928724],[7.467363,46.928672],[7.468038,46.928309],[7.469095,46.927523],[7.469209,46.927628],[7.468506,46.928024],[7.468235,46.928282],[7.468278,46.928353],[7.467908,46.928514],[7.467612,46.928795],[7.467975,46.928907],[7.469021,46.928644],[7.469689,46.928069],[7.469665,46.92798],[7.470027,46.927768],[7.470184,46.927436],[7.47049,46.927168]]]}},{"type":"Feature","properties":{"kind":"area"},"geometry":{"type":"Polygon","coordinates":[[[7.455993,46.934618],[7.45715,46.934988],[7.458084,46.935076],[7.459141,46.934939],[7.45997,46.934666],[7.460492,46.934371],[7.460943,46.933956],[7.461566,46.932853],[7.46193,46.932692],[7.46221,46.931993],[7.462548,46.931513],[7.461978,46.931218],[7.460371,46.933792],[7.459724,46.934292],[7.458711,46.934588],[7.457785,46.934611],[7.456711,46.934437],[7.45538,46.933761],[7.455094,46.93375],[7.453182,46.93296],[7.452382,46.932775],[7.450151,46.932759],[7.448156,46.93308],[7.448349,46.933501],[7.449477,46.933316],[7.449556,46.933567],[7.449756,46.933636],[7.450217,46.933489],[7.4504,46.933538],[7.450702,46.93344],[7.451851,46.933342],[7.451967,46.933159],[7.452723,46.933267],[7.455993,46.934618]]]}},{"type":"Feature","properties":{"kind":"area"},"geometry":{"type":"Polygon","coordinates":[[[7.447199,46.974763],[7.446077,46.974558],[7.445213,46.974626],[7.444896,46.974847],[7.444954,46.975159],[7.444653,46.97538],[7.444441,46.976093],[7.443823,46.976484],[7.443611,46.976524],[7.443251,46.97648],[7.443762,46.976073],[7.442899,46.976604],[7.441868,46.976731],[7.441378,46.976614],[7.440464,46.975809],[7.440082,46.976015],[7.441326,46.977022],[7.442207,46.977163],[7.44351,46.977024],[7.445106,46.97594],[7.445477,46.975468],[7.445442,46.975278],[7.445573,46.975234],[7.445684,46.975309],[7.445543,46.975151],[7.445639,46.974959],[7.445955,46.974806],[7.446856,46.974991],[7.447678,46.97537],[7.448217,46.975806],[7.448595,46.976484],[7.448595,46.977231],[7.448222,46.978233],[7.447581,46.978909],[7.447236,46.978979],[7.446779,46.97893],[7.445432,46.978169],[7.443981,46.97786],[7.442727,46.978123],[7.441545,46.978726],[7.441135,46.979243],[7.441095,46.979462],[7.441196,46.979573],[7.441153,46.979731],[7.440896,46.97992],[7.440924,46.980094],[7.441062,46.980329],[7.442466,46.981413],[7.444382,46.982561],[7.44575,46.98365],[7.447002,46.985068],[7.447147,46.985388],[7.447044,46.985661],[7.447282,46.985389],[7.447448,46.985576],[7.447581,46.985848],[7.447519,46.986387],[7.447344,46.986768],[7.447164,46.986705],[7.44708,46.986419],[7.446944,46.986452],[7.446824,46.986704],[7.446875,46.987026],[7.44765,46.988748],[7.448285,46.989486],[7.450126,46.990213],[7.451073,46.990375],[7.451576,46.990351],[7.452431,46.990032],[7.452761,46.988418],[7.452137,46.988461],[7.452018,46.989607],[7.451703,46.99003],[7.45152,46.990115],[7.450482,46.989879],[7.45005,46.989641],[7.448909,46.989331],[7.448482,46.989111],[7.448021,46.98858],[7.447682,46.987432],[7.447629,46.986887],[7.447897,46.9859],[7.447737,46.985252],[7.446414,46.983744],[7.446185,46.983348],[7.444759,46.98201],[7.443967,46.981452],[7.442298,46.980568],[7.441656,46.979875],[7.441669,46.979553],[7.442058,46.978905],[7.443238,46.978449],[7.444195,46.978321],[7.44452,46.978357],[7.445187,46.978628],[7.446003,46.979208],[7.446957,46.979459],[7.44738,46.979451],[7.448019,46.97921],[7.448214,46.97892],[7.448911,46.978595],[7.449214,46.978101],[7.449413,46.977467],[7.449099,46.97616],[7.448478,46.975397],[7.447199,46.974763]]]}},{"type":"Feature","properties":{"kind":"area"},"geometry":{"type":"Polygon","coordinates":[[[7.290682,46.965308],[7.287817,46.963592],[7.286447,46.963059],[7.284553,46.962831],[7.283296,46.962896],[7.282207,46.963209],[7.280472,46.964542],[7.279922,46.965241],[7.27993,46.965799],[7.280196,46.966112],[7.281785,46.96676],[7.282257,46.967515],[7.283549,46.969076],[7.285356,46.968915],[7.285383,46.96902],[7.285486,46.968959],[7.286194,46.968969],[7.286172,46.968801],[7.286212,46.968919],[7.286282,46.968795],[7.286348,46.968909],[7.286511,46.968663],[7.286511,46.968344],[7.288115,46.967611],[7.288442,46.967561],[7.288634,46.968053],[7.288976,46.968593],[7.289204,46.968751],[7.289333,46.969128],[7.289508,46.969167],[7.291001,46.97062],[7.290891,46.970968],[7.290515,46.971213],[7.289548,46.971573],[7.289773,46.972099],[7.290091,46.972217],[7.290169,46.971742],[7.290372,46.971817],[7.290559,46.972043],[7.290808,46.972083],[7.292474,46.971297],[7.292761,46.971282],[7.293068,46.971422],[7.294484,46.971604],[7.295507,46.971483],[7.295783,46.971348],[7.295916,46.971331],[7.295937,46.971408],[7.29656,46.971234],[7.297526,46.971365],[7.297596,46.971188],[7.297902,46.971141],[7.298171,46.97051],[7.298453,46.970203],[7.299157,46.969662],[7.29929,46.96923],[7.299994,46.96901],[7.300318,46.968665],[7.301052,46.968176],[7.301571,46.967573],[7.302243,46.967137],[7.303913,46.966359],[7.30471,46.966148],[7.305978,46.965641],[7.306994,46.965463],[7.307252,46.96533],[7.30795,46.965588],[7.309194,46.966533],[7.311578,46.967164],[7.313007,46.96732],[7.316151,46.967952],[7.317876,46.968033],[7.319726,46.967804],[7.320088,46.967686],[7.320471,46.967699],[7.32171,46.967195],[7.322546,46.966559],[7.322696,46.966624],[7.322893,46.966562],[7.323129,46.966298],[7.323767,46.966223],[7.327188,46.965264],[7.327721,46.96524],[7.327781,46.965172],[7.328527,46.965207],[7.329952,46.965111],[7.33108,46.964853],[7.331239,46.964914],[7.332764,46.964883],[7.333851,46.965132],[7.335504,46.964785],[7.335897,46.964823],[7.336263,46.964672],[7.336784,46.964809],[7.339121,46.96454],[7.340604,46.964135],[7.341386,46.964174],[7.34285,46.963733],[7.343634,46.963824],[7.34437,46.963736],[7.344804,46.963576],[7.345749,46.963961],[7.345865,46.963858],[7.345965,46.963915],[7.346121,46.963829],[7.346251,46.96389],[7.347161,46.96388],[7.347824,46.963592],[7.348688,46.964362],[7.348679,46.964493],[7.349119,46.964686],[7.3499,46.96527],[7.351365,46.965964],[7.351761,46.966003],[7.352577,46.966469],[7.35306,46.966412],[7.355349,46.966598],[7.358923,46.966698],[7.361649,46.967157],[7.363204,46.967632],[7.365002,46.967872],[7.367072,46.967683],[7.36892,46.967622],[7.370141,46.967235],[7.370698,46.966948],[7.371201,46.966507],[7.371538,46.965816],[7.371575,46.965391],[7.371553,46.965096],[7.371387,46.964788],[7.37129,46.964817],[7.371233,46.964736],[7.371359,46.964711],[7.371358,46.964317],[7.371251,46.96421],[7.371351,46.963922],[7.37078,46.963462],[7.370664,46.962817],[7.368972,46.962581],[7.367948,46.964756],[7.36718,46.96527],[7.366693,46.965333],[7.36652,46.965222],[7.366247,46.965512],[7.365766,46.965753],[7.365462,46.96571],[7.365215,46.965778],[7.365245,46.96586],[7.365025,46.965978],[7.364703,46.965971],[7.364404,46.966108],[7.364299,46.96602],[7.364266,46.966099],[7.363927,46.966144],[7.362815,46.966176],[7.362406,46.966067],[7.362132,46.965865],[7.361919,46.965848],[7.361929,46.965664],[7.361636,46.965739],[7.361357,46.965625],[7.361217,46.965421],[7.36049,46.96516],[7.360032,46.965205],[7.359629,46.965103],[7.35937,46.965164],[7.359238,46.965313],[7.358887,46.965372],[7.358734,46.965308],[7.358352,46.965406],[7.358018,46.965346],[7.357609,46.964859],[7.357382,46.964749],[7.356891,46.964868],[7.356284,46.964293],[7.355406,46.963993],[7.35503,46.964005],[7.354023,46.963484],[7.352892,46.96311],[7.351982,46.962933],[7.350993,46.962532],[7.350722,46.96258],[7.350404,46.962444],[7.350482,46.962151],[7.349472,46.961583],[7.348973,46.961593],[7.348454,46.961444],[7.34841,46.961379],[7.348598,46.961229],[7.348477,46.961118],[7.348623,46.961025],[7.348183,46.960691],[7.346744,46.960091],[7.345779,46.959835],[7.344762,46.959858],[7.342447,46.960349],[7.34183,46.960379],[7.341368,46.960566],[7.341108,46.96054],[7.339949,46.960815],[7.337092,46.961987],[7.336542,46.961984],[7.335619,46.961788],[7.334803,46.961824],[7.333789,46.961992],[7.333545,46.961932],[7.332925,46.962101],[7.332344,46.962414],[7.331469,46.962343],[7.331304,46.962261],[7.33125,46.96236],[7.330844,46.962382],[7.330584,46.96262],[7.330214,46.962386],[7.330111,46.962119],[7.329854,46.962024],[7.328592,46.962274],[7.327912,46.962313],[7.326694,46.962074],[7.324077,46.961771],[7.322559,46.962216],[7.321752,46.963344],[7.321077,46.964076],[7.320969,46.964511],[7.320594,46.964771],[7.320299,46.964768],[7.319861,46.964476],[7.319713,46.964574],[7.319881,46.964791],[7.319716,46.965069],[7.319315,46.965194],[7.319014,46.965154],[7.318951,46.965272],[7.318134,46.965438],[7.317289,46.965528],[7.316463,46.965521],[7.315692,46.965394],[7.314025,46.964872],[7.313415,46.964185],[7.312633,46.963755],[7.312122,46.963737],[7.311612,46.96383],[7.311305,46.963691],[7.311008,46.963083],[7.310458,46.962843],[7.308497,46.962686],[7.30774,46.962454],[7.307561,46.962296],[7.307363,46.962359],[7.306918,46.962158],[7.306627,46.962502],[7.30581,46.962578],[7.304587,46.962558],[7.304383,46.962389],[7.304108,46.962385],[7.303558,46.962585],[7.302729,46.962507],[7.301269,46.962585],[7.300877,46.962839],[7.300269,46.962894],[7.299922,46.963053],[7.299558,46.963538],[7.298724,46.963867],[7.297791,46.96454],[7.296709,46.965891],[7.296211,46.966164],[7.29634,46.966547],[7.295704,46.967757],[7.295362,46.968123],[7.294235,46.968719],[7.292668,46.967174],[7.292427,46.967069],[7.292534,46.966974],[7.291432,46.965695],[7.291223,46.965503],[7.290948,46.965626],[7.290766,46.965544],[7.290682,46.965308]]]}},{"type":"Feature","properties":{"kind":"area"},"geometry":{"type":"Polygon","coordinates":[[[7.445146,46.943295],[7.444887,46.943658],[7.444832,46.943597],[7.444647,46.943672],[7.445357,46.944515],[7.445247,46.944562],[7.445791,46.944968],[7.446061,46.945484],[7.446525,46.945708],[7.448084,46.945957],[7.452553,46.946001],[7.455722,46.946523],[7.455795,46.946379],[7.45403,46.946004],[7.454491,46.945604],[7.454976,46.94566],[7.455829,46.945992],[7.455697,46.946133],[7.45594,46.946044],[7.457743,46.946814],[7.458222,46.947387],[7.458257,46.948257],[7.458122,46.948126],[7.458103,46.949365],[7.4577,46.94981],[7.457392,46.949901],[7.456453,46.950031],[7.455545,46.950007],[7.451591,46.949575],[7.449816,46.949642],[7.448365,46.949967],[7.445582,46.95094],[7.444394,46.951645],[7.444748,46.952056],[7.445658,46.951463],[7.446509,46.951077],[7.448791,46.950351],[7.449834,46.950111],[7.450812,46.950007],[7.451822,46.950016],[7.454817,46.950367],[7.456195,46.950419],[7.457807,46.950251],[7.458509,46.949896],[7.458896,46.949506],[7.458798,46.949452],[7.458777,46.948537],[7.458872,46.947522],[7.458592,46.946883],[7.457888,46.946269],[7.45546,46.945392],[7.45402,46.944672],[7.453249,46.944574],[7.452109,46.944652],[7.449957,46.945167],[7.44999,46.945228],[7.449702,46.945343],[7.449609,46.945597],[7.448122,46.945569],[7.446923,46.945099],[7.446406,46.944765],[7.446147,46.944341],[7.445838,46.942994],[7.445185,46.9431],[7.445146,46.943295]]]}},{"type":"Feature","properties":{"kind":"area"},"geometry":{"type":"Polygon","coordinates":[[[7.466071,46.974273],[7.466795,46.974842],[7.466999,46.975259],[7.46689,46.975556],[7.466211,46.975957],[7.465,46.976117],[7.462824,46.975991],[7.460704,46.976349],[7.456015,46.976761],[7.455103,46.977116],[7.45458,46.977533],[7.454353,46.977774],[7.453945,46.97875],[7.453645,46.980029],[7.453793,46.980108],[7.453567,46.980284],[7.453037,46.98201],[7.4532,46.982039],[7.452999,46.982121],[7.452237,46.984124],[7.452299,46.985319],[7.452041,46.98566],[7.451935,46.986249],[7.452137,46.988461],[7.452761,46.988418],[7.452899,46.987793],[7.452814,46.986767],[7.452858,46.985911],[7.453074,46.985112],[7.452975,46.985087],[7.452932,46.984549],[7.453075,46.983747],[7.454351,46.979726],[7.454615,46.978416],[7.455002,46.977865],[7.455447,46.977541],[7.455947,46.977332],[7.458168,46.977039],[7.458447,46.977068],[7.458453,46.977002],[7.460668,46.976755],[7.461663,46.976545],[7.464035,46.976431],[7.464663,46.976496],[7.466456,46.976222],[7.467144,46.975778],[7.46742,46.975293],[7.467239,46.974688],[7.466988,46.974308],[7.466065,46.97348],[7.46546,46.973804],[7.466071,46.974273]]]}},{"type":"Feature","properties":{"kind":"area"},"geometry":{"type":"Polygon","coordinates":[[[7.466065,46.97348],[7.46546,46.973804],[7.464538,46.973186],[7.464968,46.973271],[7.463797,46.971892],[7.463829,46.972023],[7.463592,46.972046],[7.4638,46.972353],[7.46346,46.972243],[7.46297,46.97173],[7.461506,46.970673],[7.460614,46.970281],[7.459502,46.970015],[7.458993,46.969977],[7.45805,46.970137],[7.456446,46.970646],[7.455607,46.971036],[7.455005,46.971155],[7.454539,46.971353],[7.453501,46.971525],[7.451914,46.971451],[7.449407,46.970802],[7.448177,46.970144],[7.447516,46.969536],[7.444686,46.965642],[7.44531,46.96538],[7.44554,46.965557],[7.446107,46.96634],[7.446304,46.966844],[7.446953,46.967577],[7.448175,46.969331],[7.449176,46.970157],[7.450005,46.970538],[7.450883,46.970813],[7.45253,46.971034],[7.453993,46.970956],[7.455297,46.970699],[7.457791,46.969659],[7.458897,46.969564],[7.459832,46.96966],[7.462124,46.970448],[7.463151,46.97103],[7.463935,46.971637],[7.464868,46.972704],[7.465505,46.973081],[7.465585,46.973313],[7.4659,46.973346],[7.466065,46.97348]]]}},{"type":"Feature","properties":{"kind":"area"},"geometry":{"type":"Polygon","coordinates":[[[7.418298,46.971637],[7.418525,46.970961],[7.420766,46.97112],[7.421826,46.971246],[7.422013,46.97136],[7.422415,46.971348],[7.423351,46.971704],[7.423757,46.972001],[7.425506,46.972765],[7.42739,46.973308],[7.428384,46.973496],[7.429749,46.973411],[7.431415,46.973043],[7.432694,46.97234],[7.433184,46.972619],[7.43216,46.97336],[7.431375,46.973681],[7.430041,46.973995],[7.429477,46.973959],[7.429155,46.974074],[7.428111,46.974093],[7.424149,46.972998],[7.420974,46.971755],[7.420148,46.971649],[7.418298,46.971637]]]}},{"type":"Feature","properties":{"kind":"area"},"geometry":{"type":"Polygon","coordinates":[[[7.378782,46.961356],[7.37915,46.961329],[7.37871,46.961437],[7.378828,46.961642],[7.379033,46.961695],[7.378907,46.961819],[7.379242,46.962654],[7.37943,46.962738],[7.379658,46.962696],[7.379756,46.962873],[7.379859,46.962869],[7.380774,46.964173],[7.381311,46.96474],[7.381317,46.96487],[7.381886,46.965074],[7.38308,46.965739],[7.383666,46.96592],[7.383762,46.965867],[7.385161,46.966045],[7.386377,46.965973],[7.390641,46.966243],[7.392594,46.966144],[7.395088,46.967031],[7.394341,46.966542],[7.39317,46.966145],[7.394815,46.966254],[7.395482,46.96647],[7.396403,46.967212],[7.396213,46.967258],[7.395993,46.967092],[7.395803,46.967074],[7.395309,46.967085],[7.395268,46.967173],[7.396974,46.968004],[7.397046,46.967922],[7.397061,46.968011],[7.397473,46.968065],[7.397502,46.9682],[7.397847,46.968107],[7.397745,46.968282],[7.397835,46.968329],[7.398062,46.968178],[7.398179,46.96826],[7.398486,46.968238],[7.398471,46.968529],[7.39891,46.968551],[7.399091,46.968724],[7.39941,46.968813],[7.400586,46.968841],[7.404513,46.968454],[7.406787,46.968372],[7.407663,46.968367],[7.409045,46.968548],[7.411097,46.969099],[7.413465,46.970129],[7.415182,46.97058],[7.417025,46.970929],[7.418525,46.970961],[7.418298,46.971637],[7.416053,46.971347],[7.413384,46.970782],[7.412028,46.970296],[7.411785,46.97004],[7.410906,46.969723],[7.408237,46.969037],[7.406705,46.968926],[7.40483,46.96899],[7.401388,46.969547],[7.401271,46.969629],[7.400348,46.96965],[7.398602,46.96933],[7.396678,46.968637],[7.394563,46.967671],[7.394073,46.967498],[7.394046,46.967568],[7.393857,46.967394],[7.392854,46.967128],[7.390694,46.966874],[7.390404,46.966907],[7.390455,46.966985],[7.390343,46.96704],[7.390298,46.966875],[7.389781,46.966853],[7.388574,46.966947],[7.388006,46.967158],[7.386425,46.967191],[7.385164,46.966865],[7.382496,46.966605],[7.3811,46.966175],[7.380237,46.965729],[7.379553,46.965114],[7.378504,46.963157],[7.378432,46.96264],[7.377828,46.961632],[7.377399,46.961209],[7.376969,46.960952],[7.376171,46.960641],[7.375432,46.960499],[7.373754,46.960475],[7.372283,46.960962],[7.371399,46.961607],[7.370897,46.962231],[7.370664,46.962817],[7.368972,46.962581],[7.368942,46.962516],[7.369917,46.960998],[7.370669,46.960428],[7.372139,46.959758],[7.373992,46.95953],[7.375355,46.959569],[7.376691,46.959741],[7.377476,46.960041],[7.378078,46.960573],[7.378622,46.961314],[7.378782,46.961356]]]}},{"type":"Feature","properties":{"kind":"area"},"geometry":{"type":"Polygon","coordinates":[[[7.488411,46.923644],[7.488767,46.924322],[7.489795,46.923733],[7.489748,46.923678],[7.491196,46.92316],[7.491384,46.92302],[7.492291,46.922767],[7.492287,46.922646],[7.49244,46.922791],[7.492772,46.922783],[7.492891,46.922597],[7.493143,46.922478],[7.492827,46.922535],[7.493093,46.922432],[7.49305,46.92234],[7.493306,46.922482],[7.493478,46.922357],[7.493876,46.922379],[7.494276,46.922258],[7.494212,46.922041],[7.495046,46.921678],[7.495128,46.921561],[7.495302,46.9216],[7.49594,46.921248],[7.49695,46.92095],[7.497189,46.920787],[7.497383,46.920813],[7.497864,46.920649],[7.497827,46.920542],[7.49809,46.920356],[7.499243,46.919777],[7.500188,46.919579],[7.500158,46.919398],[7.501875,46.918372],[7.502853,46.917452],[7.503085,46.917047],[7.504313,46.91563],[7.503748,46.915296],[7.502926,46.916185],[7.501637,46.917902],[7.500847,46.918488],[7.490699,46.922704],[7.48956,46.923256],[7.488411,46.923644]]]}},{"type":"Feature","properties":{"kind":"area"},"geometry":{"type":"Polygon","coordinates":[[[7.470127,46.925616],[7.470075,46.925782],[7.469366,46.926343],[7.464234,46.929499],[7.461978,46.931218],[7.462548,46.931513],[7.463053,46.931027],[7.463831,46.930585],[7.464156,46.930118],[7.464521,46.929859],[7.469142,46.927025],[7.471518,46.925142],[7.471689,46.925198],[7.472447,46.924334],[7.473074,46.923818],[7.474096,46.923412],[7.474649,46.923293],[7.475297,46.92329],[7.475236,46.922743],[7.474011,46.922819],[7.472987,46.923251],[7.47056,46.925416],[7.470127,46.925616]]]}},{"type":"Feature","properties":{"kind":"area"},"geometry":{"type":"Polygon","coordinates":[[[7.474465,46.922463],[7.473708,46.922692],[7.472559,46.923321],[7.470127,46.925616],[7.47014,46.925457],[7.47248,46.92324],[7.473631,46.922608],[7.474431,46.922376],[7.475272,46.922251],[7.480137,46.921943],[7.48239,46.9216],[7.484471,46.921035],[7.485524,46.920592],[7.485917,46.920544],[7.487833,46.91965],[7.486281,46.920465],[7.485507,46.920672],[7.485188,46.92088],[7.483931,46.921294],[7.483444,46.921342],[7.483043,46.921523],[7.482014,46.921765],[7.479963,46.922091],[7.474465,46.922463]]]}},{"type":"Feature","properties":{"kind":"area"},"geometry":{"type":"Polygon","coordinates":[[[7.475236,46.922743],[7.475297,46.92329],[7.476498,46.92364],[7.477661,46.924121],[7.478909,46.924784],[7.480123,46.925576],[7.481675,46.925969],[7.482623,46.926046],[7.482971,46.925969],[7.482986,46.925891],[7.484331,46.925822],[7.486373,46.925101],[7.48689,46.925126],[7.488767,46.924322],[7.488411,46.923644],[7.486218,46.92438],[7.484205,46.925203],[7.483513,46.925407],[7.482441,46.925441],[7.480438,46.924988],[7.479974,46.924789],[7.478515,46.923816],[7.478194,46.923741],[7.477395,46.923327],[7.476651,46.923127],[7.475936,46.922807],[7.475236,46.922743]]]}},{"type":"Feature","properties":{"kind":"area"},"geometry":{"type":"Polygon","coordinates":[[[7.490374,46.922603],[7.491586,46.922114],[7.491748,46.921901],[7.491985,46.921939],[7.493276,46.92115],[7.495746,46.920151],[7.495795,46.920202],[7.49412,46.920865],[7.493737,46.921062],[7.49377,46.921197],[7.493589,46.921137],[7.493095,46.921326],[7.492457,46.921807],[7.489039,46.923218],[7.488264,46.9235],[7.487626,46.923597],[7.485341,46.924418],[7.484205,46.924676],[7.485353,46.924352],[7.486029,46.924052],[7.486543,46.923979],[7.487667,46.923513],[7.48848,46.923368],[7.490374,46.922603]]]}},{"type":"Feature","properties":{"kind":"line"},"geometry":{"type":"LineString","coordinates":[[6.998599,47.524554],[6.998049,47.52487],[6.9975,47.524926],[6.997326,47.525237],[6.997358,47.525565],[6.997508,47.525742],[6.997995,47.525899],[6.998057,47.525984],[6.997943,47.526346],[6.997938,47.526728],[6.99782,47.526915],[6.99751,47.527087],[6.997261,47.527047],[6.997067,47.526954],[6.996716,47.526355],[6.996236,47.526401],[6.996184,47.526581],[6.996434,47.526992],[6.99644,47.52734],[6.996291,47.527456],[6.995449,47.527685],[6.995268,47.527809],[6.995043,47.52827],[6.995099,47.52869],[6.995414,47.529036],[6.995487,47.529302],[6.995378,47.529432],[6.995142,47.529492],[6.994608,47.5291],[6.994388,47.529092],[6.994226,47.529148],[6.994077,47.529338],[6.994281,47.529862],[6.994077,47.53011],[6.994053,47.530351],[6.99411,47.530591],[6.994442,47.530997],[6.994364,47.531215],[6.99401,47.531514],[6.992873,47.531541],[6.991559,47.531347],[6.990767,47.531744],[6.990246,47.532194],[6.989763,47.532201],[6.989116,47.532416],[6.988002,47.532574],[6.984717,47.533617],[6.983937,47.534072],[6.982454,47.534492],[6.9814,47.534209],[6.979013,47.533384],[6.978657,47.533455],[6.978451,47.533722],[6.978196,47.534422],[6.978019,47.534467],[6.977661,47.534409],[6.975728,47.534672],[6.975263,47.534859],[6.975042,47.535015],[6.973777,47.535193],[6.972365,47.53558],[6.971819,47.535578],[6.971755,47.535536],[6.971729,47.535479],[6.971955,47.535153],[6.97177,47.534758],[6.971504,47.534655],[6.971092,47.534642],[6.970279,47.534718],[6.970132,47.534799],[6.970129,47.534906],[6.970336,47.535128],[6.970689,47.535354],[6.970716,47.535575],[6.970672,47.535753],[6.97022,47.535984],[6.969712,47.535998],[6.969385,47.535901],[6.968911,47.53541],[6.967862,47.535188],[6.967626,47.535207],[6.966431,47.534677],[6.966081,47.534454],[6.965903,47.534442],[6.965452,47.534729],[6.965416,47.534895],[6.965503,47.535238],[6.965698,47.535515],[6.965683,47.535661],[6.965486,47.53589],[6.964105,47.536515],[6.962271,47.53703],[6.960754,47.53729],[6.958634,47.538039],[6.957963,47.538394],[6.955845,47.539265],[6.954487,47.539579],[6.954118,47.539605],[6.953316,47.539526],[6.953147,47.539568],[6.953026,47.539661],[6.952922,47.539969],[6.953114,47.54014],[6.953318,47.540125],[6.953592,47.540291],[6.953562,47.540409],[6.952976,47.540601],[6.952841,47.5407],[6.952489,47.541283],[6.952563,47.541477],[6.952749,47.541569],[6.952971,47.541592],[6.953004,47.5417],[6.952918,47.54175],[6.952133,47.541892],[6.951328,47.541902],[6.951176,47.541999],[6.951153,47.542212],[6.950848,47.542352],[6.950586,47.542291],[6.950409,47.542149],[6.950228,47.541753],[6.948932,47.541596],[6.948666,47.541629],[6.948505,47.541761],[6.948453,47.541911],[6.948828,47.542286],[6.948946,47.542634],[6.94883,47.542739],[6.948567,47.542769],[6.948024,47.542718],[6.947747,47.542811],[6.947626,47.543175],[6.948086,47.543394],[6.948131,47.543529],[6.948066,47.543621],[6.947743,47.543692],[6.947321,47.543707],[6.94711,47.543855],[6.94663,47.544804],[6.94628,47.54499],[6.945982,47.544941],[6.945841,47.544754],[6.946071,47.544272],[6.945983,47.544147],[6.945739,47.544155],[6.945052,47.544326],[6.9448,47.544167],[6.94468,47.543879],[6.944504,47.543829],[6.94395,47.543876],[6.942166,47.543309],[6.941979,47.54336],[6.941803,47.543666],[6.941635,47.543731],[6.940743,47.543501],[6.939762,47.543483],[6.939227,47.543371],[6.938315,47.543482],[6.937958,47.543697],[6.937665,47.544061],[6.93776,47.544463],[6.937682,47.544992],[6.937201,47.545346],[6.936979,47.545608],[6.936302,47.546983],[6.934803,47.547656],[6.934221,47.548177],[6.933914,47.548911],[6.93357,47.549056],[6.931496,47.549423],[6.930676,47.549385],[6.930341,47.549296],[6.92878,47.54833],[6.925818,47.546642],[6.924865,47.546325],[6.924169,47.546277],[6.923386,47.546413],[6.923133,47.546481],[6.922428,47.5469],[6.921276,47.54706],[6.920491,47.547065],[6.916996,47.54683]]}},{"type":"Feature","properties":{"kind":"line"},"geometry":{"type":"LineString","coordinates":[[7.445744,46.944351],[7.44586,46.944675],[7.44626,46.94517],[7.446993,46.945549],[7.447849,46.945739],[7.449858,46.945799],[7.450834,46.945727],[7.451257,46.945139],[7.451836,46.944874],[7.45263,46.944741],[7.453346,46.944778],[7.453703,46.944878],[7.457503,46.946392],[7.458273,46.946946],[7.458513,46.947334],[7.458568,46.947645],[7.458527,46.94914],[7.458462,46.949444],[7.4581,46.949871],[7.457794,46.950057],[7.457226,46.950195],[7.456372,46.950257],[7.455602,46.950212],[7.45148,46.949726],[7.450323,46.949758],[7.449136,46.949957],[7.4462,46.950915],[7.445099,46.951461],[7.442257,46.953558],[7.441531,46.954495],[7.441098,46.955508],[7.44112,46.956851],[7.443675,46.963812],[7.444396,46.964892],[7.445469,46.965868],[7.448044,46.969665],[7.448531,46.9702],[7.44932,46.970667],[7.450313,46.970968],[7.451996,46.971359],[7.4524,46.97142],[7.453537,46.971406],[7.455036,46.971066],[7.4562,46.970683],[7.456943,46.970249],[7.457488,46.970006],[7.457961,46.969879],[7.45894,46.969784],[7.459559,46.969828],[7.460347,46.97001],[7.461119,46.970247],[7.461983,46.97064],[7.463355,46.971361],[7.463819,46.97171],[7.464541,46.972526],[7.466701,46.974504],[7.467157,46.975039],[7.467193,46.975234],[7.467116,46.975556],[7.466943,46.975728],[7.466393,46.976063],[7.466049,46.976173],[7.464506,46.976316],[7.462779,46.976285],[7.45962,46.976695],[7.458204,46.9768],[7.456032,46.977067],[7.454908,46.97743],[7.45448,46.977826],[7.454161,46.978504],[7.453629,46.98111],[7.452668,46.984073],[7.452522,46.98549],[7.452522,46.986462],[7.452742,46.987925],[7.452411,46.988886],[7.452422,46.989825],[7.451979,46.990172],[7.451724,46.990243],[7.45092,46.990282],[7.450012,46.990079],[7.448361,46.989388],[7.447759,46.988639],[7.447207,46.987445],[7.447749,46.986064],[7.44773,46.985775],[7.447514,46.98527],[7.446248,46.983751],[7.444734,46.982448],[7.44427,46.982147],[7.443251,46.981758],[7.442421,46.981218],[7.441579,46.98033],[7.441405,46.979938],[7.441375,46.979534],[7.441481,46.978994],[7.441581,46.978858],[7.443381,46.978182],[7.444015,46.978],[7.444626,46.978115],[7.446033,46.978873],[7.446855,46.979203],[7.44747,46.97922],[7.447761,46.97908],[7.448464,46.978587],[7.448768,46.977371],[7.449049,46.976839],[7.448729,46.975987],[7.448451,46.975564],[7.447954,46.975214],[7.447126,46.974848],[7.445751,46.974693],[7.445563,46.974722],[7.445341,46.974884],[7.444925,46.975848],[7.444584,46.976192],[7.443448,46.976896],[7.442107,46.977043],[7.441475,46.976928],[7.441232,46.976825],[7.439862,46.975381],[7.439567,46.974483],[7.439527,46.971553],[7.439399,46.970323],[7.439156,46.969702],[7.438892,46.969157],[7.438151,46.968619],[7.437798,46.968448],[7.437105,46.968244],[7.436415,46.968193],[7.435415,46.968344],[7.434935,46.968923],[7.434592,46.969538],[7.433976,46.97134],[7.432704,46.972689],[7.431127,46.973417],[7.429643,46.973744],[7.4282,46.973797],[7.426196,46.973274],[7.421365,46.971514],[7.420078,46.971336],[7.417795,46.971219],[7.416908,46.971119],[7.415323,46.970832],[7.413727,46.970457],[7.412782,46.970159],[7.41195,46.96976],[7.410716,46.969289],[7.408912,46.968812],[7.406819,46.968621],[7.405384,46.968623],[7.404271,46.968688],[7.401142,46.969205],[7.400144,46.969286],[7.399423,46.969222],[7.39879,46.969087],[7.392724,46.966568],[7.384323,46.96638],[7.382317,46.966073],[7.380985,46.965523],[7.380019,46.964478],[7.377762,46.960946],[7.37702,46.960408],[7.37612,46.960117],[7.373998,46.959979],[7.372303,46.960185],[7.370722,46.961108],[7.369791,46.962695]]}},{"type":"Feature","properties":{"kind":"line"},"geometry":{"type":"LineString","coordinates":[[7.369791,46.962695],[7.369302,46.964479],[7.368224,46.966248],[7.367325,46.966774],[7.362229,46.966686],[7.353054,46.965893],[7.35147,46.96551],[7.349996,46.964905],[7.347908,46.963257],[7.346836,46.962699],[7.334875,46.963558],[7.326533,46.9638],[7.318112,46.966604],[7.316623,46.966639],[7.307227,46.963941],[7.303964,46.964159],[7.300642,46.965001],[7.296267,46.969858],[7.294161,46.970044],[7.292654,46.969783],[7.289804,46.966946],[7.286982,46.96427],[7.283424,46.964175],[7.282622,46.965307],[7.285546,46.968654],[7.285637,46.969624],[7.286236,46.970766]]}},{"type":"Feature","properties":{"kind":"line"},"geometry":{"type":"LineString","coordinates":[[7.456786,46.946453],[7.456949,46.946379],[7.457503,46.946392]]}},{"type":"Feature","properties":{"kind":"line"},"geometry":{"type":"LineString","coordinates":[[7.503366,46.965341],[7.501916,46.965969],[7.501034,46.966537],[7.500085,46.966792],[7.498292,46.967565],[7.497522,46.967983],[7.496852,46.968545]]}},{"type":"Feature","properties":{"kind":"line"},"geometry":{"type":"LineString","coordinates":[[7.455761,46.946448],[7.456221,46.946444],[7.456642,46.946527],[7.456786,46.946453]]}},{"type":"Feature","properties":{"kind":"line"},"geometry":{"type":"LineString","coordinates":[[7.379312,46.955627],[7.379407,46.955758],[7.380028,46.955911],[7.380208,46.956039],[7.380634,46.956843]]}},{"type":"Feature","properties":{"kind":"line"},"geometry":{"type":"LineString","coordinates":[[7.38388,46.958765],[7.384036,46.959268],[7.383969,46.960184],[7.38446,46.961073],[7.384343,46.961112]]}},{"type":"Feature","properties":{"kind":"line"},"geometry":{"type":"LineString","coordinates":[[7.444396,46.964892],[7.444482,46.965305],[7.444561,46.965496],[7.444511,46.965528]]}},{"type":"Feature","properties":{"kind":"line"},"geometry":{"type":"LineString","coordinates":[[7.43874,46.968546],[7.438151,46.968619]]}},{"type":"Feature","properties":{"kind":"line"},"geometry":{"type":"LineString","coordinates":[[7.379362,46.955722],[7.379327,46.955841],[7.379626,46.955948],[7.379452,46.955978],[7.379439,46.956033],[7.379575,46.956045],[7.379525,46.956109],[7.379696,46.956178]]}},{"type":"Feature","properties":{"kind":"line"},"geometry":{"type":"LineString","coordinates":[[7.381962,46.957588],[7.382163,46.957709]]}},{"type":"Feature","properties":{"kind":"line"},"geometry":{"type":"LineString","coordinates":[[7.382163,46.957709],[7.38388,46.958765]]}},{"type":"Feature","properties":{"kind":"line"},"geometry":{"type":"LineString","coordinates":[[7.380634,46.956843],[7.381962,46.957588]]}},{"type":"Feature","properties":{"kind":"line"},"geometry":{"type":"LineString","coordinates":[[7.580889,46.797557],[7.572847,46.799008],[7.571886,46.799408],[7.571019,46.799923],[7.569956,46.800884],[7.569469,46.801698],[7.569079,46.804695],[7.569105,46.806076],[7.56901,46.806863],[7.568452,46.80849],[7.568992,46.810037],[7.569645,46.811457],[7.570246,46.813137],[7.570452,46.814371],[7.570847,46.815475],[7.571877,46.817912],[7.572049,46.818623],[7.572012,46.819286],[7.571722,46.82072],[7.571311,46.82156],[7.570658,46.822323],[7.567354,46.825577],[7.566324,46.826728],[7.562908,46.831379],[7.561996,46.833104],[7.560118,46.836223],[7.558427,46.839623],[7.557895,46.841143],[7.55744,46.843192],[7.556839,46.845241],[7.556711,46.846239],[7.556187,46.847994],[7.556153,46.849192],[7.55599,46.84992],[7.555149,46.853354],[7.554771,46.854299],[7.554265,46.855126],[7.553501,46.85603],[7.551767,46.858337],[7.550754,46.860238],[7.549921,46.8615],[7.549149,46.862492],[7.548522,46.863625],[7.54781,46.864669],[7.546986,46.865749],[7.546308,46.867046],[7.542901,46.872503],[7.541175,46.875484],[7.540798,46.876282],[7.539957,46.879667],[7.539364,46.882559],[7.538498,46.886132],[7.538128,46.887305],[7.537424,46.889148],[7.536892,46.890121],[7.536541,46.890965],[7.535536,46.892385],[7.528739,46.898701],[7.523632,46.903328],[7.521898,46.904745],[7.518756,46.906213],[7.511065,46.910205],[7.509495,46.910939],[7.507624,46.912165],[7.505867,46.913568],[7.504835,46.914575],[7.501754,46.918197],[7.501304,46.918566],[7.50072,46.918859],[7.487673,46.924383],[7.485726,46.925115],[7.48398,46.925604],[7.482824,46.925734],[7.481815,46.92564],[7.481087,46.925481],[7.480152,46.925164],[7.476577,46.923317],[7.476043,46.92314],[7.475274,46.92306],[7.474726,46.923075],[7.474174,46.923122],[7.473485,46.923291],[7.472991,46.923527],[7.472672,46.923758],[7.471647,46.924749],[7.469483,46.926541],[7.466299,46.92851],[7.462305,46.931097],[7.46197,46.931414],[7.461644,46.931894],[7.46064,46.933787],[7.460305,46.934162],[7.459945,46.934409],[7.459078,46.934678],[7.458237,46.934778],[7.457576,46.93476],[7.456975,46.934667],[7.455567,46.934151],[7.454675,46.933664],[7.453276,46.933072],[7.45234,46.932891],[7.451865,46.932859],[7.45101,46.932861],[7.449302,46.933025],[7.448366,46.93318],[7.447247,46.933477],[7.44645,46.933833],[7.445774,46.934332],[7.445379,46.93476],[7.444418,46.936372],[7.444349,46.936976],[7.44444,46.938133],[7.444645,46.939197]]}},{"type":"Feature","properties":{"kind":"line"},"geometry":{"type":"LineString","coordinates":[[7.444645,46.939197],[7.445405,46.942461],[7.445744,46.944351]]}},{"type":"Feature","properties":{"kind":"line"},"geometry":{"type":"LineString","coordinates":[[7.438962,46.968519],[7.43874,46.968546]]}},{"type":"Feature","properties":{"kind":"line"},"geometry":{"type":"LineString","coordinates":[[7.450834,46.945727],[7.452872,46.945908],[7.455273,46.946357],[7.455761,46.946448]]}},{"type":"Feature","properties":{"kind":"line"},"geometry":{"type":"LineString","coordinates":[[7.44427,46.982147],[7.443505,46.98132],[7.442126,46.980563],[7.441764,46.980506]]}}]}